NAME,COUNTRY,CITY,POSTALCODE,WEBSITE,CONTACT_NAME,POSITION
A. TSOKKOS HOTELS PUBLIC LTD,Cyprus,AMMOCHOSTOS,5341,https://navigate.itb.com/company/A--TSOKKOS-HOTELS-PUBLIC-LTD--1000195,PANAYIOTA IONA,
a&o hostels Marketing GmbH,Germany,Berlin,10179,https://navigate.itb.com/company/a-o-hostels-Marketing-GmbH--1000180,Mariano De Franco,
AAA Hotels & Resorts Pvt Ltd,Maldives,Male',0000,https://navigate.itb.com/company/AAA-Hotels-Resorts-Pvt-Ltd--1215890,Ahmed Shifan,Sales & Revenue Manager
abba Hoteles,Spain,Barcelona,08014,https://navigate.itb.com/company/abba-Hoteles--1123216,David García Celdrán,International Sales Director
ABISENA UBUD BALI,Indonesia,BALI,80561,https://navigate.itb.com/company/ABISENA-UBUD-BALI--1216244,WAYAN PARKA,GENERAL MANAGER
Absalon Hotel Group,Denmark,Copenhagen V,1653,https://navigate.itb.com/company/Absalon-Hotel-Group--1000385,Karen Nedergaard,CEO
Acacia Hotels,Italy,campofelice di roccella,90010,https://navigate.itb.com/company/Acacia-Hotels--1000413,Marisa Carlisi,Contract Manager
Acapulco Resort Hotel,Cyprus,Kyrenia,99390,https://navigate.itb.com/company/Acapulco-Resort-Hotel--1204093,Özer Özbilen,Geschaeftsführer
Accor Hotels Luxembourg,Luxembourg,Luxembourg,L – 2015,https://navigate.itb.com/company/Accor-Hotels-Luxembourg--1216571,Alexandre Turquia,Director Corporate Accounts
ACCOR LUXURY & LIFESTYLE,France,ISSY LES MOULINEAUX,92240,https://navigate.itb.com/company/ACCOR-LUXURY-LIFESTYLE--1000457,Aurélien SUBIAS,Communication & Events Manager
Ace Hotel Kyoto,Japan,Kyoto,6048185,https://navigate.itb.com/company/Ace-Hotel-Kyoto--1216044,Shiho Ikeuchi,General Manager
"Acoya Curaçao Resort, Villas & Spa",Curaçao,Willemstad,0,https://navigate.itb.com/company/Acoya-Curaçao-Resort-Villas-Spa--1000511,Sander Langeveld,
Adaaran Resorts,Maldives,Male',000,https://navigate.itb.com/company/Adaaran-Resorts--1000562,Manujaya Fernando,Deputy General Manager- Sales & Marketing
Adalik Otelcilik Turizm Organzasyon Ticaret A.S.,Türkiye,Antalya,07112,https://navigate.itb.com/company/Adalik-Otelcilik-Turizm-Organzasyon-Ticaret-A-S--1003448,ilhan Yalcin,Sales and Marketing Director
ADALYA HOTELS,Türkiye,ANTALYA,07430,https://navigate.itb.com/company/ADALYA-HOTELS--1000578,ABDULLAH GÜNGÖR,Director of Sales & Marketing
ADAMS BEACH HOTEL,Cyprus,AMMOCHOSTOS,5330,https://navigate.itb.com/company/ADAMS-BEACH-HOTEL--1000580,Constantina Christoudia,Sales and Marketing Executive
Adhitya Ayurveda (Pvt) Ltd,Sri Lanka,Anuradhapura,50000,https://navigate.itb.com/company/Adhitya-Ayurveda-Pvt-Ltd--1214038,Sajani Weerakkody,Senior Executive - Front Office & Guest Relations
Aegeon sa,Greece,MALIA,70007,https://navigate.itb.com/company/Aegeon-sa--1207340,Kostas Aretakis,Sales & Assistant Hotel Manager
Africa Eco Expeditions Camp,Tanzania,Arusha,67889,https://navigate.itb.com/company/Africa-Eco-Expeditions-Camp--1216520,Shannon Witz,"Founder, Managing Director"
African Bush Camps,Switzerland,Kirchberg,9533,https://navigate.itb.com/company/African-Bush-Camps--1215407,Tristan Cowley,Founder and CEO
African Monarch Lodges,Namibia,Windhoek,10005,https://navigate.itb.com/company/African-Monarch-Lodges--1213856,Tinolla Rodgers,MD/Owner
African Sun Hotels,Zimbabwe,Harare,N/A,https://navigate.itb.com/company/African-Sun-Hotels--1000857,Maxwell Moyo,Head Sales
Africa Spirit Srl,Italy,Buttigliera Alta,10090,https://navigate.itb.com/company/Africa-Spirit-Srl--1000826,MR CARMELO REITANO,DIRECTOR
AFRICAWILDTRUCK,Malawi,MULANJE,PO BOX 42,https://navigate.itb.com/company/AFRICAWILDTRUCK--1204736,Francesca Guazzo,CEO
AGAPI BEACH RESORT / FARAWAY HORIZONS SINGLE MEMBER S.A.,Greece,Heraklion,71414,https://navigate.itb.com/company/AGAPI-BEACH-RESORT-/-FARAWAY-HORIZONS-SINGLE-MEMBER-S-A--1216535,Victoria Dolgopolaja,Sales & Marketing Manager
AHG Hotel & Resort,United Kingdom,"Widdington, Saffron Walden",CB11 3SU,https://navigate.itb.com/company/AHG-Hotel-Resort--1001244,Giada Viviani,Sales & Marketing Manager
AIDA Cruises – German Branch of Costa Crociere S.p.A.,Germany,Rostock,18055,https://navigate.itb.com/company/AIDA-Cruises-German-Branch-of-Costa-Crociere-S-p-A--1001275,Ann-Sophie Steffens,
Aitken Spence Hotel Managements (Pvt) Ltd,Sri Lanka,Colombo 02,00200,https://navigate.itb.com/company/Aitken-Spence-Hotel-Managements-Pvt-Ltd--1001402,Suhith Jayasinghe,General Manager - Sales & Marketing
Akassia Tourism Marketing,Egypt,Marsa Alam,84721 El-Quseir,https://navigate.itb.com/company/Akassia-Tourism-Marketing--1216494,Reham Mostafa,Deputy Director of Sales & Marketing
AKHWAN TRAVELS & TOURS,Pakistan,KARACHI,75800,https://navigate.itb.com/company/AKHWAN-TRAVELS-TOURS--1205863,Inamullah Khan,CEO
AKKA HOTELS,Türkiye,ANTALYA,07900,https://navigate.itb.com/company/AKKA-HOTELS--1208106,OYKUM ZISAN URAL,
ALAYA RESORT UBUD,Indonesia,Bali,80571,https://navigate.itb.com/company/ALAYA-RESORT-UBUD--1001588,Ni Putu Nila Kresna Wardani,Director of Sales and Marketing
ALBA Hotels,Türkiye,Manavgat-Side,07600,https://navigate.itb.com/company/ALBA-Hotels--1216857,Mehmet Harmandar,Sales Manager
Albatros Arctic Circle,Greenland,Ilulissat,3952,https://navigate.itb.com/company/Albatros-Arctic-Circle--1216988,JØRGEN LARSEN,Manager
Albena JSCo,Bulgaria,"Balchik, Albena Resort",9620,https://navigate.itb.com/company/Albena-JSCo--1001635,Viktoriya Valkova,Sales Manager
ALDAU Development,Egypt,Cairo,3296131,https://navigate.itb.com/company/ALDAU-Development--1001681,Mayada Abdelmotteleb,Marketing Director
ALEGRIA HOTELS,Spain,Santa Susanna,08398,https://navigate.itb.com/company/ALEGRIA-HOTELS--1216738,LARA PASCUAL,Commercial Manager
"Al Habtoor Grand Resort, Autograph Collection",United Arab Emirates,Dubai,24454,https://navigate.itb.com/company/Al-Habtoor-Grand-Resort-Autograph-Collection--1018709,Arda Kocturk,Sales Manager - Leisure
ALIATHON RESORT,Cyprus,Pafos,8201,https://navigate.itb.com/company/ALIATHON-RESORT--1216124,Xenios Xenophontos,Sales & Marketing Manager
Alila Kothaifaru Maldives,Maldives,Raa Atoll,05110,https://navigate.itb.com/company/Alila-Kothaifaru-Maldives--1001760,Naziya Hassan,ADOS
Aliya Resort & Spa (Pvt) Ltd,Sri Lanka,Colombo 06,00600,https://navigate.itb.com/company/Aliya-Resort-Spa-Pvt-Ltd--1214468,Subhashini Paul,Secretary to Chairman
Al Khoory Hotels,United Arab Emirates,Dubai,6237,https://navigate.itb.com/company/Al-Khoory-Hotels--1216553,Elias El Sous,Head of Sales
ALL STREET SRL,Italy,ALGHERO,07040,https://navigate.itb.com/company/ALL-STREET-SRL--1216620,MASSIMO GIACALONE,DIRECTOR OF SALES
Al Messila Luxury Collection Resort & Spa,Qatar,Doha,1320,https://navigate.itb.com/company/Al-Messila-Luxury-Collection-Resort-Spa--1207535,Aparajita Misra,
"ALOFT, Madrid Gran Vía",Spain,Madrid,28013,https://navigate.itb.com/company/ALOFT-Madrid-Gran-Vía--1214504,Yuliana Kryukova,Director of Sales & Marketing
Aloft Kathmandu Thamel,Nepal,Kathmandu,44600,https://navigate.itb.com/company/Aloft-Kathmandu-Thamel--1001879,Pawan Rajbhandari,Director of Sales and Marketing
Aloft Palm Jumeirah,United Arab Emirates,Dubai,50221,https://navigate.itb.com/company/Aloft-Palm-Jumeirah--1205121,Maria Ivanova,Director of Sales & Marketing
ALPHA HOTEL MANAGEMENT (AHM),Indonesia,Badung,80361,https://navigate.itb.com/company/ALPHA-HOTEL-MANAGEMENT-AHM--1001901,Gufron Gufron,Managing Director
Amantes Villas and Suites,Greece,Halkidiki,63088,https://navigate.itb.com/company/Amantes-Villas-and-Suites--1215642,Thodoris Sivris,Owner
Amara Bangkok,Thailand,Bangkok,10500,https://navigate.itb.com/company/Amara-Bangkok--1216680,Prutthaya Na Songkhla,Director of Sales
"Amarterra Villas Bali Nusa Dua, Autograph Collection",Indonesia,Bali,80363,https://navigate.itb.com/company/Amarterra-Villas-Bali-Nusa-Dua-Autograph-Collection--1215039,Lami Tjandi,General Manager
Amatara Welleisure™ Resort,Thailand,Phuket,83000,https://navigate.itb.com/company/Amatara-Welleisure-tm--Resort--1002090,Dongzi Li,Director of Sales
Amazing Evolution,Portugal,Lisboa,1250-147,https://navigate.itb.com/company/Amazing-Evolution--1216896,Pedro Sousa,
AMBASSADOR GROUP,Czechia,Praha 1 - Nové Město,110 00,https://navigate.itb.com/company/AMBASSADOR-GROUP--1002117,Alena Dytrychová,
Ammon Zeus,Greece,"Kallithea, Chalkidiki",63077,https://navigate.itb.com/company/Ammon-Zeus--1215644,Fay Psychopoulou,CEO
AMPHORA HOTEL,Cyprus,PAPHOS,8042,https://navigate.itb.com/company/AMPHORA-HOTEL--1216123,ONOUFRIOS ONOUFRIOU,HOTEL GENERAL MANAGER
Amrâth Hotels,Netherlands,Hilversum,1213 TS,https://navigate.itb.com/company/Amrâth-Hotels--1205218,Bryan Vreden,Leisure Sales Manager
Amsterdam Manor Beach Resort,Aruba,Oranjestad,0000,https://navigate.itb.com/company/Amsterdam-Manor-Beach-Resort--1159269,Jurgen van Schaijk,Managing |Director
An African Anthology,South Africa,"Killarney , Johannesburg",2193,https://navigate.itb.com/company/An-African-Anthology--1214675,Valerie Bassett,Sales and Marketing
Ananea Madivaru Maldives  (Twin Island Pvt Ltd),Maldives,Male',00000,https://navigate.itb.com/company/Ananea-Madivaru-Maldives--Twin-Island-Pvt-Ltd--1215887,Rizma Waleed,Director of Sales & Marketing
Anantara Iko Mauritius Resort & Villas,Mauritius,Plaine Magnien,0,https://navigate.itb.com/company/Anantara-Iko-Mauritius-Resort-Villas--1002299,Zakiya Auckbar,
ANANTARA KOH YAO YAI RESORT & VILLAS,Thailand,Phang Nga,82160,https://navigate.itb.com/company/ANANTARA-KOH-YAO-YAI-RESORT-VILLAS--1206328,Nanthapak Watthanachotthana,Director of Sales & Marketing
Anantara Lawana Koh Samui Resort and Anantara Bophut Koh Samui Resort,Thailand,"Koh Samui, Surat Thani",84320,https://navigate.itb.com/company/Anantara-Lawana-Koh-Samui-Resort-and-Anantara-Bophut-Koh-Samui-Resort--1215627,Radoslaw Piasecki,Cluster Director of Sales & Business Development
Anantara Maia Seychelles Villas,Seychelles,Anse Louis,0000,https://navigate.itb.com/company/Anantara-Maia-Seychelles-Villas--1002303,Jessica Giroux,
Anantara Riverside Bangkok Resort,Thailand,Bangkok,10600,https://navigate.itb.com/company/Anantara-Riverside-Bangkok-Resort--1002310,Supachai Punja-apisith,Cluster Director of Sales & Business Development
Anantara The Palm Dubai Resort | Anantara World Islands Dubai Resort,United Arab Emirates,Dubai,71607,https://navigate.itb.com/company/Anantara-The-Palm-Dubai-Resort-|-Anantara-World-Islands-Dubai-Resort--1002313,Manish Singh,Cluster Director of Sales
Andaman Beach Hotel Phuket - Handwritten Collection,Thailand,Phuket,83150,https://navigate.itb.com/company/Andaman-Beach-Hotel-Phuket---Handwritten-Collection--1207117,Anton Zharkov,Director of Sales & Marketing
Andaman Embrace Patong,Thailand,Phuket,83150,https://navigate.itb.com/company/Andaman-Embrace-Patong--1002343,Phattarawadee Pimpila,Director of Sales & Marketing
andBeyond,South Africa,"Sandown, Johannesburg",2010,https://navigate.itb.com/company/andBeyond--1002351,Mariska Neethling,Sales Manager Europe
Andishe Gardeshgare Asia,Iran,Tehran,1533876914,https://navigate.itb.com/company/Andishe-Gardeshgare-Asia--1216251,Ehsan Hosseiniahangari,CEO
"Angel Hotel, Abergavenny",United Kingdom,Abergavenny,NP7 5EN,https://navigate.itb.com/company/Angel-Hotel-Abergavenny--1215773,Jo Nugent,Head Of Sales & Marketing
Angsana Laguna Phuket,Thailand,Phuket,83110,https://navigate.itb.com/company/Angsana-Laguna-Phuket--1204721,Ivan Neal Scott,Director of Sales and Marketing
Antigua and Barbuda Tourism Authority,Antigua & Barbuda,St. Johns,****,https://navigate.itb.com/company/Antigua-and-Barbuda-Tourism-Authority--1002517,Cherrie Osborne,Director of Tourism UK & Europe
Apartment Hotel MIMARU,Japan,"Tokyo, Minatoku, Shiba",108-8416,https://navigate.itb.com/company/Apartment-Hotel-MIMARU--1206440,Atsushi Kobayashi,
Apex Alliance Hotel Management,Lithuania,Vilnius,09324,https://navigate.itb.com/company/Apex-Alliance-Hotel-Management--1002596,Zinaida Karpiciene,Group Director of Sales
AP Hotels & resorts,Portugal,Albufeira - Algarve,8200-379,https://navigate.itb.com/company/AP-Hotels-resorts--1002561,Lino Martins,
Apsara Beachfront Resort and Villa,Thailand,Phang-Nga,82200,https://navigate.itb.com/company/Apsara-Beachfront-Resort-and-Villa--1002656,Pensri Riyapan,Assistant Managing Director
Apukka Resort,Finland,Rovaniemi,96900,https://navigate.itb.com/company/Apukka-Resort--1205432,Henna Kyllönen,
AQUA DOME - Tirol Therme Längenfeld GmbH & Co KG,Austria,Längenfeld,6444,https://navigate.itb.com/company/AQUA-DOME---Tirol-Therme-Längenfeld-GmbH-Co-KG--1002688,Sascha Rössel,Leitung Marketing & Sales
AQUA HOTEL GRUP,Spain,"Santa Susanna,Barcelona",08035,https://navigate.itb.com/company/AQUA-HOTEL-GRUP--1205689,Montse Gonzàlez i Collet,Sales Director
Aqualuz Lagos By The Editory,Portugal,Porto,4471-907,https://navigate.itb.com/company/Aqualuz-Lagos-By-The-Editory--1216900,Sandra Ramos,
Aqua Natura Hotels,Portugal,Porto Moniz,9270-156,https://navigate.itb.com/company/Aqua-Natura-Hotels--1002693,João Carlos Nunes,
Aquila Collection,South Africa,Cape Town,8005,https://navigate.itb.com/company/Aquila-Collection--1217096,Suzanne Van Wyk,Trade Relations
Aquila Hotels & Resorts,Greece,"Rethymno, Crete",74100,https://navigate.itb.com/company/Aquila-Hotels-Resorts--1002714,Andreas Floros,Reservations Manager
ARADA,United Arab Emirates,Sharjah,0000,https://navigate.itb.com/company/ARADA--1216229,Elena Salen,Partnership and Sponsorship Manager
Araliya Green City (Pvt) Ltd,Sri Lanka,Nuwara Eliya,22200,https://navigate.itb.com/company/Araliya-Green-City-Pvt-Ltd--1214470,Pallewatte Gamaralalage Wijayananda Sirisena,Chairman
Arbat Issyk-Kul Hotel,Kyrgyzstan,Cholpon-Ata city,722124,https://navigate.itb.com/company/Arbat-Issyk-Kul-Hotel--1216463,Nurbek Alamanov,Director
arcona Management GmbH,Germany,Rostock,18055,https://navigate.itb.com/company/arcona-Management-GmbH--1002815,Anne Volke,Director Marketing
ARCOTEL Hotels & Resorts GmbH,Austria,Wien,1160,https://navigate.itb.com/company/ARCOTEL-Hotels-Resorts-GmbH--1002821,Alexandra Letz,Ass. to Head of Sales
Arctic Nook,Finland,Kittilä,90130,https://navigate.itb.com/company/Arctic-Nook--1215566,Esa Kataisto,
Arena Beach,Maldives,Male',0000,https://navigate.itb.com/company/Arena-Beach--1215964,Aishath Mahufa Samee,"Manager, Sales & Marketing"
Arena Hospitality Group,Croatia,Pula,52100,https://navigate.itb.com/company/Arena-Hospitality-Group--1002856,Zoran Vucelić,Head fo Marketing
Arp-Hansen Hotel Group,Denmark,Gentofte,2820,https://navigate.itb.com/company/Arp-Hansen-Hotel-Group--1002990,Emmy Pettersson,Key Account Manager
ARTOTEL GROUP,Indonesia,Jakarta,12410,https://navigate.itb.com/company/ARTOTEL-GROUP--1003057,Prisca Marcela,Director of Sales
Aruba Ocean Villas,Aruba,Savaneta,0000,https://navigate.itb.com/company/Aruba-Ocean-Villas--1003076,Osyth Henriquez,Owner
Aruba Tourism Authority,Aruba,Oranjestad,xxxx,https://navigate.itb.com/company/Aruba-Tourism-Authority--1003077,Caresse Imon,Management Assistant
ASB Tanzania Ltd T/A Gran Melia Arusha,Tanzania,ARUSHA,0,https://navigate.itb.com/company/ASB-Tanzania-Ltd-T/A-Gran-Melia-Arusha--1206627,Godlove Mlaki,Sales & Marketing manager
"Ascott International Management Vietnam Co., Ltd",Vietnam,Hanoi,100000,https://navigate.itb.com/company/Ascott-International-Management-Vietnam-Co-Ltd--1216150,Kim Yen Nguyen,"Director of Sales, Leisure and MICE, Vietnam, Cambodia and Myanmar"
Asia Aventura Travel,Vietnam,Hanoi,100000,https://navigate.itb.com/company/Asia-Aventura-Travel--1003169,Ha Tran,Marketing Manager
Asia Ecolodge,Vietnam,Hanoi,100000,https://navigate.itb.com/company/Asia-Ecolodge--1216005,Thai Hai Nguyen,Marketing Manager
Asilia Africa,South Africa,Cape Town,7441,https://navigate.itb.com/company/Asilia-Africa--1203273,Zukiso Makalima,Agent Relationship Manager - Europe
Asilia Africa Lodges and Camps,South Africa,Cape Town,7441,https://navigate.itb.com/company/Asilia-Africa-Lodges-and-Camps--1215033,Rabelani Nemakanga,Product Director
ASKA HOTELS,Türkiye,ANTALYA,07112,https://navigate.itb.com/company/ASKA-HOTELS--1003219,BUNYAMIN VURAL,
Association of Hotels and Restaurants of Latvia,Latvia,Rīga,LV1050,https://navigate.itb.com/company/Association-of-Hotels-and-Restaurants-of-Latvia--1215519,Līga Elsiņa-Zuicena,CEO
ASSOCIAZIONE TURISTICA DI QUARTU SANT'ELENA,Italy,QUARTU S. ELENA,09045,https://navigate.itb.com/company/ASSOCIAZIONE-TURISTICA-DI-QUARTU-SANT'ELENA--1003368,ROBERTO MATTA,AMMINISTRATORE
ASTERIAS BEACH HOTEL,Cyprus,Ammochostos,5340,https://navigate.itb.com/company/ASTERIAS-BEACH-HOTEL--1003380,ANDREAS CHRISTODOULIDES,GENERAL MANAGER
ASTROCOCO Resort,Thailand,Surat Thani,84310,https://navigate.itb.com/company/ASTROCOCO-Resort--1217169,Bhupong Chareonsuk,MD
ATLANTICA HOTEL MANAGEMENT LTD,Cyprus,Limassol,4060,https://navigate.itb.com/company/ATLANTICA-HOTEL-MANAGEMENT-LTD--1189081,Panagiota Hadjiperikli,
ATLANTIC Hotels Management GmbH,Germany,Bremen,28329,https://navigate.itb.com/company/ATLANTIC-Hotels-Management-GmbH--1003475,Maike Seedorff,Director Leisure Sales
Atlantis Dubai,United Arab Emirates,Dubai,211222,https://navigate.itb.com/company/Atlantis-Dubai--1003483,Dennis de Winter,"Account Director, Sales"
Atmosphere Core Private Limited,Maldives,Male,20054,https://navigate.itb.com/company/Atmosphere-Core-Private-Limited--1003505,Ali Abdulla,AVP - Marketing
Atmosphere Core Pvt Ltd,Maldives,Male',00,https://navigate.itb.com/company/Atmosphere-Core-Pvt-Ltd--1216269,Marc Gussing,Director of Operations
Attitude Hotels,Mauritius,Calabasses,0,https://navigate.itb.com/company/Attitude-Hotels--1003548,Tina Leuthold,
Avani+Fares Maldives,Maldives,Male',0000,https://navigate.itb.com/company/Avani+Fares-Maldives--1215969,Thaaif Ahmed,Director of Sales & Marketing
Avani+ Khao Lak Resort,Thailand,Phang Nga,82190,https://navigate.itb.com/company/Avani+-Khao-Lak-Resort--1215837,Chutinthon Santhitivatanakul,Director of Sales
Avani+ Koh Lanta Krabi Resort,Thailand,Krabi,81150,https://navigate.itb.com/company/Avani+-Koh-Lanta-Krabi-Resort--1003733,Karun Cornell,Cluster Director of Sales & Marketing
Avani+ Palm View Dubai Hotel & Suites and La Suite Dubai Hotel & Apartments,United Arab Emirates,Dubai,P.O. Box 502624,https://navigate.itb.com/company/Avani+-Palm-View-Dubai-Hotel-Suites-and-La-Suite-Dubai-Hotel-Apartments--1216554,Christine Khachatryan,Cluster Director of Sales & Marketing
Avaz doo Hotel Radon Plaza,Bosnia & Herzegovina,Sarajevo,185,https://navigate.itb.com/company/Avaz-doo-Hotel-Radon-Plaza--1020348,Lejla Softic,Sales Manager
Awaze,United Kingdom,Lowestoft,NR322LW,https://navigate.itb.com/company/Awaze--1003836,Berthold Giesbers,Travel Agency Manager
AX Hotels,Malta,Mosta,MST1741,https://navigate.itb.com/company/AX-Hotels--1003849,Ludgarda Schembri,Cluster Sales Manager - Leisure
Ayada Maldives,Maldives,Male',0000,https://navigate.itb.com/company/Ayada-Maldives--1003885,Badr Eddine Rakmi,Directors of Sales & Marketing
AZAO RESORT AND SPA CO. LTD,Tanzania,Zanzibar,3456,https://navigate.itb.com/company/AZAO-RESORT-AND-SPA-CO--LTD--1216919,Khaled Emara,General Manager
AZIA RESORT AND SPA,Cyprus,PAPHOS,8220,https://navigate.itb.com/company/AZIA-RESORT-AND-SPA--1215743,ILDIKO OROSZLAN,PROJECT MANAGER SALES OFFICE
Azoris Hotels & Leisure,Portugal,Ponta Delgada,9500-216,https://navigate.itb.com/company/Azoris-Hotels-Leisure--1003974,Gil Sousa,
Azure del Mar Belize,Belize,Placencia,0,https://navigate.itb.com/company/Azure-del-Mar-Belize--1213461,Devon Benbrook,Owner
AZZ Hoteles,Spain,Sevilla,41020,https://navigate.itb.com/company/AZZ-Hoteles--1216719,Jose Chacon,Director of Sales & Marketing
Baan Chaweng Beach Resort & Spa - Koh Samui,Thailand,"Koh Samui, Suratthani",84320,https://navigate.itb.com/company/Baan-Chaweng-Beach-Resort-Spa---Koh-Samui--1207678,Preksa Suksong,Sales Executive
BABU JAN TRAVELS AND TOURS,Pakistan,SITE TOWN,75840,https://navigate.itb.com/company/BABU-JAN-TRAVELS-AND-TOURS--1215365,AHTERAM UL HAQ,CEO
Bad Luhačovice,Czechia,Luhačovice,763 26,https://navigate.itb.com/company/Bad-Luhačovice--1207888,Karel Fridrich,
BAGAGLINO - I GIARDINI DI PORTO CERVO,Italy,ARZACHENA,07021,https://navigate.itb.com/company/BAGAGLINO---I-GIARDINI-DI-PORTO-CERVO--1004102,CARLO BAIARDO,DIRETTORE
BAIA HOTELS,Türkiye,ANTALYA,07112,https://navigate.itb.com/company/BAIA-HOTELS--1216708,OKAN GOKCE,
Bali Hai Cruises,Indonesia,Denpasar,80222,https://navigate.itb.com/company/Bali-Hai-Cruises--1004171,Pande Nyoman Gede Ardika,General Manager
Bali Mandira Beach Resort & Spa,Indonesia,Bali,80361,https://navigate.itb.com/company/Bali-Mandira-Beach-Resort-Spa--1004172,Ni Luh Sri Rati Virgiantini,Director of Sales & Marketing
Bali Tropic Resort & Spa,Indonesia,Kabupaten Badung,80363,https://navigate.itb.com/company/Bali-Tropic-Resort-Spa--1004174,I Gusti Made Sudiarsa,Resort Manager
Balkan Holidays Services Ltd.,Bulgaria,Sofia,1000,https://navigate.itb.com/company/Balkan-Holidays-Services-Ltd--1215933,Vasil Ivanov,Director BH International companies & Local Market Development
Bandara Hotels & Resorts,Thailand,Bangkok,10500,https://navigate.itb.com/company/Bandara-Hotels-Resorts--1004233,John Kwok,Group Director of Sales & Marketing
Bandos Maldives,Maldives,Male',0000,https://navigate.itb.com/company/Bandos-Maldives--1215966,Ahmed Siyad,Director of Sales & Marketing
Bangkok Palace Hotel,Thailand,Bangkok,10400,https://navigate.itb.com/company/Bangkok-Palace-Hotel--1004244,Kris Chandraprasert,Vice President - Sales & Marketing
Bangsak Village,Thailand,Phang-Nga,82190,https://navigate.itb.com/company/Bangsak-Village--1004248,Lipda Suthipibul,Assistant to Deputy Managing Director
"BANSKO,BULGARIA",Bulgaria,Bansko,2770,"https://navigate.itb.com/company/BANSKO,BULGARIA--1216332",Atanas Totin,Specialist economic development
Banyan Tree Bangkok,Thailand,Bangkok,10120,https://navigate.itb.com/company/Banyan-Tree-Bangkok--1004260,Manop Lobunditkul,Director of Sales and Marketing
Banyan Tree Doha,Qatar,Doha,24624,https://navigate.itb.com/company/Banyan-Tree-Doha--1004261,Houssam Naddaf,
Banyan Tree Samui,Thailand,Suratthani,84310,https://navigate.itb.com/company/Banyan-Tree-Samui--1215623,Craig McMahon,Area Director of Sales and Marketing
Banyan Tree vabbinfaru,Maldives,Male',000,https://navigate.itb.com/company/Banyan-Tree-vabbinfaru--1207664,Nunitva Wirotworachai,Director of Sales & Marketing
Baraza Resort & Spa,Tanzania,Zanzibar,0000,https://navigate.itb.com/company/Baraza-Resort-Spa--1004280,Sujit Shah,Sales & Marketing
Barberyn Reef Ayurveda Resort Hospital (Pvt) Ltd,Sri Lanka,Moragalla,12070,https://navigate.itb.com/company/Barberyn-Reef-Ayurveda-Resort-Hospital-Pvt-Ltd--1214698,Indaka De Silva,Chairman's Representative
Barcelo Fortina Malta,Malta,Sliema,SLM 3065,https://navigate.itb.com/company/Barcelo-Fortina-Malta--1216371,Andrew Tabone,Director of Sales & Marketing
Barceló Hotel Group Czech Republic,Czechia,Praha 4 - Krč,140 00,https://navigate.itb.com/company/Barceló-Hotel-Group-Czech-Republic--1004297,Markáta Janatová,
Barceló Hotel Group EMEA,Spain,Palma de Mallorca,07006,https://navigate.itb.com/company/Barceló-Hotel-Group-EMEA--1004298,Susana Mari Alonso,Jefa de ventas GGCC - Key Account Manager
Barceló Whale Lagoon Maldives,Maldives,Male',0000,https://navigate.itb.com/company/Barceló-Whale-Lagoon-Maldives--1215944,Jenna Gangmei,Cluster Director of Sales and Marketing
Barefoot Noomadi Hotel Pvt Ltd,Maldives,Male',000,https://navigate.itb.com/company/Barefoot-Noomadi-Hotel-Pvt-Ltd--1040115,Raffaella Colleoni,General Manager
Baron Hotels & Resorts,Egypt,Cairo,2531,https://navigate.itb.com/company/Baron-Hotels-Resorts--1004325,Nader Hanna,Director of sales & Marketing
Bar Peepal Resort,Nepal,Kaski,33700,https://navigate.itb.com/company/Bar-Peepal-Resort--1216378,Meeru Nakarmi,Director of Sales & Marketing
BARUT HOTELS,Türkiye,ANTALYA,07100,https://navigate.itb.com/company/BARUT-HOTELS--1004339,MESUT KURTULMUS,Sales Manager
Batoka Africa,Zimbabwe,Victoria Falls,0,https://navigate.itb.com/company/Batoka-Africa--1215859,Percival Togara,Group Marketing Officer
Bayphere Hotel Pattaya,Thailand,Chonburi,20250,https://navigate.itb.com/company/Bayphere-Hotel-Pattaya--1005009,Pavee Lertvalaikul,Cluster Director of Sales & Marketing
Beau Vallon Hospitality,Mauritius,St. Hubert,0,https://navigate.itb.com/company/Beau-Vallon-Hospitality--1206993,Virginie Gomes Da Costa,
Beds4Greece,Greece,Heraklion-Crete,71202,https://navigate.itb.com/company/Beds4Greece--1004584,Pantelis VERNADOS,COO
Bellabgio Resort & SPA,Egypt,El gouna,14541,https://navigate.itb.com/company/Bellabgio-Resort-SPA--1217144,Michael Salama,Director of Sales
Belmare&Aquaresort Miedzyzdroje Poland,Poland,Miedzyzdroje,72-500,https://navigate.itb.com/company/Belmare-Aquaresort-Miedzyzdroje-Poland--1215438,Anna Konkowska,Sales Manager
Bensaude Turismo - Azores,Portugal,Lisboa,1070-060,https://navigate.itb.com/company/Bensaude-Turismo---Azores--1216868,Pedro Salazar,
BERJAYA LANGKAWI RESORT,Malaysia,Kuala Lumpur,55100,https://navigate.itb.com/company/BERJAYA-LANGKAWI-RESORT--1207130,Carole Yong,
Berjaya Resorts Seychelles,Seychelles,Beau Vallon Beach,550,https://navigate.itb.com/company/Berjaya-Resorts-Seychelles--1004834,Wendy Tan,
Best Western Plus Belize Biltmore Plaza Hotel,Belize,Belize City,0,https://navigate.itb.com/company/Best-Western-Plus-Belize-Biltmore-Plaza-Hotel--1207968,Teodoro Tejada,General Manager
Best Western Plus Carapace Hotel Hua Hin,Thailand,Prachuapkhirikhan,77110,https://navigate.itb.com/company/Best-Western-Plus-Carapace-Hotel-Hua-Hin--1216288,Varaporn Lamai,Director of Sales and Marketing
BETUYAB A.Ş.,Türkiye,ANTALYA,07500,https://navigate.itb.com/company/BETUYAB-A-Ş--1100047,SINAN ISIK,
Beyond Resorts by Kata Group,Thailand,Phuket,83100,https://navigate.itb.com/company/Beyond-Resorts-by-Kata-Group--1204691,Paweena Sinkroh,Director of Sales-Leisure
B Hotel,Kyrgyzstan,Bishkek,720040,https://navigate.itb.com/company/B-Hotel--1216913,Saltanat Midin kyzy,General manager
Big Bay Cruise Group,Vietnam,Hanoi,100000,https://navigate.itb.com/company/Big-Bay-Cruise-Group--1207965,Luan Phuong,Director
Bintan Resorts,Singapore,Singapore,099254,https://navigate.itb.com/company/Bintan-Resorts--1005217,Joanna Lee,
BIO FARM GRAMSH SHPK,Albania,Gramsh,3301AL,https://navigate.itb.com/company/BIO-FARM-GRAMSH-SHPK--1216429,JULIAN SHYQYRIU,ADMINISTRATOR
Biweda Nguni Lodge & Tandweni Villa,South Africa,KwaZulu-Natal,3965,https://navigate.itb.com/company/Biweda-Nguni-Lodge-Tandweni-Villa--1208501,Danica Bartho,Owner
BLAU HOTELS,Spain,Palma,07006,https://navigate.itb.com/company/BLAU-HOTELS--1005391,Marga Alemany,Promotion
BLISS HOI AN BEACH RESORT & WELLNESS,Vietnam,Quang Nam,51250,https://navigate.itb.com/company/BLISS-HOI-AN-BEACH-RESORT-WELLNESS--1217085,Huyen Duong,Co-Founder
Bluebay Hotels Zanzibar,Tanzania,Zanzibar,3276,https://navigate.itb.com/company/Bluebay-Hotels-Zanzibar--1005487,MICHEL VAN DEN BUSSCHE,DIRECTOR OF SALES & MARKETING
Blue Lagoon Group Greece,Greece,Kos,85300,https://navigate.itb.com/company/Blue-Lagoon-Group-Greece--1005453,Maria Mastora,Sales Executive
Blue Lagoon Iceland,Iceland,Grindavik,241,https://navigate.itb.com/company/Blue-Lagoon-Iceland--1207096,Sindri Skarphéðinsson,Sales development manager
Blue Oceanic Beach Hotel (Pvt) Ltd,Sri Lanka,Colombo 02,00200,https://navigate.itb.com/company/Blue-Oceanic-Beach-Hotel-Pvt-Ltd--1215075,Zulaiha Mohideen,Personal Assistant
Bluewater Maribago Beach Resort,Philippines,Cebu,6015,https://navigate.itb.com/company/Bluewater-Maribago-Beach-Resort--1005545,Margarita Munsayac,Director of Marketing
Blu Hotels,Italy,San Felice del Benaco,25010,https://navigate.itb.com/company/Blu-Hotels--1005424,Giulia Franzoni,marketing dept.
Blu Tour Albania DMC,Albania,Tirana,1001AL,https://navigate.itb.com/company/Blu-Tour-Albania-DMC--1216419,Lorin Zhukri,Sales & Marketing Manager
Bohol Beach Club,Philippines,Bohol,6340,https://navigate.itb.com/company/Bohol-Beach-Club--1208092,Allan Santos,General Manager
BOLENTACO LIMITED/ Vhotels Group,Greece,Corfu,49081,https://navigate.itb.com/company/BOLENTACO-LIMITED/-Vhotels-Group--1216023,DIMITRIS KANTALIS,DIRECTOR SALES & MARKETING
Bonotel Exclusive Travel,United States of America,Las Vegas,89169,https://navigate.itb.com/company/Bonotel-Exclusive-Travel--1005684,Sarah Regan,
Bo Phut Resort & Spa,Thailand,"Koh Samui, Surat Thani",84320,https://navigate.itb.com/company/Bo-Phut-Resort-Spa--1005577,Thitiya NGAMCHOKPHIPHOP,Assistant Director of Sales & Marketing
Borealis Hotel Group,Netherlands,Amstelveen,1181 LE,https://navigate.itb.com/company/Borealis-Hotel-Group--1214307,Grixeny Ponson,Area Director of Sales
Borealis Hotel Group (Germany),Germany,Wiesbaden,65185,https://navigate.itb.com/company/Borealis-Hotel-Group-Germany--1215827,Florian Mueller,Director Business Development
Borei Angkor Resort and Spa,Cambodia,Siem Reap,17251,https://navigate.itb.com/company/Borei-Angkor-Resort-and-Spa--1205043,Monirath KHIM,Executive Vice President
Bosmal Arjaan by Rotana Sarajevo,Bosnia & Herzegovina,Sarajevo,71000,https://navigate.itb.com/company/Bosmal-Arjaan-by-Rotana-Sarajevo--1217117,Selver Corbo,Head of Sales & Marketing
BOTANIQ Collection,Hungary,Budapest,1026,https://navigate.itb.com/company/BOTANIQ-Collection--1217104,Kiss Zsuzsanna,Sales Manager
BOUGAINVILLEA GROUP OF LODGES,Tanzania,ARUSHA,0,https://navigate.itb.com/company/BOUGAINVILLEA-GROUP-OF-LODGES--1005826,REGINALD BAGHAYO,DIRECTOR
"Brahman Hills Gardens, Hotel & Spa",South Africa,Nottingham Road,3280,https://navigate.itb.com/company/Brahman-Hills-Gardens-Hotel-Spa--1216508,Onwaba Gonyora,Director
Brayka Resorts - Marsa Alam,Egypt,Marsa Alam,0,https://navigate.itb.com/company/Brayka-Resorts---Marsa-Alam--1206871,Akram Saad,Area Director of Sales & Marketing
Breezes Beach Club & Spa,Tanzania,Zanzibar,P.O.Box 1361,https://navigate.itb.com/company/Breezes-Beach-Club-Spa--1005976,Sujit Shah,Sales & Marketing
Brennia Kottefaru,Maldives,Male',0000,https://navigate.itb.com/company/Brennia-Kottefaru--1005990,Aminath Zaady,COO
BROWN HOTELS GREECE,Greece,ATHENS,10678,https://navigate.itb.com/company/BROWN-HOTELS-GREECE--1209353,TASOS ASKITOGLOU,Vice President Sales
BUBU RESORT SDN BHD,Malaysia,Kuala Lumpur,50400,https://navigate.itb.com/company/BUBU-RESORT-SDN-BHD--1215762,Cheah So On,
Bucuti & Tara Beach Resort,Aruba,Noord,0000,https://navigate.itb.com/company/Bucuti-Tara-Beach-Resort--1006130,Ewald Biemans,CEO
Bühlmann Hotels,Denmark,Copenhagen K,1069,https://navigate.itb.com/company/Bühlmann-Hotels--1214551,Helle Salling Røber,Head of Sales
BWH Hotels,United States of America,Phoenix,85016-2023,https://navigate.itb.com/company/BWH-Hotels--1006417,Betina Maage,Senior Manager
BY THE BLANKET,Malaysia,Georgetown,10050,https://navigate.itb.com/company/BY-THE-BLANKET--1216198,Ieja Hndun Salleh,
C.H.M. Concept Hotel Management Ltd.,Cyprus,Paphos,8026,https://navigate.itb.com/company/C-H-M--Concept-Hotel-Management-Ltd--1212916,Elias Touliaris,Sales Executive
Canareef Resort Maldives,Maldives,Male',0000,https://navigate.itb.com/company/Canareef-Resort-Maldives--1215948,Nabeel Hamid,AM - Sales & Marketing
Cape and Kantary Hotels,Thailand,Phuket,83000,https://navigate.itb.com/company/Cape-and-Kantary-Hotels--1215591,Poomiphat Navanukroh,Group Director - Travel Industry
Cape Dara Resort Pattaya,Thailand,Chonburi,20150,https://navigate.itb.com/company/Cape-Dara-Resort-Pattaya--1006758,Siratcha Chantharat,Director of Sales and Marketing
Cape Vulture Lodge | Camp Sabali,South Africa,Hoedspruit,1380,https://navigate.itb.com/company/Cape-Vulture-Lodge-|-Camp-Sabali--1006656,Ashley Lambert,Director
Capo Bay Hotel,Cyprus,AMMOCHOSTOS,5296,https://navigate.itb.com/company/Capo-Bay-Hotel--1006805,Kratinos Socratous,General Manager
CAP ST GEORGES HOTEL,Cyprus,Paphos,8570,https://navigate.itb.com/company/CAP-ST-GEORGES-HOTEL--1206992,PANAYIOTIS MARKOU,
Carlton Madagascar,Madagascar,Antananarivo,101,https://navigate.itb.com/company/Carlton-Madagascar--1204843,Aina Andriamiseza,Director of Sales and Marketing
CASA DA AMIEIRA,Portugal,Abrã - Alentejo,2025-012,https://navigate.itb.com/company/CASA-DA-AMIEIRA--1216897,Filipe Silva,
Castle Collection,Ireland,Dublin,D01 R640,https://navigate.itb.com/company/Castle-Collection--1205135,Muireann Kyeyune,Brand Manager
Catalonia Hotels & Resorts,Spain,Barcelona,08037,https://navigate.itb.com/company/Catalonia-Hotels-Resorts--1216929,Silvia Esquirol,
CAVALIERI ART HOTEL,Malta,St. Julians,STJ 3019,https://navigate.itb.com/company/CAVALIERI-ART-HOTEL--1007056,Mark Camilleri,General Manager
Caves Beach Resort Hurghada,Egypt,Hurghada,122224,https://navigate.itb.com/company/Caves-Beach-Resort-Hurghada--1210862,Maher Noshey,Director of Rooms & Sales/Marketing
CAVO MARIS BEACH HOTEL,Cyprus,AMMOCHOSTOS,5297,https://navigate.itb.com/company/CAVO-MARIS-BEACH-HOTEL--1007061,ANTONIS ANTONIOU,GENERAL MANAGER
CELES SAMUI,Thailand,Suratthani,84320,https://navigate.itb.com/company/CELES-SAMUI--1007120,Rattigorn Puengtham,Cluster Director of Sales
Centara Grand Island Resort & Spa,Maldives,Male',00,https://navigate.itb.com/company/Centara-Grand-Island-Resort-Spa--1207588,Francesco Pompilo,Cluster General Manager
Centara Hotels & Resorts,Thailand,Bangkok,10330,https://navigate.itb.com/company/Centara-Hotels-Resorts--1007156,Jurairat Mongkolwongsiri,Corporate Vice President -Sales
Centara Mirage Beach Resort Dubai,United Arab Emirates,Dubai,0000,https://navigate.itb.com/company/Centara-Mirage-Beach-Resort-Dubai--1007157,Nodir Kutliev,Director of Sales
Centara Mirage Lagoon Maldives,Maldives,Male',00,https://navigate.itb.com/company/Centara-Mirage-Lagoon-Maldives--1216732,Andrew Jansson,Cluster General Manager
Center Parcs Germany GmbH,Germany,Köln,50679,https://navigate.itb.com/company/Center-Parcs-Germany-GmbH--1007165,Kimberly Lam,Assistant to the Sales Director DACH DK
CGH Earth,India,"Cochin, Kerala",682003,https://navigate.itb.com/company/CGH-Earth--1110447,Sanjay Mechery,
"Chaba Cabana Beach Resort, Koh Samui",Thailand,Bangkok,10900,https://navigate.itb.com/company/Chaba-Cabana-Beach-Resort-Koh-Samui--1007332,Adisorn Suanarunsawat,Sales & Business Development Director
Chada Hotel Group,Thailand,Krabi,81000,https://navigate.itb.com/company/Chada-Hotel-Group--1215976,Felix Kaiblinger,Group General Manager
Chala Number 6 Hotel Chiang Mai,Thailand,Chiang Mai,50200,https://navigate.itb.com/company/Chala-Number-6-Hotel-Chiang-Mai--1217167,Thakanith Saksit,Personal Assistant & Sales
Chanalai Hotels and Resorts,Thailand,Phuket,83100,https://navigate.itb.com/company/Chanalai-Hotels-and-Resorts--1204719,Kusalin Singhatham,director of sales and marketing
Charmillion Hotels and Resorts,Egypt,Sharm El Sheikh,46619,https://navigate.itb.com/company/Charmillion-Hotels-and-Resorts--1007414,Heba Ragab,Marketing Manager
Chateau & Medieval resort Dětenice,Czechia,Praha 10,106 00,https://navigate.itb.com/company/Chateau-Medieval-resort-Dětenice--1215907,Dominika Ondráčková,
Château d’Urspelt ****S,Luxembourg,URSPELT,L-9774 URSPELT,https://navigate.itb.com/company/Château-d’Urspelt-****S--1216570,Shania Langer,SALES ASSITENT
Chatrium Hospitality,Thailand,Bangkok,10120,https://navigate.itb.com/company/Chatrium-Hospitality--1215621,Nawarat Takonsub,Corporate Director of Sales & Marketing
Chaweng Regent and Melati Beach Resort & Spa,Thailand,Suratthani,84320,https://navigate.itb.com/company/Chaweng-Regent-and-Melati-Beach-Resort-Spa--1007437,Chanunpat Thamsakulsiri,dos@chawengregent.com
Cheval Maison The Palm,United Arab Emirates,Dubai,P.O. Box 452769,https://navigate.itb.com/company/Cheval-Maison-The-Palm--1206755,Nadine Zinhobl,Director of Sales
Chi Samui Resort/ Code Samui,Thailand,Suratthani,84320,https://navigate.itb.com/company/Chi-Samui-Resort/-Code-Samui--1215593,Chananglak Chanaphia,CEO
"Cicada Resort Bali Ubud, Autograph Collection",Indonesia,"Gianyar, Bali",80561,https://navigate.itb.com/company/Cicada-Resort-Bali-Ubud-Autograph-Collection--1215078,Ni Nyoman Rekayanti,General Manager
Cinnamon Hotel Management Limited,Sri Lanka,Colombo 03,00300,https://navigate.itb.com/company/Cinnamon-Hotel-Management-Limited--1007666,Natasha Worthington,Senior Executive Sales
Cinnamon Hotels & Resorts,Maldives,Male',0000,https://navigate.itb.com/company/Cinnamon-Hotels-Resorts--1007668,Aneesha Iddawala,Commercial Director Maldives
Ciprotur Hotel Group,Portugal,Ponta Delgada,9500-208,https://navigate.itb.com/company/Ciprotur-Hotel-Group--1216869,Tiago Soares,
Citadines Pearl Hoi An,Vietnam,"Hoi An City, Quang Nam Provice",0,https://navigate.itb.com/company/Citadines-Pearl-Hoi-An--1216613,Ha Le,Director of Sales
CITRUSGRANDE PATTAYA HOTEL,Thailand,Chonburi,20150,https://navigate.itb.com/company/CITRUSGRANDE-PATTAYA-HOTEL--1215614,ANASTASIIA NIKULINA,DIRECTOR MARKETING
Citrus Leisure PLC,Sri Lanka,Colombo 08,00800,https://navigate.itb.com/company/Citrus-Leisure-PLC--1215040,Mani Sugathapala,Director - Sales & Marketing
CITY OF DREAMS MEDITERRANEAN,Cyprus,Limassol,3150,https://navigate.itb.com/company/CITY-OF-DREAMS-MEDITERRANEAN--1007748,Costandinos Christofi,"Senior Sales Manager, Leisure"
Civitel Hotels & Resorts,Greece,,15124,https://navigate.itb.com/company/Civitel-Hotels-Resorts--1007772,VASILIS NAKOS,Cluster Sales Manager
Classic Portfolio,South Africa,Franschhoek,7690,https://navigate.itb.com/company/Classic-Portfolio--1008155,Suzanne Bayly,Owner
Cleopatra Luxury Resorts,Egypt,Cairo,13114,https://navigate.itb.com/company/Cleopatra-Luxury-Resorts--1008189,Sarah Khaled,Sales & Marketing Manager
Clermont Hotel Group,United Kingdom,London,EC1V 8AJ,https://navigate.itb.com/company/Clermont-Hotel-Group--1008190,Louisa Fortune-Terrell,Key Account Director
Club & Hotel Letoonia,Türkiye,MUGLA,48300,https://navigate.itb.com/company/Club-Hotel-Letoonia--1008234,SEMA DINGIL,
Coastal Cottages of Pembrokeshire & Activity Wales Events,United Kingdom,Haverfordwest,SA61 2XG,https://navigate.itb.com/company/Coastal-Cottages-of-Pembrokeshire-Activity-Wales-Events--1215767,Lucy Hancock,Marketing
Coco Bodu Hithi,Maldives,Male',20079,https://navigate.itb.com/company/Coco-Bodu-Hithi--1008315,Fathimath Ifthinaan Riza,Sales & Marketing Coordinator
COLLECTIVE HOSPITALITY COMPANY LIMITED,Thailand,Nonthaburi,11120,https://navigate.itb.com/company/COLLECTIVE-HOSPITALITY-COMPANY-LIMITED--1215199,Tip-Arpa Sapanon,Cluster Director of Sales
Collini Hotels & Resorts,Italy,Milan,20148,https://navigate.itb.com/company/Collini-Hotels-Resorts--1214324,Roberto Andrea Frau,Head of Business Development
COLUMBIA BEACH RESORT,Cyprus,LIMASSOL,4607,https://navigate.itb.com/company/COLUMBIA-BEACH-RESORT--1008418,ANNIE KARAPATAKI,BUSINESS DEVELOPMENT MANAGER
Concorde Hotels and Resorts Egypt,Egypt,Cairo,Po.Box 5614,https://navigate.itb.com/company/Concorde-Hotels-and-Resorts-Egypt--1010048,Walaa Abdel Galil,Director of sales & Marketing
Condituz Hospitality GmbH - VIENNA HOTELS,Austria,Vienna,1010,https://navigate.itb.com/company/Condituz-Hospitality-GmbH---VIENNA-HOTELS--1214858,Stepanka Kanka Srncova,VP Business Development
The Anam Cam Ranh & The Anam Mui Ne,Vietnam,"Nha Trang, Khanh Hoa",650000,https://navigate.itb.com/company/The-Anam-Cam-Ranh-The-Anam-Mui-Ne--1204728,Thuy Linh Trinh,Group Director of Sales
Connaissance De Ceylan (Pvt) Ltd,Sri Lanka,Colombo 06,00600,https://navigate.itb.com/company/Connaissance-De-Ceylan-Pvt-Ltd--1010096,Subhashini Paul,Secretary to Chairman
Conrad Dubai,United Arab Emirates,Dubai,115143,https://navigate.itb.com/company/Conrad-Dubai--1206776,Mohamed Afifi,Assistant Director of Sales
CONSORZIO OPERATORI TURISTICI ISCHIA - ischiahotels.it,Italy,ISCHIA,80077,https://navigate.itb.com/company/CONSORZIO-OPERATORI-TURISTICI-ISCHIA---ischiahotels-it--1217051,Andrea Di Meglio,Vice President
Consorzio Pordenone Turismo,Italy,PORDENONE,33170,https://navigate.itb.com/company/Consorzio-Pordenone-Turismo--1010212,ELDDA MARCELA HERNANDEZ,Sales & Marketing
"Constance Hotels, Resorts & Golf",Germany,Eschborn,65760,https://navigate.itb.com/company/Constance-Hotels-Resorts-Golf--1010237,Heike Salzmann,Marketing Coordinator
Constantinou Bros Hotels,Cyprus,Paphos,8101,https://navigate.itb.com/company/Constantinou-Bros-Hotels--1203497,Jannis Ioannou,Manager
Cora Cora Maldives,Maldives,Male',20057,https://navigate.itb.com/company/Cora-Cora-Maldives--1010440,Vishen Mootoo,Commercial Director
Coral Beach Resort Sharjah,United Arab Emirates,Sharjah,1033,https://navigate.itb.com/company/Coral-Beach-Resort-Sharjah--1215493,Jan Siddiqi,Cluster Director of Sales
Coral Estate Luxury Resort,Curaçao,St. Marie,0,https://navigate.itb.com/company/Coral-Estate-Luxury-Resort--1010450,Zoran Ruttner,
CORNELIA HOTELS.GOLF.SPA,Türkiye,Belek-Serik /Antalya,07500,https://navigate.itb.com/company/CORNELIA-HOTELS-GOLF-SPA--1045163,Seren Erdogmus,Sales & Marketing Manager
Corniche Hotel Sharjah,United Arab Emirates,Sharjah,0000,https://navigate.itb.com/company/Corniche-Hotel-Sharjah--1216231,Nehal Rizvi,Cluster Director of Sales and Marketing
Cottages.com,United Kingdom,Suffolk,NR32 2LW,https://navigate.itb.com/company/Cottages-com--1010565,Ben Osmond,Third Party Connectivity Manager
Countryside Resort Iloranta,Finland,Hauho,14700,https://navigate.itb.com/company/Countryside-Resort-Iloranta--1215412,Samu Lescelius,CEO
Courtyard by Marriott Aruba Resort,Aruba,Noord,0000,https://navigate.itb.com/company/Courtyard-by-Marriott-Aruba-Resort--1215011,Milouska Briezen,Director of Sales and Marketing
Courtyard by Marriott Bali Nusa Dua Resort,Indonesia,Denpasar,80363,https://navigate.itb.com/company/Courtyard-by-Marriott-Bali-Nusa-Dua-Resort--1010584,Vanessa Chua,Director Sales and Marketing
"CPI Hotels, a.s.",Czechia,Praha 10,100 00,https://navigate.itb.com/company/CPI-Hotels-a-s--1209493,Vendula Pleskačová,
Crerar Hotels Group,United Kingdom,Edinburgh,EH6 7EZ,https://navigate.itb.com/company/Crerar-Hotels-Group--1215702,Louise Rattray,Groups Sales Manager
Cresta Grande Cape Town,South Africa,Cape Town,8001,https://navigate.itb.com/company/Cresta-Grande-Cape-Town--1217135,Jean-Pierre Moggee,General Manager
Cresta Mowana Safari Resort & Spa,Botswana,Kasane,0000,https://navigate.itb.com/company/Cresta-Mowana-Safari-Resort-Spa--1216951,Wame Masike,Sales Manager - Leisure
Creta Maris Resort - TUI Magic Life Candia Maris,Greece,Heraklion,71306,https://navigate.itb.com/company/Creta-Maris-Resort---TUI-Magic-Life-Candia-Maris--1207985,Marina Maniadi,Senior Sales Manager
"CROSSING LODGES, South Africa: Elephants & Zebras Crossing",South Africa,Modimolle,0510,https://navigate.itb.com/company/CROSSING-LODGES-South-Africa:-Elephants-Zebras-Crossing--1206524,Thijs Claassen,Managing Director
CROSSROADS Maldives,Maldives,Male',0000,https://navigate.itb.com/company/CROSSROADS-Maldives--1207577,Farish Moosa,Cluster Sales Manager
Crown & Champa Resorts,Maldives,Male',00,https://navigate.itb.com/company/Crown-Champa-Resorts--1194838,Ahmed Shaheen,Chief Commercial Leader
Crowne Plaza Dubai Marina,United Arab Emirates,Dubai,116888,https://navigate.itb.com/company/Crowne-Plaza-Dubai-Marina--1010752,Bernard Mehawech,Director of Sales & Marketing
CRYSTAL LODGES / CRYSTAL SAFARIS,Uganda,KAMPALA,256,https://navigate.itb.com/company/CRYSTAL-LODGES-/-CRYSTAL-SAFARIS--1208527,CHRISTINE MWINIKE,CEO
Cullinan Belek,Türkiye,Antalya,07525,https://navigate.itb.com/company/Cullinan-Belek--1100056,Tarik Egemen,
Curaçao Marriott Beach Resort,Curaçao,Willemstad,0,https://navigate.itb.com/company/Curaçao-Marriott-Beach-Resort--1010880,Hetty Groote,
Curaçao Tourist Board,Curaçao,Willemstad,0,https://navigate.itb.com/company/Curaçao-Tourist-Board--1010881,Anne Rösner,Trade Coordinator
CYPRUS AGROTOURISM COMPANY,Cyprus,Nicosia,2112,https://navigate.itb.com/company/CYPRUS-AGROTOURISM-COMPANY--1010937,Evie Panayiotou,
Danske Hoteller A/S,Denmark,Frederiksberg C,1850,https://navigate.itb.com/company/Danske-Hoteller-A/S--1216265,Jørgen Christensen,CCO/Commercial Director
Danubius Hotels Zrt.,Hungary,Budapest,1051,https://navigate.itb.com/company/Danubius-Hotels-Zrt--1174164,Nikolett Szentes,"Key Account Manager I Meetings, Events & Travel Trade"
Dara Samui Beach Resort,Thailand,Suratthani,84320,https://navigate.itb.com/company/Dara-Samui-Beach-Resort--1215831,Christian Kluding,Director of Sales & Marketing
Darius Tourism Group (Shahrzadbaal - Parsian Naghshe Jahan),Iran,Esfahan,8175676479,https://navigate.itb.com/company/Darius-Tourism-Group-Shahrzadbaal---Parsian-Naghshe-Jahan--1216249,Amirmasoud Lavafan,Chairman of the Board
db Hotels & Resorts,Malta,Qawra,SPB 1902,https://navigate.itb.com/company/db-Hotels-Resorts--1011236,John Messina,Director of Sales
Decameron All Inclusive Hotels & Resorts.,Colombia,Bogotá,0,https://navigate.itb.com/company/Decameron-All-Inclusive-Hotels-Resorts--1011337,GUILLERMO JOSE ORTEGA CARVAJAL,
Deevana Plaza Krabi Aonang,Thailand,Krabi,81180,https://navigate.itb.com/company/Deevana-Plaza-Krabi-Aonang--1011364,PATTAMA SUEBSAI,Assistant Director of Sales & Marketing
Deevana Plaza Phuket Patong,Thailand,Phuket,83150,https://navigate.itb.com/company/Deevana-Plaza-Phuket-Patong--1215590,Kittisak Sae-Ngo,Cluster Director of Sales
"Delta Hotels by Marriott Jumeirah Beach, Dubai",United Arab Emirates,Dubai,118555,https://navigate.itb.com/company/Delta-Hotels-by-Marriott-Jumeirah-Beach-Dubai--1011461,Iuliia Kravtsova,Senior Sales Manager
Department of Culture and Tourism of Guangdong Province,China,"Guangzhou,Guangdong",510080,https://navigate.itb.com/company/Department-of-Culture-and-Tourism-of-Guangdong-Province--1205939,Na Wu,Staff
Desert Rose Resort,Egypt,Hurghada,0,https://navigate.itb.com/company/Desert-Rose-Resort--1216668,Noha Nabil,Director of Marketing and Communications
DESTIGO HOTELS,Poland,GDYNIA,81-331,https://navigate.itb.com/company/DESTIGO-HOTELS--1217149,DOROTA PARDA,GROUP SALES MANAGER
Dewa Phuket Resort & Villas,Thailand,Phuket,83110,https://navigate.itb.com/company/Dewa-Phuket-Resort-Villas--1206565,Napassaran Udomsattasin,Complex Director of Sales
Dhigufaru Island Resort,Maldives,Baa Atoll,20256,https://navigate.itb.com/company/Dhigufaru-Island-Resort--1011906,Ethel Joseph,Director of Sales & Marketing
Diamond Cliff Resort & Spa,Thailand,Phuket,83150,https://navigate.itb.com/company/Diamond-Cliff-Resort-Spa--1011935,Usa Chiraphadanakul,Executive Assistant Manager
DiaMonde e.K.,Germany,Stuttgart,70469,https://navigate.itb.com/company/DiaMonde-e-K--1216234,Frauke Groth,Account Director
DIAMOND HOTELS,Türkiye,DIAMOND HOTELS,07600,https://navigate.itb.com/company/DIAMOND-HOTELS--1100051,Ahmet ARI,Sales & Marketing Manager
Diana Dea Lodge,Réunion,Sainte Anne,97437,https://navigate.itb.com/company/Diana-Dea-Lodge--1036748,Bertrand Van Hauw,Direktor
Dimitile Hotel & Spa (AMANTA Groupe),Réunion,Entre Deux,97414,https://navigate.itb.com/company/Dimitile-Hotel-Spa-AMANTA-Groupe--1024773,Sébastien Cron,Directeur commercial
Discovery Resorts,Philippines,Coron,5316,https://navigate.itb.com/company/Discovery-Resorts--1216345,Leonardo San Jose,Director of Business Development (Discovery Boracay and Discovery Coron)
Divi & Tamarijn Aruba All Inclusives,Netherlands,Amstelveen,1181 PE,https://navigate.itb.com/company/Divi-Tamarijn-Aruba-All-Inclusives--1012209,Hetty Groote,
DMC Luxembourg,Luxembourg,LUXEMBOURG,L-1940,https://navigate.itb.com/company/DMC-Luxembourg--1216565,Svenja SIEMSEN,Group & DMC Experience Manager
Doha Oasis,Qatar,Doha,24624,https://navigate.itb.com/company/Doha-Oasis--1217079,Dana El Namly,
Dolphin Hotels PLC,Sri Lanka,Colombo 10,01000,https://navigate.itb.com/company/Dolphin-Hotels-PLC--1214466,Eksath Wijeratne,CEO
Domaine de Grand Baie,Mauritius,Grand Baie,0,https://navigate.itb.com/company/Domaine-de-Grand-Baie--1012344,Saheed Eyasim,
Domes Resorts,Greece,Thessaloniki,555 35,https://navigate.itb.com/company/Domes-Resorts--1207237,Irini Roidou,Sales Executive
Dom Pedro Lisboa,Portugal,Lisboa,1070-110,https://navigate.itb.com/company/Dom-Pedro-Lisboa--1012338,Sónia Matias,
Dorint Hotels & Resorts,Germany,Köln,50858,https://navigate.itb.com/company/Dorint-Hotels-Resorts--1214039,Doris Richter,Projektmanagerin der Geschäftsführung
Dorint Hotels & Resorts Schweiz,Switzerland,Basel,4058,https://navigate.itb.com/company/Dorint-Hotels-Resorts-Schweiz--1014347,Karim Abd El Aziz,
DORISOL HOTELS MADEIRA,Portugal,Funchal,9004-535,https://navigate.itb.com/company/DORISOL-HOTELS-MADEIRA--1216638,António Silva,
DOT Lifestyle,Switzerland,Lugano,6900,https://navigate.itb.com/company/DOT-Lifestyle--1216518,Frederica Pagani,
"DOUBLE SIX LUXURY HOTEL, SEMINYAK",Indonesia,Badung,80361,https://navigate.itb.com/company/DOUBLE-SIX-LUXURY-HOTEL-SEMINYAK--1012471,Dayu Basmiari,Assistant General Manager Corporate
DoubleTree by Hilton Marjan Island,United Arab Emirates,Ras Al Khaimah,14800,https://navigate.itb.com/company/DoubleTree-by-Hilton-Marjan-Island--1208639,Elena Ivanova,Director of Sales
DoubleTree By Hilton Trieste,Italy,Trieste,34122,https://navigate.itb.com/company/DoubleTree-By-Hilton-Trieste--1012476,Alessia Tofani,"Sales Manager, Leisure Market"
DouroAzul,Portugal,Porto,4050-387,https://navigate.itb.com/company/DouroAzul--1012478,Sofia Rodrigues,
Dream Hotels & Resorts,South Africa,Johannesburg,2021,https://navigate.itb.com/company/Dream-Hotels-Resorts--1207037,wayne neath,Resort Sales Tribal Chief
Dreams Resorts Egypt,Egypt,Cairo,1277,https://navigate.itb.com/company/Dreams-Resorts-Egypt--1012559,Wael Farouk,Director of sales & Marketing
Drift Thelu Veliga Retreat,Maldives,Male',0000,https://navigate.itb.com/company/Drift-Thelu-Veliga-Retreat--1215960,Aishath Suhaila,Director of Sales
DSR Hotel Holding GmbH,Germany,Rostock,18055,https://navigate.itb.com/company/DSR-Hotel-Holding-GmbH--1215081,Sabrina Jahn,Teamleiterin Personalmarketing
Dubai,United Arab Emirates,Dubai,594,https://navigate.itb.com/company/Dubai--1211938,Najwa Mulla,"Senior Manager, Brand Activations"
"Dukes The Palm, a Royal Hideaway",United Arab Emirates,Dubai,120015,https://navigate.itb.com/company/Dukes-The-Palm-a-Royal-Hideaway--1012676,Amer Khoury,Director of Sales & Marketing
Dukley Hotel & Resort,Montenegro,Budva,85310,https://navigate.itb.com/company/Dukley-Hotel-Resort--1107756,Milica Kastratovic,Events Manager
Dusit Hotels and Resorts,Thailand,Bangkok,10330,https://navigate.itb.com/company/Dusit-Hotels-and-Resorts--1012718,Pamela Ide,Director of Sales
Dusit Thani Hua Hin,Thailand,Petchburi,76120,https://navigate.itb.com/company/Dusit-Thani-Hua-Hin--1012720,Pantipa Kruasunthornwanit,Director of Sales and Marketing
Dusit Thani Laguna Phuket,Thailand,Phuket,83110,https://navigate.itb.com/company/Dusit-Thani-Laguna-Phuket--1012722,Pariyakorn Pansiri,Director of Sales and Marketing
Dusit Thani Maldives,Maldives,Male',00,https://navigate.itb.com/company/Dusit-Thani-Maldives--1207530,Rifaa Ath Saeed,DOSM
Eagles Resort,Greece,Ouranoupolis,63075,https://navigate.itb.com/company/Eagles-Resort--1205463,Yannis Avramidis,Director of Sales
Eastend Hotels and Resorts,India,Idukki,685612,https://navigate.itb.com/company/Eastend-Hotels-and-Resorts--1217024,Rajesh Kolappuram,Corporate General Manager
EB Hotel Miami,United States of America,Miami,33166,https://navigate.itb.com/company/EB-Hotel-Miami--1215928,Brenda Solano,
EcoBoo Maldives,Maldives,"Thinadhoo, Vaavu Atol",10020,https://navigate.itb.com/company/EcoBoo-Maldives--1215967,Fernando Bandes,Sales Manager
Eden Bleu Hotel,Seychelles,Eden Island,0000,https://navigate.itb.com/company/Eden-Bleu-Hotel--1013408,Joao Alves,
Efteling Theme Park Resort,Netherlands,Kaatsheuvel,5171 KW,https://navigate.itb.com/company/Efteling-Theme-Park-Resort--1205246,Paco Rodriguez,Account Manager Traveltrade
Egyptian Hotels Association,Egypt,Giza,12411,https://navigate.itb.com/company/Egyptian-Hotels-Association--1216495,Eman Badawy,Director of sales & Marketing
Ela Excellence Resort Belek - Aktay Otel İsletmeleri A.S,Türkiye,Antalya,07130,https://navigate.itb.com/company/Ela-Excellence-Resort-Belek---Aktay-Otel-İsletmeleri-A-S--1001475,Murat SUSLU,Marketing Manager
Element by Westin Ubud Bali,Indonesia,Bali,80571,https://navigate.itb.com/company/Element-by-Westin-Ubud-Bali--1214879,Ni Kadek Yuli Undayani,Director of Sales
Elephant Hills,Thailand,Surat Thani,84250,https://navigate.itb.com/company/Elephant-Hills--1215834,Potjana Sujinno,Marketing Manager
Elewana Collection,Kenya,Nairobi,00506,https://navigate.itb.com/company/Elewana-Collection--1013774,Nrupali Dave,Marketing Manager
"El Gouna, Red Sea",Egypt,Cairo,11221,https://navigate.itb.com/company/El-Gouna-Red-Sea--1013638,Hania Teima,
ELITE WORLD HOTELS & RESORTS,Türkiye,ISTANBUL,34437,https://navigate.itb.com/company/ELITE-WORLD-HOTELS-RESORTS--1013807,ALP ALPMEN,
Ella Resorts,Greece,"Marousi, Athens",15125,https://navigate.itb.com/company/Ella-Resorts--1207400,George Doucas,Marketing & Communications Director
El Nido Resorts,Philippines,Taguig,1634,https://navigate.itb.com/company/El-Nido-Resorts--1216352,Jose Marie Bernardino,Sr. Group Director of Sales
El Qalaa El Hamraa for property management,Egypt,Cairo,11522,https://navigate.itb.com/company/El-Qalaa-El-Hamraa-for-property-management--1216940,rawan aboaly,Marketing specialist
Emaar Hospitality Group - Dubai Creek Harbour,United Arab Emirates,Dubai,9440,https://navigate.itb.com/company/Emaar-Hospitality-Group---Dubai-Creek-Harbour--1216266,Shazia Ahmed,Cluster Sales
Emerald Collection,Maldives,Male',0000,https://navigate.itb.com/company/Emerald-Collection--1013907,Mattia Scarapicchia,Global Sales & Marketing Manager
Emerald Resort Zanzibar,Italy,Rome,0,https://navigate.itb.com/company/Emerald-Resort-Zanzibar--1216731,Scott le Roi,DIRECTOR
EM Hotels,Colombia,Cartagena,0,https://navigate.itb.com/company/EM-Hotels--1013880,IOANA NAN,"Comercial representative - Germany, Netherlands"
Enashipai Resort and Spa,Kenya,Nairobi,00200,https://navigate.itb.com/company/Enashipai-Resort-and-Spa--1207385,Mary Kimenju,Sales Account Manager
ENFINITI ESCAPES (M) SDN BHD,Malaysia,Kota Damansara,47180,https://navigate.itb.com/company/ENFINITI-ESCAPES-M-SDN-BHD--1216200,Zaiton Ahmad Fuad,
Ensana Health Spa Hotels,Czechia,Prague 1,110 00,https://navigate.itb.com/company/Ensana-Health-Spa-Hotels--1014077,Yakov Berkovitch,
Entumoto Safari Camp,Kenya,Masai Mara Reserve,Masai Mara Reserve,https://navigate.itb.com/company/Entumoto-Safari-Camp--1215883,Felix von Heland,Head of Marketing
Erinvale Estate Hotel & Spa,South Africa,Cape Town,7130,https://navigate.itb.com/company/Erinvale-Estate-Hotel-Spa--1216651,Cheryl-Ann Doveton,Sales Lead
Esperia Group,Greece,Rhodes,85100,https://navigate.itb.com/company/Esperia-Group--1204796,Angelika Vasilaki,Sales Manager
Es Saadi Marrakech Resort,Morocco,Marrakech,40000,https://navigate.itb.com/company/Es-Saadi-Marrakech-Resort--1014287,Soumia NOUSSAIRI,Director of Sales
ETHNO HOTELS,Türkiye,Antalya,07430,https://navigate.itb.com/company/ETHNO-HOTELS--1045206,Cagri Damar,Marketing Manager
Eurostars Hotel Company S.L,Spain,Madrid,28027,https://navigate.itb.com/company/Eurostars-Hotel-Company-S-L--1214619,Estel Munne,"Marketing, Communication, and Project Innovation"
Exclusive Reservations & Marketing,Namibia,Windhoek,9000,https://navigate.itb.com/company/Exclusive-Reservations-Marketing--1206355,Leana Marais,Owner
Experienciah Hotels & Resorts,Morocco,rabat,20000,https://navigate.itb.com/company/Experienciah-Hotels-Resorts--1217140,Sana EL AITONI,Commercial Director
Extraordinary,South Africa,"Bryanston, Johannesburg",2191,https://navigate.itb.com/company/Extraordinary--1215550,Cindy Sheedy Walker,Consultant
Fairfield by Marriott Bali Kuta Sunset Road,Indonesia,Bali,80361,https://navigate.itb.com/company/Fairfield-by-Marriott-Bali-Kuta-Sunset-Road--1214878,Ni Komang Budiani,Director of Sales & Marketing
Fair House Villas and Spa,Thailand,Koh Samui,84330,https://navigate.itb.com/company/Fair-House-Villas-and-Spa--1216253,Kunnuda Wallberg,Cluster Director of Sales and Marketing
Fair Job Hotels e.V.,Germany,Hamburg,22083,https://navigate.itb.com/company/Fair-Job-Hotels-e-V--1015093,Helene Jeske,Operations & Event Manager
Fairmont Hotels and Resorts Kenya,Kenya,"Nanyuki, Nairobi, Masai Mara",PO BOX 35,https://navigate.itb.com/company/Fairmont-Hotels-and-Resorts-Kenya--1015114,Veronique Delattre,General Manager
Fairmont La Hacienda Costa del Sol,Spain,San Roque,11310,https://navigate.itb.com/company/Fairmont-La-Hacienda-Costa-del-Sol--1216702,Eva Gonzalez,Assistant Director of Sales Leisure
Falkensteiner Hotels & Residences,Austria,Wien,1020,https://navigate.itb.com/company/Falkensteiner-Hotels-Residences--1205465,Meggy Mendes,Business Development Manager Leisure
Falkensteiner Spa Resort Marienbad,Czechia,Praha 1,110 00,https://navigate.itb.com/company/Falkensteiner-Spa-Resort-Marienbad--1216381,Radka Ševcová,
Farah Nile Cruise,Egypt,Cairo,12333,https://navigate.itb.com/company/Farah-Nile-Cruise--1015194,Eman Badawy,Director of sales & Marketing
Faranda Hotels & Resorts,Colombia,CARTAGENA,0,https://navigate.itb.com/company/Faranda-Hotels-Resorts--1015195,SADIS MERCEDES SAJONA LARA,Business development manager
Farma Sotira,Albania,Leskovik,7401,https://navigate.itb.com/company/Farma-Sotira--1217091,Jonida Maria Hëna,Owner
FAROS HOTEL AYIA NAPA,Cyprus,AMMOCHOSTOS,5344,https://navigate.itb.com/company/FAROS-HOTEL-AYIA-NAPA--1015230,Andreas Christodoulides,General Manager
Feline Holidays A/S,Germany,Hamburg,20354,https://navigate.itb.com/company/Feline-Holidays-A/S--1015359,Heidi Kusch,Online Marketing & SEO
Felix Hotels,Italy,Arzachena,07021,https://navigate.itb.com/company/Felix-Hotels--1216595,Adriana Pintus,sales
Fell Centre Kiilopää,Finland,Saariselkä,99830,https://navigate.itb.com/company/Fell-Centre-Kiilopää--1216972,Tiia Mustonen,Sales and Marketing Manager
Feriepartner Danmark,Denmark,Frederiksberg,1827,https://navigate.itb.com/company/Feriepartner-Danmark--1011079,Jesper Blomberg,CEO decentral
Festa Hotels PLC,Bulgaria,Sofia,1404,https://navigate.itb.com/company/Festa-Hotels-PLC--1216407,Stoyan Dolapchiev,Sales Director
Fincallorca GmbH,Germany,Hamburg,20354,https://navigate.itb.com/company/Fincallorca-GmbH--1215035,Berthold Giesbers,Travel Agency Manager
Finland,Finland,Helsinki,00760,https://navigate.itb.com/company/Finland--1037629,Saija Taattola,Project Manager
Finolhu Baa Atoll Maldives,Maldives,Male',0000,https://navigate.itb.com/company/Finolhu-Baa-Atoll-Maldives--1015581,Samantha Trinidad,Sales & Marketing Executive
Fisherman's Rest,Malawi,Blantyre Rural,0,https://navigate.itb.com/company/Fisherman's-Rest--1215855,Wiktor Chichlowski,Director/ CEO
FIVE Hotels and Resorts,United Arab Emirates,Dubai,6438,https://navigate.itb.com/company/FIVE-Hotels-and-Resorts--1015677,Amanee Razack,Director of Sales
Fiyavalhu Maldives,Maldives,Male',0000,https://navigate.itb.com/company/Fiyavalhu-Maldives--1015688,Aishath Suhaila,Directors of Sales & Marketing
Flamenco Hotels & Resortsd,Egypt,Cairo,11211,https://navigate.itb.com/company/Flamenco-Hotels-Resortsd--1199917,Nasser Salama,Execcutive asst. Manager
Fleesensee Hotelbetriebs GmbH,Germany,Göhren-Lebbin,17213,https://navigate.itb.com/company/Fleesensee-Hotelbetriebs-GmbH--1208211,Susanne Dirnbacher,Cluster Sales Manager Leisure
Flegra Collection,Greece,Pefkohori,63085,https://navigate.itb.com/company/Flegra-Collection--1205462,Yannis Laspas,CEO
Floreal Holidays asbl,Belgium,Bruxelles,1000,https://navigate.itb.com/company/Floreal-Holidays-asbl--1216667,Wim Daniels,Sales & Marketing Director
Flower Hotel & Spa,Albania,Golem,2504,https://navigate.itb.com/company/Flower-Hotel-Spa--1216423,Mireda Caci,Manager
Focus Asia Group,Germany,Erkrath,40699,https://navigate.itb.com/company/Focus-Asia-Group--1214278,Marc Sievert,Director
Focus Hotels S.A.,Poland,Bydgoszcz,85-033,https://navigate.itb.com/company/Focus-Hotels-S-A--1217155,Joanna Chałupka,conference and booking specialist
FORESTERS ARMS,Eswatini,MHLAMBANYATSI,M200,https://navigate.itb.com/company/FORESTERS-ARMS--1016000,RUTH BUCK,MANAGING DIRECTOR
"Fort Arabesque Resorts, spa, and villas",Egypt,Hurghada,1376,https://navigate.itb.com/company/Fort-Arabesque-Resorts-spa-and-villas--1216513,Germine Adel,Marketing Director
"Four Points by Sheraton Production City, Dubai and Royal Regency Suites",United Arab Emirates,Dubai,392236,https://navigate.itb.com/company/Four-Points-by-Sheraton-Production-City-Dubai-and-Royal-Regency-Suites--1216228,Shahzad Butt,General Manager
Four Views Hotels,Portugal,Funchal,9004-541,https://navigate.itb.com/company/Four-Views-Hotels--1016100,Sérgio Costa,
Foxes Safari Camps (foxtreks Ltd),Tanzania,DAR ES SALAAM,0,https://navigate.itb.com/company/Foxes-Safari-Camps-foxtreks-Ltd--1112210,Jane Fox,HOD
FRASER SUITES SEEF & FRASER SUITES AL LIWAN,Bahrain,MANAMA,0,https://navigate.itb.com/company/FRASER-SUITES-SEEF-FRASER-SUITES-AL-LIWAN--1215499,UNNATI SONI,CLUSTER SALES & MARKETING MANAGER
Fuerte Group Hotels,Spain,Marbella,29603,https://navigate.itb.com/company/Fuerte-Group-Hotels--1016711,Margarita Becerra,Senior Contracting Manager
Fujairah Rotana Resort & Spa,United Arab Emirates,Fujairah,1856,https://navigate.itb.com/company/Fujairah-Rotana-Resort-Spa--1216864,Nicolas Chammaa,General Manager
Furaveri Maldives,Maldives,Male',0000,https://navigate.itb.com/company/Furaveri-Maldives--1016787,Ali Shiyad,Deputy Director of Sales & Marketing
Fushifaru Maldives,Maldives,Male',0000,https://navigate.itb.com/company/Fushifaru-Maldives--1215970,Ahmed Siaar,General Manager
Fusion Hotel Group,Vietnam,Ho Chi Minh City,0,https://navigate.itb.com/company/Fusion-Hotel-Group--1216149,Christophe Buchart,Group Commercial Director
Gardaland Resort,Italy,"Castelnuovo del Garda, Verona",37014,https://navigate.itb.com/company/Gardaland-Resort--1016974,Alberto Maffizzoli,International Sales Manager
GARDENA HOTELS SRL - Hotel Principe & Hotel Amadeus,Italy,Venezia,30121,https://navigate.itb.com/company/GARDENA-HOTELS-SRL---Hotel-Principe-Hotel-Amadeus--1207616,Alessandro Zuin,Marketing & Sales manager
Garden Hotel Guangzhou,China,Guangzhou,510064,https://navigate.itb.com/company/Garden-Hotel-Guangzhou--1040206,Renate Kollmann,Representative
Gewan Hotel Management,United Arab Emirates,Dubai,114400,https://navigate.itb.com/company/Gewan-Hotel-Management--1206161,Marwa Fechtani,Corporate Director of Marketing & Communication
Glen Avon Lodge | Woodall Country House & Spa,South Africa,"Addo, Cape Town",6105,https://navigate.itb.com/company/Glen-Avon-Lodge-|-Woodall-Country-House-Spa--1207439,Beate Hoernig-Rosenbaum,Partner/Owner
Gloria Hotels & Resorts,Türkiye,ANTALYA,07506,https://navigate.itb.com/company/Gloria-Hotels-Resorts--1017648,ALEYNA TEOMETE,
GLORY SAFARIS LTD,Kenya,NAIROBI,00200,https://navigate.itb.com/company/GLORY-SAFARIS-LTD--1207189,JASON GITAU,GENERAL MANAGER
Göbel Hotels,Germany,Willingen,34508,https://navigate.itb.com/company/Göbel-Hotels--1017728,Marion Arens,
Goeres Hotels Luxembourg,Luxembourg,Luxembourg,L-2551,https://navigate.itb.com/company/Goeres-Hotels-Luxembourg--1216569,David Klemmer,SALES MANAGER
Go Hotels,Denmark,Kastrup,2770,https://navigate.itb.com/company/Go-Hotels--1215363,Tim Tidman,COO
GOLDEN Hotels & Resorts,Greece,HERAKLION,70014,https://navigate.itb.com/company/GOLDEN-Hotels-Resorts--1207062,Emmanouil Koundourakis,Sales Director
GOLDEN SANDS HOTELS MANAGEMENT CO. LLC,United Arab Emirates,DUBAI,00000,https://navigate.itb.com/company/GOLDEN-SANDS-HOTELS-MANAGEMENT-CO--LLC--1216333,MOHAMMAD KHOORI,CLUSTER GENERAL MANAGER
Golden Tulip Hotel Apartments Sharjah,United Arab Emirates,Sharjah,72595,https://navigate.itb.com/company/Golden-Tulip-Hotel-Apartments-Sharjah--1216186,Hanady Farag,Director of Sales and Marketing
Goldi Sands Hotel / Suriya Resort,Sri Lanka,Negombo,11500,https://navigate.itb.com/company/Goldi-Sands-Hotel-/-Suriya-Resort--1017838,Lal Dissanayake,General Manager
Gondwana Collection Namibia (Pty) Ltd,Namibia,WINDHOEK,10010,https://navigate.itb.com/company/Gondwana-Collection-Namibia-Pty-Ltd--1206327,ANTHEA Cloete,Commercial and Sales Manager
Goodwood Park Hotel,Singapore,Singapore,228221,https://navigate.itb.com/company/Goodwood-Park-Hotel--1206486,Joe Low,
Gorgonia Beach Resort,Egypt,Marsa Alam,12411,https://navigate.itb.com/company/Gorgonia-Beach-Resort--1217136,Mohamed Eid,Director of sales & Marketing
"Graceland Khaolak Co.,Ltd",Thailand,Bangkok,82190,"https://navigate.itb.com/company/Graceland-Khaolak-Co-,Ltd--1215585",Pannoppinan Klinchit,Director of Sales
Grand Cosmopolitan Hotel,United Arab Emirates,Dubai,38250,https://navigate.itb.com/company/Grand-Cosmopolitan-Hotel--1216167,Bashar Turk,Director of Sales & Marketing
GRAND HOTEL DE KINTELE,Congo - Brazzaville,Brazzaville,0000,https://navigate.itb.com/company/GRAND-HOTEL-DE-KINTELE--1215024,Driss CHAFIQ,
Grand Hotel Excelsior,Malta,Floriana,FRN 1810,https://navigate.itb.com/company/Grand-Hotel-Excelsior--1018022,Desiree Van Den Broek,Leisure Sales Manager
Grand Hotel Huis ter Duin,Netherlands,Noordwijk aan Zee,2202BK,https://navigate.itb.com/company/Grand-Hotel-Huis-ter-Duin--1205133,Coen van Veen,International Sales Director
Grandhotel Pupp,Czechia,Karlovy Vary,360 01,https://navigate.itb.com/company/Grandhotel-Pupp--1115630,Gabriela Novotná,
GRAND HOTELS MANAGEMENT and MARKETING Ltd,Bulgaria,Sofia,1000,https://navigate.itb.com/company/GRAND-HOTELS-MANAGEMENT-and-MARKETING-Ltd--1216335,RENETA PETROVA,MARKETING MANAGER
Grand Hyatt Dubai,United Arab Emirates,Dubai,7978,https://navigate.itb.com/company/Grand-Hyatt-Dubai--1020715,Moritz Frings,EAM Sales & Marketing
Grand Mercure Khao Lak Bangsak,Thailand,Takuapa,82190,https://navigate.itb.com/company/Grand-Mercure-Khao-Lak-Bangsak--1215611,ํYupaporn Thongin,Director of sales and marketing
Grand Metropolitan SSC DE GmbH,Germany,Fulda,36041,https://navigate.itb.com/company/Grand-Metropolitan-SSC-DE-GmbH--1214699,Janin Blaser,CCO
Grand Oceans Hospitality,Egypt,Cairo,43511,https://navigate.itb.com/company/Grand-Oceans-Hospitality--1206866,Lamia Assem,
Grand Park Kodhipparu Maldives,Maldives,Male',0000,https://navigate.itb.com/company/Grand-Park-Kodhipparu-Maldives--1215891,Deborah Gray,Directors of Sales & Marketing
Grand Windsock Dive & Beach Resort Bonaire,Caribbean Netherlands,Belnem,00000,https://navigate.itb.com/company/Grand-Windsock-Dive-Beach-Resort-Bonaire--1215329,Sander Winterberg,General Manager
Great Plains Conservation,Seychelles,Victoria,0,https://navigate.itb.com/company/Great-Plains-Conservation--1018126,Alex Walters,Sales & Marketing Manager
Grecoblu Hospitality Managment,Cyprus,Larnaca,40031,https://navigate.itb.com/company/Grecoblu-Hospitality-Managment--1217023,Michalis Hadjiandreou,Commercial Director
GRECOTELS HOTELS & RESORTS,Greece,Rethymno Crete,74100,https://navigate.itb.com/company/GRECOTELS-HOTELS-RESORTS--1018140,Martha Filenta,
GRIFID HOTELS   / HOTEL MANAGEMENT COMPANY Ltd/,Bulgaria,Varna,9007,https://navigate.itb.com/company/GRIFID-HOTELS---/-HOTEL-MANAGEMENT-COMPANY-Ltd--1216509,Tanya Tsvetanova,CEO
Groupe BOAS,Switzerland,Lausanne,1010,https://navigate.itb.com/company/Groupe-BOAS--1216522,Morgan Mouharoul,
GRUPA EUROPLAN,Poland,WARSZAWA,00-014,https://navigate.itb.com/company/GRUPA-EUROPLAN--1217164,ALEKSANDRA STYRNA,Director
GRUPO ALKEMIS TURISTICO SL,Spain,GRANADA,18008,https://navigate.itb.com/company/GRUPO-ALKEMIS-TURISTICO-SL--1216720,CIHAT AKCAY DOGAN,DIRECTOR
Grupo Hotusa,Spain,Barcelona,08013,https://navigate.itb.com/company/Grupo-Hotusa--1018415,Karima El Hamdioui Bousaid,Events
Grupo Vidanta,Mexico,Nayarit,63735,https://navigate.itb.com/company/Grupo-Vidanta--1215224,Adrian Castillo,Associate Director Strategic Marketing & Partnerships
Gruppenunterkünfte MV - Landesverband der Schullandheime Mecklenburg-Vorpommern e.V.,Germany,Schwerin,19063,https://navigate.itb.com/company/Gruppenunterkünfte-MV---Landesverband-der-Schullandheime-Mecklenburg-Vorpommern-e-V--1215537,Stephan Schiller,
Gruppo UNA SpA Hotel & Resorts,Italy,Milano,20159,https://navigate.itb.com/company/Gruppo-UNA-SpA-Hotel-Resorts--1208907,Marco Campari,Leisure Sales Manager
GSH Hotels GmbH,Germany,München,80807,https://navigate.itb.com/company/GSH-Hotels-GmbH--1017902,Bernadett Seehagen,Leisure Sales Manager
GUEST INCOMING,Spain,malaga,29140,https://navigate.itb.com/company/GUEST-INCOMING--1018534,Dolores Gallego sánchez-noriega,Commercial & contracting manager
"Guizhou Guiyao Tourism Development Investment Co., Ltd",China,Shangji Town,56313,https://navigate.itb.com/company/Guizhou-Guiyao-Tourism-Development-Investment-Co-Ltd--1214270,Kun Xu,
GULF HOTELS GROUP,Bahrain,MANAMA,0,https://navigate.itb.com/company/GULF-HOTELS-GROUP--1215381,KHALIL GHANEM,
Güral Premier Hotels&Resorts,Türkiye,Antalya,07500,https://navigate.itb.com/company/Güral-Premier-Hotels-Resorts--1100053,Onur Kilic,Sales & Marketing Representative
H10 HOTELS,Spain,Barcelona,08034,https://navigate.itb.com/company/H10-HOTELS--1018682,Silvia Casas,Events and Fairs Responsible Manager
"Haining Yanguan Ancient City Tourism Co., Ltd.",China,"Yanguan Town, Haining City, Jiaxing City, Zhejiang Province",314400,https://navigate.itb.com/company/Haining-Yanguan-Ancient-City-Tourism-Co-Ltd--1214855,Xueqin Yan,
Hammerstein Africa Lodges,Namibia,Windhoek,10009,https://navigate.itb.com/company/Hammerstein-Africa-Lodges--1209102,Saar Porteus,Managing Director
Hampton by Hilton Marjan Island,United Arab Emirates,Ras Al Khaimah,0000,https://navigate.itb.com/company/Hampton-by-Hilton-Marjan-Island--1018836,Susanne Lorenz,Director of Sales
Hankyu Travel International,Japan,Tokyo,105-0004,https://navigate.itb.com/company/Hankyu-Travel-International--1018879,Sarah Ann Gleisberg,
Harbour Grand Hong Kong,Hong Kong SAR China,Hong Kong,0,https://navigate.itb.com/company/Harbour-Grand-Hong-Kong--1207024,Becky Chan,Director of Sales & Marketing
Harbour Plaza Metropolis & Kowloon Harbourfront Hotel,Hong Kong SAR China,Hong Kong,0,https://navigate.itb.com/company/Harbour-Plaza-Metropolis-Kowloon-Harbourfront-Hotel--1207263,Lucetta Chan,Director of Sales & Marketing
Harbour Plaza North Point,Hong Kong SAR China,Hong Kong,0,https://navigate.itb.com/company/Harbour-Plaza-North-Point--1100294,Billy Wan,Director of Sales
Harpin Hotels,Greece,Georgioupolis,73007,https://navigate.itb.com/company/Harpin-Hotels--1207305,Nikolaos Dimitrakakis,Director of Sales and Revenue
harry's home hotels & apartments,Austria,Innsbruck,6020,https://navigate.itb.com/company/harry's-home-hotels-apartments--1019006,Katharina Schöche,Leisure Sales Manager
HAWAR RESORT BY MANTIS,Bahrain,HAWAR ISLAND,0,https://navigate.itb.com/company/HAWAR-RESORT-BY-MANTIS--1215819,MOOSA ALKHUZAIE,SENIOR SALES MANAGER
HELICONIA AMAZON RIVER LODGE / Corporacion Hotelera y Turistica del Amazonas S.A.,Peru,Loreto,1600,https://navigate.itb.com/company/HELICONIA-AMAZON-RIVER-LODGE-/-Corporacion-Hotelera-y-Turistica-del-Amazonas-S-A--1206651,Magaly Aliaga,Business Development
HELNAN INTERNATIONAL HOTELS.,Egypt,CAIRO,11351,https://navigate.itb.com/company/HELNAN-INTERNATIONAL-HOTELS--1019302,MOHAMED SHAKER RAGAB,EXECUTIVE ASST. MANAGER SALES & MARKETING
Heritance Aarah,Maldives,Male',000,https://navigate.itb.com/company/Heritance-Aarah--1207519,Manujaya Fernando,Deputy General Manager- Sales & Marketing
HF Hotels,Portugal,Porto,4150-702,https://navigate.itb.com/company/HF-Hotels--1019500,Marta Martins,
H Hotels Collection,Greece,"Lardos, Rhodes",85109,https://navigate.itb.com/company/H-Hotels-Collection--1018655,Kyriakos Sarikas,Marketing Manager
HHP HOTELES HACIENDA / HHP Hoteles Hacienda del Peru S.R.L.,Peru,Lima,15074,https://navigate.itb.com/company/HHP-HOTELES-HACIENDA-/-HHP-Hoteles-Hacienda-del-Peru-S-R-L--1206650,Paul Palacios,Commercial Manager
HIDEWAYS AFRICA/JENMAN AFRICAN SAFARIS,South Africa,Cape Town,7708,https://navigate.itb.com/company/HIDEWAYS-AFRICA/JENMAN-AFRICAN-SAFARIS--1022503,Garth Jenman,Managing Director
High Beach S.A.,Greece,Heraklion,71306,https://navigate.itb.com/company/High-Beach-S-A--1216025,Nikos Martimianakis,Director of Sales & Marketing
Naples Bay Resort and Marina,United States of America,Naples,34102,https://navigate.itb.com/company/Naples-Bay-Resort-and-Marina--1215921,Karen Smith,
Hilton,Egypt,cairo,02,https://navigate.itb.com/company/Hilton--1216488,Nevine Esmat,Regional Marketing Manager Hilton Egypt
Hilton Al Habtoor City,United Arab Emirates,Dubai,000000,https://navigate.itb.com/company/Hilton-Al-Habtoor-City--1019582,Dhruv Dua,Director Of Sales
Hilton Dubai Jumeirah,United Arab Emirates,Dubai,31200,https://navigate.itb.com/company/Hilton-Dubai-Jumeirah--1216168,Elli Hepp,Cluster Assistant Director of Sales
Hilton Dubai Palm Jumeirah,United Arab Emirates,Dubai,31200,https://navigate.itb.com/company/Hilton-Dubai-Palm-Jumeirah--1216172,Aniko Joo,Sales Manager
Hilton Garden Inn Évora,Portugal,Évora,7005-413,https://navigate.itb.com/company/Hilton-Garden-Inn-Évora--1216908,Rita Matos,
Hilton Garden Inn Nairobi Airport,Kenya,Nairobi,00406,https://navigate.itb.com/company/Hilton-Garden-Inn-Nairobi-Airport--1207547,Liz Tapawa,Director of Sales & Marketing
Hilton Malta &  Doubletree by Hilton Malta,Malta,St. Julians,STJ4012,https://navigate.itb.com/company/Hilton-Malta--Doubletree-by-Hilton-Malta--1207196,Fabien Vella,Cluster Director of Sales
Hilton Mauritius Resort & Spa,Mauritius,Flic en Flac,0,https://navigate.itb.com/company/Hilton-Mauritius-Resort-Spa--1019607,Karine Bienaimé,
Hilton Podgorica Crna Gora,Montenegro,Podgorica,81000,https://navigate.itb.com/company/Hilton-Podgorica-Crna-Gora--1215869,Bojan Kovacevic,Director of Sales & Marketing
Hilton Sri Lanka,Sri Lanka,Colombo 02,00200,https://navigate.itb.com/company/Hilton-Sri-Lanka--1209677,Zanella Siriwardana,Sales Coordinator
Hipotels Hotels & Resorts,Spain,Cala Millor - Mallorca,07560,https://navigate.itb.com/company/Hipotels-Hotels-Resorts--1214505,Xisco Fullana,Director Comercial
HIS-Miki Travel UK Limited,United Kingdom,London,EC4V 3BJ,https://navigate.itb.com/company/HIS-Miki-Travel-UK-Limited--1027427,Iveta Roos,Coordination Manager
"HIT Alpinea, Družba za turizem, d.o.o.",Slovenia,Kranjska Gora,4280,https://navigate.itb.com/company/HIT-Alpinea-Družba-za-turizem-d-o-o--1019685,Romana Robic,Sales department
"Holiday Ao Nang Beach Resort, Krabi",Thailand,Krabi,81180,https://navigate.itb.com/company/Holiday-Ao-Nang-Beach-Resort-Krabi--1019864,Panisara Piphak,Director of Sales
Holiday Hotels and Resorts Krabi,Thailand,Krabi,81180,https://navigate.itb.com/company/Holiday-Hotels-and-Resorts-Krabi--1204784,Panisara Piphak,Director of Sales
Holiday Inn & Suites Dubai Science Park,United Arab Emirates,Dubai,452233,https://navigate.itb.com/company/Holiday-Inn-Suites-Dubai-Science-Park--1019854,Shadi Attar,Director of Sales & Marketing
Holiday Inn Prague,Czechia,Praha 4,140 00,https://navigate.itb.com/company/Holiday-Inn-Prague--1215904,Dana Bína,
Holiday Inn Resort Kandooma Maldives,Maldives,Male',0000,https://navigate.itb.com/company/Holiday-Inn-Resort-Kandooma-Maldives--1207668,Ahmed Azzam,Sales & Marketing Coordinator
HOLIDAY VILLA HOTELS & RESORTS,Malaysia,Kuala Lumpur,50450,https://navigate.itb.com/company/HOLIDAY-VILLA-HOTELS-RESORTS--1019883,Chan Ming Jee,
HOMES & VILLAS BY GRECOTEL,Greece,Rethymno Crete,74100,https://navigate.itb.com/company/HOMES-VILLAS-BY-GRECOTEL--1216992,Martha Filenta,
Hommage Luxury Hotels Collection,Germany,Köln,50858,https://navigate.itb.com/company/Hommage-Luxury-Hotels-Collection--1214040,Doris Richter,Projektmanagerin der Geschäftsführung
HORSE COUNTRY RESORT CONGRESS &SPA,Italy,ARBOREA,09092,https://navigate.itb.com/company/HORSE-COUNTRY-RESORT-CONGRESS--SPA--1216599,DIEGO BERNARDINI,SALES MANAGER
HOSBEC,Spain,Valencia,46004,https://navigate.itb.com/company/HOSBEC--1215414,Miguel March Woltés,Sales Manager
Hoseasons,United Kingdom,Suffolk,NR32 2LW,https://navigate.itb.com/company/Hoseasons--1020040,Ben Osmond,Third Party Connectivity Manager
Hospitality Visions Lake Lucerne AG,Switzerland,Vitznau,6354,https://navigate.itb.com/company/Hospitality-Visions-Lake-Lucerne-AG--1216450,Andrea Bianca Jalea,
Hotel & Spa Saint Alexis,Réunion,Saint Gilles les Bains,97434,https://navigate.itb.com/company/Hotel-Spa-Saint-Alexis--1024814,Bertrand Moussa,Directeur commercial
Hotel Alemagna,Italy,"Bibione, Venice",30020,https://navigate.itb.com/company/Hotel-Alemagna--1216173,Tiziana Papait,Owner
Hotel Atlantic Hamburg,Germany,Hamburg,20099,https://navigate.itb.com/company/Hotel-Atlantic-Hamburg--1173867,Xavier Steens,Director of Sales and Marketing
"HOTEL BAHIA TROPICAL, S.A.",Spain,Almuñécar,18690,https://navigate.itb.com/company/HOTEL-BAHIA-TROPICAL-S-A--1205876,CHRISTINE BUCZY,SALES MANAGER
HOTELBRAIN SA,Greece,"Argiroupoli, Athens",16452,https://navigate.itb.com/company/HOTELBRAIN-SA--1208122,Alexandra Petraki,Chief Commercial Officer
Hotel Cabin-Klettur-Örk,Iceland,Garðabær,210,https://navigate.itb.com/company/Hotel-Cabin-Klettur-Örk--1216246,Klara Sigurðardóttir,Sales Manger
Hotel Carbona Zrt.,Hungary,Hévíz,H-8380,https://navigate.itb.com/company/Hotel-Carbona-Zrt--1020129,Tibor Pál,director of sales
Hotel Chinzanso Tokyo,Japan,"Tokyo, Bunkyoku, Sekiguchi",112-8680,https://navigate.itb.com/company/Hotel-Chinzanso-Tokyo--1216166,Tsutomu Takeuchi,
Hotel Clover Patong Phuket,Thailand,Phuket,83150,https://navigate.itb.com/company/Hotel-Clover-Patong-Phuket--1030907,THANKAMON DECHARUN,Director Of Sales
Hotel Continental - CHC Venezia Srl,Italy,Venezia,30121,https://navigate.itb.com/company/Hotel-Continental---CHC-Venezia-Srl--1216298,Alessandro Piccardo,Assistant Director
Hotel Coronado,Switzerland,Mendrisio,6850,https://navigate.itb.com/company/Hotel-Coronado--1216524,Roberto Faldo,
Hotel Eleven,Montenegro,Petrovac,85300,https://navigate.itb.com/company/Hotel-Eleven--1216825,Vladimir Medin,General manager
Hoteles Cumbres,Chile,Santiago,7500000,https://navigate.itb.com/company/Hoteles-Cumbres--1020452,Viviana Sauma,Tour&Travel Manager
Hotel Grand Saigon,Vietnam,Ho Chi Minh City,700000,https://navigate.itb.com/company/Hotel-Grand-Saigon--1207727,Phuong Tieu,Senior Sales Manager
Hotel Hills 5* & Hotel Hollywood 4* Sarajevo,Bosnia & Herzegovina,Sarajevo,71000,https://navigate.itb.com/company/Hotel-Hills-5*-Hotel-Hollywood-4*-Sarajevo--1020223,Nermina Sefer,Director
HOTELI ILIDŽA D.D,Bosnia & Herzegovina,SARAJEVO,71210,https://navigate.itb.com/company/HOTELI-ILIDŽA-D-D--1217102,HERMINA AGANOVIĆ,SALES DEPARTMENT
Hotel Il Lato Azzurro,Italy,Venezia,30141,https://navigate.itb.com/company/Hotel-Il-Lato-Azzurro--1216280,Andrea Savoca,Sales Agent
Hotel Indigo Dubai Downtown,United Arab Emirates,Dubai,24666,https://navigate.itb.com/company/Hotel-Indigo-Dubai-Downtown--1216170,Mihaela Ifrim,Sales Manager
Hotel Las Majadas,Chile,Santiago de Chile,6480000,https://navigate.itb.com/company/Hotel-Las-Majadas--1020264,George Horney,Global Business Development
Hotel Leading - Corissia Hotels & Resorts,Greece,Chania,GR73007,https://navigate.itb.com/company/Hotel-Leading---Corissia-Hotels-Resorts--1216027,Eva Bilia,Director of Sales
HOTEL LEADING PC,Greece,CHANIA,73007,https://navigate.itb.com/company/HOTEL-LEADING-PC--1216026,Eva Bilia,Director of Sales
HOTEL LEON D'ORO,Italy,Verona,37135,https://navigate.itb.com/company/HOTEL-LEON-D'ORO--1216181,Barbara Marini,Sales Manager
Hotel Mangart 4* - Hotel Alp 3* Bovec / Znider´s DMC,Slovenia,Maribor,2000,https://navigate.itb.com/company/Hotel-Mangart-4*---Hotel-Alp-3*-Bovec-/-Znider´s-DMC--1216781,Marko Strnad,Manager
Hotel Marquês de Pombal,Portugal,Lisboa,1250-143,https://navigate.itb.com/company/Hotel-Marquês-de-Pombal--1205478,José Marto,
Hotel Pinija,Croatia,Zadar-Petrcane,23231,https://navigate.itb.com/company/Hotel-Pinija--1020330,Danijela Stanić Halapija,Sales and marketing Manager
Hotel Plaza & Lovivo Tour Experience,Italy,Abano Terme,35031,https://navigate.itb.com/company/Hotel-Plaza-Lovivo-Tour-Experience--1216183,Beatrice Canevarolo,Reservation Manager
Hotel Poblado Plaza,Colombia,Medellín,0,https://navigate.itb.com/company/Hotel-Poblado-Plaza--1216838,DIEGO PINEDA COURTNEY,General Manager
Hotel PYR Fuengirola,Spain,Fuengirola,29640,https://navigate.itb.com/company/Hotel-PYR-Fuengirola--1209160,Tarik Harrak Medina,CEO
Hotel Résidence Ness by D-Ocean,Réunion,La Saline les Bains,97434,https://navigate.itb.com/company/Hotel-Résidence-Ness-by-D-Ocean--1028865,Sarah Canevet,Responsable commerciale
Hotel Shambala,Nepal,Kathmandu,44600,https://navigate.itb.com/company/Hotel-Shambala--1020392,Rabindra Manandhar,GENERAL MANAGER
Hotel Splendor shpk,Albania,Vlore,9422 AL,https://navigate.itb.com/company/Hotel-Splendor-shpk--1216422,Lorena Gerveni,General Manager
HOTEL STELLA MARIS E CRUCCURIS RESORT,Italy,VILLASIMIUS,09049,https://navigate.itb.com/company/HOTEL-STELLA-MARIS-E-CRUCCURIS-RESORT--1209661,MARCO ATZORI,DIRETTORE
Hotel Thermal,Czechia,Karlovy Vary,360 01,https://navigate.itb.com/company/Hotel-Thermal--1216379,Markéta Strádalová,
Hotel Vision Budapest**** - Migdal Magyarország Kft.,Hungary,Budapest,1056,https://navigate.itb.com/company/Hotel-Vision-Budapest****---Migdal-Magyarország-Kft--1217115,Bálint Huszár,General Manager
Hotel Winterberg Resort GmbH,Germany,Winterberg,59955,https://navigate.itb.com/company/Hotel-Winterberg-Resort-GmbH--1215340,Auke Damhuis,
Hoti Hoteis,Portugal,Funchal,9000-003,https://navigate.itb.com/company/Hoti-Hoteis--1205458,João Pedro Coelho,
HO TRAM BEACH BOUTIQUE & POULO CONDOR RESORT & SPA,Vietnam,Ba Ria - Vung Tau,7800,https://navigate.itb.com/company/HO-TRAM-BEACH-BOUTIQUE-POULO-CONDOR-RESORT-SPA--1019742,Quynh Le Ngoc,General Manager
HOTUSA GROUPS (KEYTEL),Spain,Barcelona,08013,https://navigate.itb.com/company/HOTUSA-GROUPS-KEYTEL--1020514,Andreu Cordelo Collado,Commercial Director
HR Group Hotels,Netherlands,Amsterdam,1019 BR,https://navigate.itb.com/company/HR-Group-Hotels--1214688,Michel Van Der Elsken,Director of Sales
HSMA Deutschland e.V.,Germany,Berlin,10243,https://navigate.itb.com/company/HSMA-Deutschland-e-V--1020574,Anna Vieth Heuer,Event & Marketing Managerin
htopgroup,Spain,Palafolls,08389,https://navigate.itb.com/company/htopgroup--1205895,Monika Stefkova,senior contracts manager
Sonesta,Egypt,Cairo,19019,https://navigate.itb.com/company/Sonesta--1037961,Tarek Ibrahim,DIRECTOR OF SALES & MARKETING
"Huangshan Tourism Development Co., Ltd.",China,Tunxi Huangshan Anhui,245000,https://navigate.itb.com/company/Huangshan-Tourism-Development-Co-Ltd--1020590,CHEN DONG,Assistant General Manager
Hue Hotels and Resorts,Philippines,Aklan,5608,https://navigate.itb.com/company/Hue-Hotels-and-Resorts--1216346,Ara Charmion Sucaldito,Director of Sales and Marketing
Hugo's Hotels,Malta,St. Julians,STJ 3200,https://navigate.itb.com/company/Hugo's-Hotels--1020631,Josefa Grima,Hotels General Manager
HVD Hotels EAD,Bulgaria,Varna,9000,https://navigate.itb.com/company/HVD-Hotels-EAD--1216406,Svetla Georgieva,Sales Manager
Hyatt Regency,Thailand,Phuket,83150,https://navigate.itb.com/company/Hyatt-Regency--1215734,Chariya Kongchuai,"Director of Sales, Hyatt Regency Phuket"
ibis Phuket Kata,Thailand,Phuket,83100,https://navigate.itb.com/company/ibis-Phuket-Kata--1215636,Kijkawin Punta,Cluster Assistant Director of Sales
ibis Singapore on Bencoolen,Singapore,Singapore,189657,https://navigate.itb.com/company/ibis-Singapore-on-Bencoolen--1020927,Elinda Ong,
Iceland Hotel Collection By Berjaya,Iceland,Reykjavík,102,https://navigate.itb.com/company/Iceland-Hotel-Collection-By-Berjaya--1020963,Ragnheiður I. Halldórsdóttir,Sales Manager
Idiliq Hotel & Resorts - Wyndham Costa del Sol,Spain,Mijas Costa,29649,https://navigate.itb.com/company/Idiliq-Hotel-Resorts---Wyndham-Costa-del-Sol--1216682,ENRIQUE SOLER,Cluster Sales Manager
IFA Insel Ferien Anlagen GmbH & Co.KG,Germany,Berlin-Schönefeld,12529,https://navigate.itb.com/company/IFA-Insel-Ferien-Anlagen-GmbH-Co-KG--1214861,Tomasz Gajec,Senior Talent Acquisition und Employer Branding
Ifuru Island Maldives,Maldives,Male',0000,https://navigate.itb.com/company/Ifuru-Island-Maldives--1215889,Sundar Raj,Director of Sales & Marketing
IHG Hotels at Dubai Festival City,United Arab Emirates,Dubai,45777,https://navigate.itb.com/company/IHG-Hotels-at-Dubai-Festival-City--1021153,Pranav Vohra,Cluster Commercial Director
IKEA Hotell and IKEA Museum,Sweden,Älmhult,34336,https://navigate.itb.com/company/IKEA-Hotell-and-IKEA-Museum--1216021,Malin Månsson,Sales Leader
Ikos Andalusia,Spain,Estepona,29680,https://navigate.itb.com/company/Ikos-Andalusia--1216835,Jeanette González,Sales Manager
Ilirija Resort/Ilirija Travel,Croatia,Biogard na Moru,23210,https://navigate.itb.com/company/Ilirija-Resort/Ilirija-Travel--1021203,Marijana Prtenjača,Sales Director
Iloha Seaview Hotel,Réunion,Saint Leu,97436,https://navigate.itb.com/company/Iloha-Seaview-Hotel--1021215,Stéphanie Dompy,Directrice commerciale
Import Promotion Desk,Germany,Bonn,53111,https://navigate.itb.com/company/Import-Promotion-Desk--1021992,Julia Duckstein,Coordinator Events + Controlling
"Inclusive Collection, part of World of Hyatt",United States of America,Newtown Sq,19073,https://navigate.itb.com/company/Inclusive-Collection-part-of-World-of-Hyatt--1044904,Jeffrey Martinez,"Director, Global Conferences and Events"
"Indaba Hotel, Spa & Conference Centre",South Africa,Johannesburg,2055,https://navigate.itb.com/company/Indaba-Hotel-Spa-Conference-Centre--1214686,Sharon Hunink,Group Marketing & Sales Manager
Indochina Sails - Halong Lan Ha Bay,Vietnam,Hai Phong City,180000,https://navigate.itb.com/company/Indochina-Sails---Halong-Lan-Ha-Bay--1021412,Thu Trang Nguyen,Director of Sales & Marketing
indonesia,Indonesia,Denpasar,80361,https://navigate.itb.com/company/indonesia--1216617,Ni Luh Sugi Artini,Assistant Director of Sales
Inivie Management,Indonesia,denpasar,80361,https://navigate.itb.com/company/Inivie-Management--1207853,charly putra,Corporates Sa;es Director
Inova Hospitality Management,Greece,Nea Moudania,63200,https://navigate.itb.com/company/Inova-Hospitality-Management--1000169,Andreas Birner,Managing Director
InterContinental Bahrain,Bahrain,MANAMA,0,https://navigate.itb.com/company/InterContinental-Bahrain--1215516,VISNJA VUCO,
InterContinental Cairo Citystars,Egypt,Cairo,11737,https://navigate.itb.com/company/InterContinental-Cairo-Citystars--1216491,Wael Sami,Area Commercial Director Egypt - Africa
InterContinental French Polynesia,French Polynesia,Faa'a,98702,https://navigate.itb.com/company/InterContinental-French-Polynesia--1021800,Stephanie Mages,Europe Sales Representative
InterContinental Fujairah Resort,United Arab Emirates,Fujairah,P.O Box 2221,https://navigate.itb.com/company/InterContinental-Fujairah-Resort--1216660,Marie-Christin Rickers,Business Development Executive
InterContinental Malta,Malta,St. Julians,STJ 3310,https://navigate.itb.com/company/InterContinental-Malta--1021809,Stephen Coppini,Cluster Director of Sales
Intercontinental Mauritius Resort,Mauritius,Balaclava,0,https://navigate.itb.com/company/Intercontinental-Mauritius-Resort--1021811,Sheila Moothoo Curpen,
InterContinental Residences Dubai Business Bay,United Arab Emirates,Dubai,112387,https://navigate.itb.com/company/InterContinental-Residences-Dubai-Business-Bay--1216264,Madisse Matar,Cluster DOSM
International Travel Partners,Germany,Müelheim an der Ruhr,45481,https://navigate.itb.com/company/International-Travel-Partners--1021875,Gica Rodrigues,
Intimate Places Limited,Tanzania,Arusha,23301,https://navigate.itb.com/company/Intimate-Places-Limited--1215877,Marc Lawson,CEO
HOSBEC,Spain,Valencia,46004,https://navigate.itb.com/company/HOSBEC--1208346,Miguel March,Sales manager
Invisa Hoteles,Spain,Ibiza,07800,https://navigate.itb.com/company/Invisa-Hoteles--1021967,Cristina Riera,
Island of Krk Tourist Board,Croatia,Krk,51500,https://navigate.itb.com/company/Island-of-Krk-Tourist-Board--1207790,Majda Šale,Director
Italcamel S.p.A. Unipersonale,Italy,Rimini,47924,https://navigate.itb.com/company/Italcamel-S-p-A--Unipersonale--1022175,Antonella Marchesi,
ITO Tours,Netherlands,Leidschendam-voorburg,2266ad,https://navigate.itb.com/company/ITO-Tours--1205264,Georg Kolarik,Managing Director
Jacaranda Tours,Ethiopia,Addis Ababa,4217,https://navigate.itb.com/company/Jacaranda-Tours--1022343,Andinet Kebede,Manager
Jadran hoteli Rijeka,Croatia,Rijeka,51000,https://navigate.itb.com/company/Jadran-hoteli-Rijeka--1022369,Lucija Jukic,Sales and Marketing Director
Jadran Hotels & Camps Riviera Crikvenica,Croatia,Crikvenica,51260,https://navigate.itb.com/company/Jadran-Hotels-Camps-Riviera-Crikvenica--1216440,Gordana Jelenović,Marketing Manager
JA Manafaru,Maldives,Male',00,https://navigate.itb.com/company/JA-Manafaru--1022336,Suzeena Ahmed,Sales Manager
Jambuluwuk Hotels & Resorts,Indonesia,Jakarta Bali,10350,https://navigate.itb.com/company/Jambuluwuk-Hotels-Resorts--1206185,Marchella Purwanaika,VP Marketing
Jänkä Resort,Finland,Äkäslompolo,95970,https://navigate.itb.com/company/Jänkä-Resort--1215578,Sampo Kaulanen,
JA the Resort,United Arab Emirates,Dubai,9255,https://navigate.itb.com/company/JA-the-Resort--1022337,Mariana Silva-Odhiambo,Cluster Assistant Director of Sales
JAZ Hotel Group,Egypt,Giza,12588,https://navigate.itb.com/company/JAZ-Hotel-Group--1022470,HANY ELHADY,DIRECTOR
Jeevawasa Resorts,Indonesia,Ubud,80571,https://navigate.itb.com/company/Jeevawasa-Resorts--1215325,Ira Kusumadewi,Corporate Assistant Director of Sales
Jinan Zhangqiu Mingshui Ancient City Tourism Development Co.Ltd,China,Zhangqiu,250200,https://navigate.itb.com/company/Jinan-Zhangqiu-Mingshui-Ancient-City-Tourism-Development-Co-Ltd--1214268,xun yu Jiang,
JoMA Hospitality and Lifestyle Bali,Indonesia,Bali,80361,https://navigate.itb.com/company/JoMA-Hospitality-and-Lifestyle-Bali--1216473,Mariah Sutrisna,Director
"Jomtien Palm Beach Hotel & Resort, Pattaya",Thailand,Chonburi,20150,https://navigate.itb.com/company/Jomtien-Palm-Beach-Hotel-Resort-Pattaya--1207053,Thamnoon Thamrongvithavatpong,Director
JourneyScapes (Pvt) Ltd/ SigiriyaJungles (Pvt) Ltd,Sri Lanka,Dehiwala,10350,https://navigate.itb.com/company/JourneyScapes-Pvt-Ltd/-SigiriyaJungles-Pvt-Ltd--1213851,Devindre Senaratne,Chairman / Managing Director
Journeys Travel Group AS,Norway,Oslo,0560,https://navigate.itb.com/company/Journeys-Travel-Group-AS--1217057,Veronica Beijer,Product Manager/Lodge manager
JR EAST HOTELS,Japan,1214632,171-8505,https://navigate.itb.com/company/JR-EAST-HOTELS--1214632,Shota Hara,
Jupiter Hotel Group,Portugal,Portimão,8500-802,https://navigate.itb.com/company/Jupiter-Hotel-Group--1216901,Carla Almeida,
JW Mariott  Mauritius,Mauritius,Pointe aux Piments,0,https://navigate.itb.com/company/JW-Mariott--Mauritius--1206692,Valentino Mootoocarpen,
JW Marriot Maldives Resort & Spa,Maldives,Male',000,https://navigate.itb.com/company/JW-Marriot-Maldives-Resort-Spa--1022893,Analiezi Lising,Director of Sales
JW Marriott Kaafu Atoll Island Resort,Maldives,Male',00,https://navigate.itb.com/company/JW-Marriott-Kaafu-Atoll-Island-Resort--1216270,Paravee Mavichak,Director of Sales & Marketing
K. Koulias S.A.,Greece,Kos,85300,https://navigate.itb.com/company/K--Koulias-S-A--1022909,Giorgos Konstantinou,Commercial Director
K'IN RESORT,Belize,Placencia,0,https://navigate.itb.com/company/K'IN-RESORT--1213462,Fabio Olivari,Owner
Kaamos Lodge Oy,Finland,AAVASAKSA,95620,https://navigate.itb.com/company/Kaamos-Lodge-Oy--1215580,Toni Kraatari,
Kafunta Safaris,Zambia,Mfuwe,,https://navigate.itb.com/company/Kafunta-Safaris--1022951,Isabelle Defourny,Marketing Manager
Kaimoo Resorts and Hotels,Maldives,Male',0000,https://navigate.itb.com/company/Kaimoo-Resorts-and-Hotels--1215958,Aishath Shaiba,Marketing Manager
Kaingu Safari Lodge,Zambia,Itezhi Tezhi,0,https://navigate.itb.com/company/Kaingu-Safari-Lodge--1022963,Gilmour Dickson,Director
KaiSol Romance Resort,Egypt,Hurghada,84511,https://navigate.itb.com/company/KaiSol-Romance-Resort--1022976,George Michael,Director of Sales
Kaizen Hoteles,Spain,Jerez de la Frontera,11403,https://navigate.itb.com/company/Kaizen-Hoteles--1216701,Cayetano Gómez Fernández,Chief Corporate Commercial Offcer
Kakslauttanen & Utsjoki Arctic Resorts,Finland,Saariselkä,99830,https://navigate.itb.com/company/Kakslauttanen-Utsjoki-Arctic-Resorts--1208250,Joti Nalluri,Sales and Marketing Manager
Kalandara Resort Lombok,Indonesia,Lombok,83355,https://navigate.itb.com/company/Kalandara-Resort-Lombok--1216163,Lilis Martafeni,Director of Sales & Marketing
Kalfayan Cove Resort & SPA,Greece,Kefalonia,28100,https://navigate.itb.com/company/Kalfayan-Cove-Resort-SPA--1205464,Panagiota Kalafati,Owner
Kalima Group Resorts & Villas,Thailand,Phuket,83150,https://navigate.itb.com/company/Kalima-Group-Resorts-Villas--1204705,Plaeyfar Boonsripra,Cluster Director of Sales & Marketing
Kamari Tours,Greece,Santorini,84700,https://navigate.itb.com/company/Kamari-Tours--1023022,Alexandros Karamolegkos,Managing Director
KAMELYA COLLECTION EXCLUSIVE HOTELS,Türkiye,ANTALYA,51,https://navigate.itb.com/company/KAMELYA-COLLECTION-EXCLUSIVE-HOTELS--1023029,GIZEM SAHIN OZKAN,
Kandima Maldives,Maldives,Male',0000,https://navigate.itb.com/company/Kandima-Maldives--1023053,Christine Legarde,Sales Coordinator
Kandy Rivers Edge (Pvt) Ltd,Sri Lanka,Thennekumbura,20166,https://navigate.itb.com/company/Kandy-Rivers-Edge-Pvt-Ltd--1214022,Padmini Dissanayake,Director/ CEO
Kanika Hotels & Resorts,Cyprus,Limassol,53029,https://navigate.itb.com/company/Kanika-Hotels-Resorts--1206998,Savvas Savva,Contracting Manager
KAPETANIOS GROUP,Cyprus,LIMASSOL,3309,https://navigate.itb.com/company/KAPETANIOS-GROUP--1023072,EVA KAPETANIOU,SALES AND MARKETING MANAGER
Kappa Senses Ubud,Indonesia,Gianyar,80571,https://navigate.itb.com/company/Kappa-Senses-Ubud--1023078,Santi Triana,General Manager
Karibu Camps & Lodges,Tanzania,Arusha,174,https://navigate.itb.com/company/Karibu-Camps-Lodges--1023101,Misha Pattni,Marketing Executive
Karunakarala Ayurveda Resort,Sri Lanka,Waikkala,61110,https://navigate.itb.com/company/Karunakarala-Ayurveda-Resort--1023152,M.U. Sanjeewa Peiris,Resident Manager
"KATA PALM RESORT (KATA PALM RESORT CO., LTD.)",Thailand,Phuket,83100,https://navigate.itb.com/company/KATA-PALM-RESORT-KATA-PALM-RESORT-CO-LTD---1215576,Sumonrat Na Takuathung,Group General Manager Sales & Marketing
Kata Sea Breeze Resort,Thailand,Phuket,83100,https://navigate.itb.com/company/Kata-Sea-Breeze-Resort--1023191,Matt C Hindmarch,Director of Hotel & Resorts
Katathani Collection,Thailand,Phuket,83100,https://navigate.itb.com/company/Katathani-Collection--1023198,Jiratchaya Baiphaka,Group Director of Sales
KC Beach Club and Pool Villas,Thailand,"Koh Samui, Surat Thani",84320,https://navigate.itb.com/company/KC-Beach-Club-and-Pool-Villas--1215757,Nichapa Puengrattanamongkol,Director of Sales and Marketing
KEIO PLAZA HOTEL TOKYO,Japan,"Shinjuku-ku, Tokyo",160-8330,https://navigate.itb.com/company/KEIO-PLAZA-HOTEL-TOKYO--1206090,Rie Ken,
Kerlingarfjöll - Highland Base,Iceland,Garðarbær,210,https://navigate.itb.com/company/Kerlingarfjöll---Highland-Base--1216222,Anna R Valdimarsdottir,Business Development Manager
KEYTEL S.A.,Spain,Barcelona,08013,https://navigate.itb.com/company/KEYTEL-S-A--1214497,Clàudia Lladó,Marketing & Events
Khaolak Laguna Resort,Thailand,Phang-Nga,82220,https://navigate.itb.com/company/Khaolak-Laguna-Resort--1023429,Jarunee Wongkaew,Director of Sales & Marketing
Khimji Tourism Dubai,United Arab Emirates,Dubai,112,https://navigate.itb.com/company/Khimji-Tourism-Dubai--1023437,Mohammad Zulfiquar,Lead commercials
Kilidove Tours and Safaris,Tanzania,Arusha,12270,https://navigate.itb.com/company/Kilidove-Tours-and-Safaris--1023480,George Joseph,Director
Kilit Hospitality Group,Türkiye,Antalya,07170,https://navigate.itb.com/company/Kilit-Hospitality-Group--1100039,Melike Bekci,Marketing Manager
KİRMAN HOTELS,Türkiye,ANTALYA,07400,https://navigate.itb.com/company/KİRMAN-HOTELS--1208127,Yunus Emre Akkir,Sales and Marketing Manager
KNOSSIANS,Greece,Kifissia,145 62,https://navigate.itb.com/company/KNOSSIANS--1207346,Natalia Kessissoglou,Director of Sales & Marketing
Koh Jum Beach Villas,Thailand,Nua Klong,81000,https://navigate.itb.com/company/Koh-Jum-Beach-Villas--1216118,Mandy Kalinski,Reservations and Sales Manager
Koh Kood Paradise Beach Resort,Thailand,Trat,23000,https://navigate.itb.com/company/Koh-Kood-Paradise-Beach-Resort--1023733,Wipaphan Thammason,Director of Sales & Marketing
Koh Russey Resort,Cambodia,Preah Sihanouk,180108,https://navigate.itb.com/company/Koh-Russey-Resort--1215314,Samanta Pelagatti,General Manager
Koh Yao Yai Village - The Island Hideaway,Thailand,Phang-Nga,82160,https://navigate.itb.com/company/Koh-Yao-Yai-Village---The-Island-Hideaway--1207248,Chartchai Koohirun,Asst. Managing Director
Kompas d.o.o.,Croatia,Poreč,52440,https://navigate.itb.com/company/Kompas-d-o-o--1023802,Domagoj Cvetko,
"KOURTIDIS GROUP - RE/MAX CHOICE    Tourism, Real Estate, Construction, Investments",Greece,Ofrynio Beach,64008,https://navigate.itb.com/company/KOURTIDIS-GROUP---RE/MAX-CHOICE----Tourism-Real-Estate-Construction-Investments--1216539,KARL CHEHAB,Chief Operating Officer
Kulla Hupi Agritourism,Albania,Bulqiza,8400,https://navigate.itb.com/company/Kulla-Hupi-Agritourism--1217090,Julian Hupi,Owner
La Flora Group,Thailand,Phang-Nga,82220,https://navigate.itb.com/company/La-Flora-Group--1024304,Krit Setthagul,Business Development Director
Lago Hotel,Türkiye,Sorgun - Manavgat,07600,https://navigate.itb.com/company/Lago-Hotel--1100048,Kübra Ayhan,Sales & Marketing Manager
Lahami Bay Beach Resort,Egypt,Cairo,11435,https://navigate.itb.com/company/Lahami-Bay-Beach-Resort--1217131,Sonia Emile,Reservations Manager
Lake Hospitality doo,Bosnia & Herzegovina,Sarajevo,71000,https://navigate.itb.com/company/Lake-Hospitality-doo--1020290,Nina Basovic,Business Development Manager
Landal GreenParks BV,Netherlands,Zwolle,8004 DE,https://navigate.itb.com/company/Landal-GreenParks-BV--1214446,Marry van de Kreek,Head of Sales
LANGI LANGI BEACH BUNGALOWS,Tanzania,ZANZIBAR,0,https://navigate.itb.com/company/LANGI-LANGI-BEACH-BUNGALOWS--1206958,ABUBAKAR AL AMRY,DIRECTOR
LANGKAWI SKYCAB,Malaysia,Langkawi,07000,https://navigate.itb.com/company/LANGKAWI-SKYCAB--1002051,Fadina Othman,
LA  PALM ROYAL BEACH  HOTEL,Ghana,LA,G534R092,https://navigate.itb.com/company/LA--PALM-ROYAL-BEACH--HOTEL--1214695,Barbara Yeboah,Senior Administrative Manager
LA RONDINAIA EUROCONGRESSI - Swadeshi Hotels,Italy,"Cavaion Veronese, Verona",37010,https://navigate.itb.com/company/LA-RONDINAIA-EUROCONGRESSI---Swadeshi-Hotels--1216176,Denisa Doru,Sales Manager
Las Américas Hotels Group,Colombia,Cartagena,0,https://navigate.itb.com/company/Las-Américas-Hotels-Group--1208276,JUAN FERNANDO GOMEZ CARRASCAL,Vicepresident
Las Torres Patagonia,Chile,Punta Arenas,7200000,https://navigate.itb.com/company/Las-Torres-Patagonia--1020267,Juan Lopez,Business Manager
"Le Murraya Suite Co.,Ltd",Thailand,Suratthani,84320,"https://navigate.itb.com/company/Le-Murraya-Suite-Co-,Ltd--1207763",Varattha Kanjanakornpaisit,Assistant Director of Sales
Lebua Hotels & Resorts,Thailand,Bangkok,10500,https://navigate.itb.com/company/Lebua-Hotels-Resorts--1024850,Rajan Khurana,General Manager – Hotel Operations
Le Duc de Praslin,Seychelles,Praslin,0000,https://navigate.itb.com/company/Le-Duc-de-Praslin--1024774,Shamita Palit,
Le Dune Sicily Edu s.r.l.,Italy,Catania,95121,https://navigate.itb.com/company/Le-Dune-Sicily-Edu-s-r-l--1024775,Antonio Rosano,Sales Manager
Legend Hill,Mauritius,Black River,0,https://navigate.itb.com/company/Legend-Hill--1216967,Mike Bensimon,
Legian Beach Hotel | Candi Beach Resort & Spa,Indonesia,Denpasar,80361,https://navigate.itb.com/company/Legian-Beach-Hotel-|-Candi-Beach-Resort-Spa--1024896,I Gede Widia,General Manager
Le Grand Galle,Sri Lanka,Kaluwella,80000,https://navigate.itb.com/company/Le-Grand-Galle--1215360,Roshain De Silva,Head of Sales & Marketing
Le Jadis Beach Resort & Wellness LTD,Mauritius,Balaclava,0,https://navigate.itb.com/company/Le-Jadis-Beach-Resort-Wellness-LTD--1024781,Wassim Krishnajee,
Lemala Camps and Lodges,Tanzania,Arusha  |  P.O. Box 14529,14529,https://navigate.itb.com/company/Lemala-Camps-and-Lodges--1206078,James Haigh,Head of Sales and Marketing
Le Menara Khao Lak,Thailand,Phang-Nga,82190,https://navigate.itb.com/company/Le-Menara-Khao-Lak--1024787,Anucha Soontornpak,Director of Sales and Marketing
Le Meridien Maldives Resort & Spa,Maldives,Male',0000,https://navigate.itb.com/company/Le-Meridien-Maldives-Resort-Spa--1215965,Afrah Waheed,Sales Manager
Le Nautile Beachfront Hotel,Réunion,La Saline les Bains,97434,https://navigate.itb.com/company/Le-Nautile-Beachfront-Hotel--1024797,Dorothée Coriat,Directrice commerciale
Leonardo Hotels Group,Germany,Berlin,10407,https://navigate.itb.com/company/Leonardo-Hotels-Group--1039000,Stefano Splendori,Team Lead Marketing
LEONARDO HOTELS MEDITERRANEAN,Cyprus,Paphos,8204,https://navigate.itb.com/company/LEONARDO-HOTELS-MEDITERRANEAN--1024976,Andrie Kleanthous,Director of Sales & Marketing
LEOPARD BEACH RESORT & SPA,Kenya,DIANI BEACH,80400,https://navigate.itb.com/company/LEOPARD-BEACH-RESORT-SPA--1024987,KARN SINGH UBHI,MANAGING DIRECTOR
Le Palmiste Resort & Spa,Mauritius,Trou aux Biches,0,https://navigate.itb.com/company/Le-Palmiste-Resort-Spa--1024801,Raphael Anauth,
LE PASSAGE TO INDIA,India,NOIDA,201301,https://navigate.itb.com/company/LE-PASSAGE-TO-INDIA--1024804,MADHU SUDAN PANT PANT,SR VICE PRESIDENT
LEPTOS CALYPSO HOTELS,Cyprus,PAPHOS,8099,https://navigate.itb.com/company/LEPTOS-CALYPSO-HOTELS--1206999,PANAYIOTIS ATTAS,GROUP SALES & MARKETING DIRECTOR
Le Relais de l´Hermitage,Réunion,Saint Gilles les Bains,97434,https://navigate.itb.com/company/Le-Relais-de-l´Hermitage--1034051,Francoise Cristina,Représentante commerciale
Liberty Hotels & Resorts,Türkiye,Mugla,48300,https://navigate.itb.com/company/Liberty-Hotels-Resorts--1100044,Serap AKIN,Marketing Director
LifeClass Hotels & Spa,Slovenia,Portoroz,6320,https://navigate.itb.com/company/LifeClass-Hotels-Spa--1025127,Frank Rohler,Area Sales Manager
"LIFE SOURCE: HOTEL****S, FOOD EXPERIENCE & CLINIC",Italy,BERGAMO,24129,https://navigate.itb.com/company/LIFE-SOURCE:-HOTEL****S-FOOD-EXPERIENCE-CLINIC--1217013,NICOLETTA NODARI,MARKETING MANAGER
"Lihim Resorts, el Nido by Araw Hospitality Inc.",Philippines,Palawan,5313,https://navigate.itb.com/company/Lihim-Resorts-el-Nido-by-Araw-Hospitality-Inc--1208100,Mychylle Teo,Group Associate Director of Sales
Lily Hotels,Maldives,Male',0000,https://navigate.itb.com/company/Lily-Hotels--1025157,Mohamed Muzaffar Ahmed,Business Development Manager
Lionea do.o.,Croatia,Porec,52440,https://navigate.itb.com/company/Lionea-do-o--1215193,Anja Beck,Manager Global Network & Operations
Lion Roars Hotels & Amakhala Game Lodges,South Africa,Cape Town,8001,https://navigate.itb.com/company/Lion-Roars-Hotels-Amakhala-Game-Lodges--1192166,Teena Douglas,Group Sales Manager
Lipica Stud Farm and Hotel Maestoso 4*S,Slovenia,Sezana,6210,https://navigate.itb.com/company/Lipica-Stud-Farm-and-Hotel-Maestoso-4*S--1207250,Aleksander Bak,Business Development and Sales Manager
Loberias del Sur - Carretera Austral,Chile,Puerto Aysen,6000000,https://navigate.itb.com/company/Loberias-del-Sur---Carretera-Austral--1216242,Rodrigo Bravo Solá,Manager
Locke de Santa Joana,Portugal,Lisboa,1150-084,https://navigate.itb.com/company/Locke-de-Santa-Joana--1216642,Ana Bártolo,
LOGUERS Hotel Sales & Marketing,Greece,RETHYMNO,74100,https://navigate.itb.com/company/LOGUERS-Hotel-Sales-Marketing--1216541,Georgios Chroniaris,Contract Manager
Loligo & Let’s Sea Hua Hin,Thailand,Hua Hin,77110,https://navigate.itb.com/company/Loligo-Let’s-Sea-Hua-Hin--1025039,Srayut Ekahitanonda,CEO
"LOPESAN HOTELS MANAGEMENT, S.L.U.",Spain,Las Palmas de Gran Canaria,35006,https://navigate.itb.com/company/LOPESAN-HOTELS-MANAGEMENT-S-L-U--1025515,Marta Déniz,Trade Marketing Specialist
LORO PARQUE,Spain,Santa Cruz de Tenerife,38400,https://navigate.itb.com/company/LORO-PARQUE--1025531,Omaira González,Commercial Department
Lotsane Limpopo Luxury River Lodge,Botswana,Tuli Block,0,https://navigate.itb.com/company/Lotsane-Limpopo-Luxury-River-Lodge--1214816,Petra Moos,
Lotus Therme Hotel & Spa,Hungary,Hévíz,8380,https://navigate.itb.com/company/Lotus-Therme-Hotel-Spa--1209119,Viktor Kosztolánczi,Director of Sales & Marketing
Louis Hotels,Cyprus,Egkomi,2413,https://navigate.itb.com/company/Louis-Hotels--1025564,Charalambos Lardas,General manager Sales and Marketing
Louvre Hotels Group,France,Puteaux/La Défense,92800,https://navigate.itb.com/company/Louvre-Hotels-Group--1025571,Olivier DAURAT,VP Sales & Distribution
Lower Dover,Belize,San Ignacio,0,https://navigate.itb.com/company/Lower-Dover--1213460,Katja Doehne,Marketing Assistant
LP SRL,Italy,Castel del Piano (GR),58033,https://navigate.itb.com/company/LP-SRL--1217036,Victor Iacobescu,Hospitality Manager
Lulu Guest House,Zimbabwe,Victoria Falls,N/A,https://navigate.itb.com/company/Lulu-Guest-House--1215884,John Sianaga,Marketing Manager
LUNA BLANCA RESORT & SPA,Türkiye,Manavgat-Side,07600,https://navigate.itb.com/company/LUNA-BLANCA-RESORT-SPA--1216665,Halenur Cengiz,Head of Reservation
Luna Hotels & Resorts,Portugal,Albufeira,8200-911,https://navigate.itb.com/company/Luna-Hotels-Resorts--1025712,Sónia Coixão,
Youth hostel association Luxembourg,Luxembourg,Luxembourg,L-2261,https://navigate.itb.com/company/Youth-hostel-association-Luxembourg--1216568,Martine Backendorf,Marketing & Communication Manager
Ly.com(TONGCHENG),China,SUZHOU,215123,https://navigate.itb.com/company/Ly-comTONGCHENG--1212926,Hang Liu,Marketing  Director
Centara Hotels & Resorts,Thailand,Bangkok,10330,https://navigate.itb.com/company/Centara-Hotels-Resorts--1007155,Svetlana Raoes,Corporate Global Sales Director
Macià Hotels Group,Spain,Granada,18001,https://navigate.itb.com/company/Macià-Hotels-Group--1216735,Juan Pablo Arias,Sales Manager
Madi a Thavha Mountain Lodge,South Africa,Limpopo,0920,https://navigate.itb.com/company/Madi-a-Thavha-Mountain-Lodge--1216906,Mukundi Ramaite,General Manager
Madifushi Private Island,Maldives,Male',00,https://navigate.itb.com/company/Madifushi-Private-Island--1216256,Nasha Nasheed,Cluster Marketing Manager
Madulkelle Hotels and Lodge (Pvt) Ltd,Sri Lanka,Madulkelle,20840,https://navigate.itb.com/company/Madulkelle-Hotels-and-Lodge-Pvt-Ltd--1025925,Dilki Theekshani,Sales & Reservation Manager
Magic Hotels & Resorts,Spain,Benidorm (Alicante),03501,https://navigate.itb.com/company/Magic-Hotels-Resorts--1205975,Sergio España Pérez,Sales Manager
Magros Veletrgovina d.d. podruznica Swissotel,Bosnia & Herzegovina,Sarajevo,71000,https://navigate.itb.com/company/Magros-Veletrgovina-d-d--podruznica-Swissotel--1216979,Kozljak Zlata,General Manager
Mai Resorts,Thailand,Phang Nga,82190,https://navigate.itb.com/company/Mai-Resorts--1215575,Sopana Thevahudee,"C.E.O, Sales & Marketing"
Maitai Hotels,French Polynesia,Tahiti,98702,https://navigate.itb.com/company/Maitai-Hotels--1020497,Stephanie Mages,Europe Sales Representative
Makunudu Island Resort,Maldives,Male',00,https://navigate.itb.com/company/Makunudu-Island-Resort--1026106,Arjay Abeldor,Sales & Marketing Manager
Malahini Kuda Bandos,Maldives,Male',0000,https://navigate.itb.com/company/Malahini-Kuda-Bandos--1026113,Mohamed Shamee,Executive Secretary
Malak Hotel d.o.o.,Bosnia & Herzegovina,Sarajevo,71210,https://navigate.itb.com/company/Malak-Hotel-d-o-o--1020286,Ajla Gračić,Sales and reservations
Malikia Resort Abu Dabbab,Egypt,Marsa Alam,3636,https://navigate.itb.com/company/Malikia-Resort-Abu-Dabbab--1026147,Karam BADRA,Director of Sales & Marketing
MALTA MARRIOTT RESORT & SPA,Malta,St. Julians,STJ 1017,https://navigate.itb.com/company/MALTA-MARRIOTT-RESORT-SPA--1026164,Ramy Habshy,Leisure Sales Manager
MAMA SHELTER HOTEL L.L.C,United Arab Emirates,Dubai,52700,https://navigate.itb.com/company/MAMA-SHELTER-HOTEL-L-L-C--1216169,Islam Gamal,Director of Sales
MAMA SHELTER LISBOA,Portugal,Lisboa,1250-051,https://navigate.itb.com/company/MAMA-SHELTER-LISBOA--1216641,Afonso Magalhães,
Manchebo Beach Resort & Spa,Aruba,Eagle Beach,0000,https://navigate.itb.com/company/Manchebo-Beach-Resort-Spa--1026202,Edgar Roelofs,General Manager
Mandara Hotels,Sri Lanka,Colombo 05,00500,https://navigate.itb.com/company/Mandara-Hotels--1026209,Thilini Palihawadana,Vice President - Sales
Mandarava Resort and Spa,Thailand,Phuket,83100,https://navigate.itb.com/company/Mandarava-Resort-and-Spa--1215634,Nongnuch Muangroong,Director of Sales
Mangia's Resorts and Clubs,Italy,Palermo,90139,https://navigate.itb.com/company/Mangia's-Resorts-and-Clubs--1000782,Patrizia Costa,Director of Sales
Mantis Collection,South Africa,Paarl,7646,https://navigate.itb.com/company/Mantis-Collection--1026247,Donna Moodley,Cluster Sales Manager
Mapesu Private Game Reserve,South Africa,Musina,0900,https://navigate.itb.com/company/Mapesu-Private-Game-Reserve--1212555,Bill Perlot,Sales representative
Maradiva Villas Resort & Spa and Sands Suites Resort & Spa,Mauritius,Flic en Flac,0,https://navigate.itb.com/company/Maradiva-Villas-Resort-Spa-and-Sands-Suites-Resort-Spa--1026283,Usha Bohanee,
Fort Resort,Sri Lanka,Colombo 01,00100,https://navigate.itb.com/company/Fort-Resort--1214465,Mohamed Musharaf,General Manager
Mar-Bella Collection,Greece,Corfu,49084,https://navigate.itb.com/company/Mar-Bella-Collection--1207995,Areti Kitsou,Sales Manager
Maritim Resort & Spa Mauritius,Mauritius,Balaclava,0,https://navigate.itb.com/company/Maritim-Resort-Spa-Mauritius--1026430,Jane Cheekhoory,
Marriott International,Malaysia,Kuala Lumpur,50470,https://navigate.itb.com/company/Marriott-International--1217003,Joyce Wong,Country Director Sales & Distribution Malaysia
Marriott International - Egypt,Egypt,Cairo,11511,https://navigate.itb.com/company/Marriott-International---Egypt--1206873,Nesreen Shawky,Director of Sales and Marketing
Marriott Resort Palm Jumeirah,United Arab Emirates,Dubai,62049,https://navigate.itb.com/company/Marriott-Resort-Palm-Jumeirah--1026521,Mariem Belhaj,Asst. Sales Manager
"Maru Maru Hotel, Zanzibar",Tanzania,Zanzibar,4053,https://navigate.itb.com/company/Maru-Maru-Hotel-Zanzibar--1026561,Hemantha Welaratne,General Manager
MASON,Thailand,Chonburi,20250,https://navigate.itb.com/company/MASON--1026593,Pornpun Ratanapitakkul,General Manager
Mast Hotels & Resorts,Greece,Preveza,48100,https://navigate.itb.com/company/Mast-Hotels-Resorts--1215629,Christos Ioannou,Owner
MATCHA Samui Resort,Thailand,Suratthani,84320,https://navigate.itb.com/company/MATCHA-Samui-Resort--1206343,Anyanan Danuphoboriboon,Director of Sales and Marketing
MAYFAIR CRUISES,Egypt,Cairo,11341,https://navigate.itb.com/company/MAYFAIR-CRUISES--1026733,Maggie Petrova,Commercial Director
MAYFAIR HOTELS,Cyprus,Paphos,8046,https://navigate.itb.com/company/MAYFAIR-HOTELS--1026736,Christos Loizides,Sales & Marketing Director
Hotel Eleven,Montenegro,"Petrovac, Budva",85300,https://navigate.itb.com/company/Hotel-Eleven--1215870,Vladimir Medin,General manager
Miraggio Thermal Spa Resort,Greece,Halkidiki,63085,https://navigate.itb.com/company/Miraggio-Thermal-Spa-Resort--1027619,Stefanos Iliadis,Director of Sales & Marketing
Megaworld Hotels & Resorts,Philippines,Taguig,1634,https://navigate.itb.com/company/Megaworld-Hotels-Resorts--1208102,Claire del Rosario-Bernabe,Head of Sales & Strategic Partnerships
MEININGER Shared Services GmbH,Germany,Berlin,10963,https://navigate.itb.com/company/MEININGER-Shared-Services-GmbH--1027022,Leo Resende,Events Manager
Melia Bali,Indonesia,Nusa Dua,80363,https://navigate.itb.com/company/Melia-Bali--1027043,Eduardo Perera Castro,General Manager
MELIA HOTELS INTERNATIONAL,Spain,Palma,07009,https://navigate.itb.com/company/MELIA-HOTELS-INTERNATIONAL--1151478,Mario Tirado,Trade Fairs Specialist
Melia Hotels International - Bulgaria,Bulgaria,Sofia,1407,https://navigate.itb.com/company/Melia-Hotels-International---Bulgaria--1027051,Mariana Kostadinova,Sales Manager
Meliá Hotels Thailand,Thailand,Chiang Mai,50100,https://navigate.itb.com/company/Meliá-Hotels-Thailand--1215975,Thanyarot Sombutpoonsiri,Cluster Leisure Sales Director
Meliá Pattaya Hotel,Thailand,Pattaya,20150,https://navigate.itb.com/company/Meliá-Pattaya-Hotel--1215625,Yu Ka Ki,"Director of Sales & Marketing, Melia Pattaya Hotel"
Mellow Mood Hotels,Hungary,Budapest,1077,https://navigate.itb.com/company/Mellow-Mood-Hotels--1209048,Andrea Koltai,Director of Sales
Mercure ICON Singapore City Centre & Novotel Singapore on Kitchener,Singapore,Singapore,208533,https://navigate.itb.com/company/Mercure-ICON-Singapore-City-Centre-Novotel-Singapore-on-Kitchener--1204729,Cassandra Lin,
Mercury Phu Quoc Resort & Villas,Vietnam,Kien Giang,920000,https://navigate.itb.com/company/Mercury-Phu-Quoc-Resort-Villas--1216923,Khiem Le Thi Truc,Assistant Director of Sale
Merusaka Nusa Dua,Indonesia,Bali,80363,https://navigate.itb.com/company/Merusaka-Nusa-Dua--1027162,Ian Cameron,General Manager
Metadee Concept Hotel,Thailand,Phuket,83100,https://navigate.itb.com/company/Metadee-Concept-Hotel--1204709,Ploywadee Dibbayawan,Director of Sales and Marketing
MGM,Macao SAR China,Macao,999078,https://navigate.itb.com/company/MGM--1213419,Pik Yan Cindy Lui,Assistant Vice President of Resort Sales
MGM Muthu Hotels,Portugal,Funchal,9000-100,https://navigate.itb.com/company/MGM-Muthu-Hotels--1216637,Carla Jesus,
Mida Grande Resort Phuket,Thailand,Phuket,83110,https://navigate.itb.com/company/Mida-Grande-Resort-Phuket--1215736,Natthadit Thitaruengrachata,Director of Sales
Miki Travel Ltd,United Kingdom,London,EC4V 3BJ,https://navigate.itb.com/company/Miki-Travel-Ltd--1211721,Iveta Roos,Coordination Manager
Millennium Hotels & Resorts,Singapore,Singapore,169662,https://navigate.itb.com/company/Millennium-Hotels-Resorts--1027456,Mia Kwang Lim,
"Ministry of Information, Culture and Tourism Lao PDR",Laos,Vientiane Capital City,10100,https://navigate.itb.com/company/Ministry-of-Information-Culture-and-Tourism-Lao-PDR--1027569,Kettasone Sundara,Director
"Ministry of Tourism, Wildlife and Antiquities",Uganda,Kampala,+25641,https://navigate.itb.com/company/Ministry-of-Tourism-Wildlife-and-Antiquities--1213771,Berandette Asiimwe Bazirake,Senior Tourism Officer
MINISTRY OF TOURISM AND CREATIVE ECONOMY,Indonesia,Jakarta,10110,https://navigate.itb.com/company/MINISTRY-OF-TOURISM-AND-CREATIVE-ECONOMY--1027577,Ayu Surya,Senior Manager
Minor Hotels,Thailand,Bangkok,10110,https://navigate.itb.com/company/Minor-Hotels--1027598,Chirodeep Chakraborty,Regional Director of Sales - Asia
Minos Imperial,Greece,"Milatos, Lassithi, Crete",72400,https://navigate.itb.com/company/Minos-Imperial--1215632,Minos Geniatakis,Owner
Miramar Al Aqah Beach Resort,United Arab Emirates,Fujairah,5218,https://navigate.itb.com/company/Miramar-Al-Aqah-Beach-Resort--1027620,Sherif Ibrahim Khalifa,Director of Sales & Marketing
MIRAMARE HOTELS,Türkiye,ANTALYA,07330,https://navigate.itb.com/company/MIRAMARE-HOTELS--1100046,Banu Serhan ÖZBAY,duty general manager
Mirihi Island Resort,Maldives,Male',0000,https://navigate.itb.com/company/Mirihi-Island-Resort--1027626,Mohamed Ayaaz,Sales & Marketing Manager
Misibis Resort and Hotel Management Inc.,Philippines,Albay,4509,https://navigate.itb.com/company/Misibis-Resort-and-Hotel-Management-Inc--1216349,Jillian Cuaki,Sales Manager
MITSIS,Greece,Athens,11147,https://navigate.itb.com/company/MITSIS--1022906,Klery Kourouvani,Marketing Manager
Mnarani Beach Club,Kenya,Kilifi,80108,https://navigate.itb.com/company/Mnarani-Beach-Club--1215979,Lisa Roos,Sales
Moivaro Lodges and Tented Camps,Tanzania,Arusha,11297,https://navigate.itb.com/company/Moivaro-Lodges-and-Tented-Camps--1204748,Monique Janmaat,International Marketing
Molos Bay Hotel,Greece,"Kasteli Kissamou, Chania, Crete",73400,https://navigate.itb.com/company/Molos-Bay-Hotel--1027829,Giorgos Vlachakis,Owner
Mom Tri's Villa Royale,Thailand,Phuket,83100,https://navigate.itb.com/company/Mom-Tri's-Villa-Royale--1204715,Khajohnsak Phonboon,Director of Sales
Mondorf Domaine Thermal,Luxembourg,Mondorf-les-Bains,L-5601,https://navigate.itb.com/company/Mondorf-Domaine-Thermal--1027862,Anaïs Erpelding,Head of Communication
Morena Eco Resort,Curaçao,Willemstad,0,https://navigate.itb.com/company/Morena-Eco-Resort--1027952,Vera van der Wielen,
Morgabine Hospitality,Réunion,Saint Paul,97434,https://navigate.itb.com/company/Morgabine-Hospitality--1215372,Eric Laurent,Direktor
"Mori Trust Hotels & Resorts Co.,Ltd.",Japan,Tokyo,1400001,"https://navigate.itb.com/company/Mori-Trust-Hotels-Resorts-Co-,Ltd--1215562",Aya Matsumura,Assistant Sales Manager
Morshed Garden Hotel,Iran,Yazd,8919944614,https://navigate.itb.com/company/Morshed-Garden-Hotel--1216413,Yadolah Fazeli,Managing Director
Move Hotels,Italy,"Mogliano Veneto, Treviso",31021,https://navigate.itb.com/company/Move-Hotels--1216174,Sabina Agugiaro,Reservation Manager
Mövenpick Hotel Basel,Switzerland,Basel,4051,https://navigate.itb.com/company/Mövenpick-Hotel-Basel--1216521,Mario Schuknecht,
MOVENPICK HOTEL JUMEIRAH BEACH,United Arab Emirates,Dubai,282825,https://navigate.itb.com/company/MOVENPICK-HOTEL-JUMEIRAH-BEACH--1028049,Ahmad GHOSHEH,Director of Sales & Marketing
Mövenpick Hotel Mansour Eddahbi Marrakech,Morocco,Marrakech,40000,https://navigate.itb.com/company/Mövenpick-Hotel-Mansour-Eddahbi-Marrakech--1217005,Mohamed Qodad,
Mövenpick Resort & Spa El Gouna,Egypt,Red Sea,84511,https://navigate.itb.com/company/Mövenpick-Resort-Spa-El-Gouna--1216502,Hanan Mohamed,Director of Sales & Marketing
Movenpick Resort Kuredhivaru Maldives,Maldives,Male',0000,https://navigate.itb.com/company/Movenpick-Resort-Kuredhivaru-Maldives--1028071,Liu Lingqiao,Director of Sales & Marketing
Mövenpick Resort Waverly Phu Quoc,Vietnam,Phu Quoc,920000,https://navigate.itb.com/company/Mövenpick-Resort-Waverly-Phu-Quoc--1216994,Claudio Schibli,General Manager
MPM HOTELS LTD,Bulgaria,Sofia,1700,https://navigate.itb.com/company/MPM-HOTELS-LTD--1028100,Chavdar Blazhev,Sales and Marketing Director
Msandile River Lodge,Zambia,Kakumbi,0000aa,https://navigate.itb.com/company/Msandile-River-Lodge--1216566,Frank Rozestraten,Owner
MS Hotels - MS Collection e Moon & Sun,Portugal,Ramalde,4100-320,https://navigate.itb.com/company/MS-Hotels---MS-Collection-e-Moon-Sun--1216917,Helena Valente,
Municipality of Sandanski,Bulgaria,Sandanski,2800,https://navigate.itb.com/company/Municipality-of-Sandanski--1216536,Albena Bugarinova,Junior expert in Public relations
Municipalty of Samokov & Borovets Resort,Bulgaria,Samokov,2000,https://navigate.itb.com/company/Municipalty-of-Samokov-Borovets-Resort--1035650,Ivanka Vukova,Manager TIC
Muskita Hotels Ltd - Four Seasons & Amathus Hotels,Cyprus,Limassol,"4532,",https://navigate.itb.com/company/Muskita-Hotels-Ltd---Four-Seasons-Amathus-Hotels--1028391,Nick Aristou,
Nagoya Marriott Associa Hotel / JR-Central Hotels,Japan,"Chiyoda-ku, Tokyo",102-0072,https://navigate.itb.com/company/Nagoya-Marriott-Associa-Hotel-/-JR-Central-Hotels--1216278,Atsuko Kamiya,Manager
Nallikari By the Sea,Finland,Oulu,90100,https://navigate.itb.com/company/Nallikari-By-the-Sea--1215584,Niina Hepo-oja,
Namaka Resort Kamala,Thailand,Phuket,83150,https://navigate.itb.com/company/Namaka-Resort-Kamala--1215638,Wanniwat Srisupapol,Area Director of Sales & Marketing
Namibia Tracks & Trails,Namibia,Swakopmund,0,https://navigate.itb.com/company/Namibia-Tracks-Trails--1028558,Wiebke Priilaid,Marketing & Procurement Manager
Namibia Wildlife Resorts,Namibia,Windhoek,0000,https://navigate.itb.com/company/Namibia-Wildlife-Resorts--1213530,Tangeni Kaulu,Manager: Trade Promotions
Naples Grande Beach Resort,United States of America,Naples,34103,https://navigate.itb.com/company/Naples-Grande-Beach-Resort--1215927,Althea Allen,
NATROVA INVERSIONES SL,Spain,Huelva,41800,https://navigate.itb.com/company/NATROVA-INVERSIONES-SL--1216713,MANUEL Muñoz PALACIOS,Director
Nattika Beach Ayurveda and Yoga Centre Pvt Ltd,India,Thrissur,680566,https://navigate.itb.com/company/Nattika-Beach-Ayurveda-and-Yoga-Centre-Pvt-Ltd--1028679,Joseph Kodath,Director
Naturally Namibia,Namibia,Windhoek,0,https://navigate.itb.com/company/Naturally-Namibia--1028694,Miriam Schmidt,Marketing Manager
Naumi Hotels,Singapore,Singapore,189652,https://navigate.itb.com/company/Naumi-Hotels--1215273,Sharon Woo,
NELIA BEACH HOTEL & SPA/NELIA GARDENS HOTEL/KALIVA SUITES,Cyprus,AMMOCHOSTOS,5340,https://navigate.itb.com/company/NELIA-BEACH-HOTEL-SPA/NELIA-GARDENS-HOTEL/KALIVA-SUITES--1206384,ANGELOS NICOLAOU,GENERAL MANAGER
Neptune Hotels (Zanzibar) Limited,Tanzania,Zanzibar,0,https://navigate.itb.com/company/Neptune-Hotels-Zanzibar-Limited--1028849,Shams Tejani,
New Star Beach Resort,Thailand,"Koh Samui, Suratthani",84320,https://navigate.itb.com/company/New-Star-Beach-Resort--1207680,Nisarat Chuenchana,Sales & Marketing Consultant
NEWTOURVIS,Spain,MALAGA,29006,https://navigate.itb.com/company/NEWTOURVIS--1029001,JUAN CARLOS TOME,MANAGER INCOMING
New World Millennium Hong Kong Hotel,Hong Kong SAR China,Hong Kong SAR,N/A,https://navigate.itb.com/company/New-World-Millennium-Hong-Kong-Hotel--1028975,Perry Li,Assistant Director of Business Development - Travel Trade
NEYA Porto Hotel,Portugal,Porto,4050-394,https://navigate.itb.com/company/NEYA-Porto-Hotel--1029054,Sara Freire,
Nh Collection Dubai The Palm,United Arab Emirates,Dubai,00000,https://navigate.itb.com/company/Nh-Collection-Dubai-The-Palm--1216996,Narendra Kumar Upadhyay,Director of Sales
NH Prague City and NH Collection Prague,Czechia,Praha 5,150 00,https://navigate.itb.com/company/NH-Prague-City-and-NH-Collection-Prague--1215905,Gabriela Lönn,
Nika Island Resort & Spa,Maldives,Male',0000,https://navigate.itb.com/company/Nika-Island-Resort-Spa--1029129,Mohamed Saeed,Managing Director
Nikki Beach Resort & Spa Koh Samui,Thailand,Surat Thani,84140,https://navigate.itb.com/company/Nikki-Beach-Resort-Spa-Koh-Samui--1215631,Anna Buckland,Director of Sales
Nikki Beach Resort and Spa Dubai,United Arab Emirates,Dubai,8286,https://navigate.itb.com/company/Nikki-Beach-Resort-and-Spa-Dubai--1029133,Haitham Heyasat,DOSM
Nirwana Pte Ltd,Singapore,Singapore,099254,https://navigate.itb.com/company/Nirwana-Pte-Ltd--1029204,Hazel Leow,
NISSI BEACH RESORT,Cyprus,FAMAGUSTA,5340,https://navigate.itb.com/company/NISSI-BEACH-RESORT--1029209,CHRISTOS LOUCA,
Nivunki Village,Finland,Äkäslompolo,95970,https://navigate.itb.com/company/Nivunki-Village--1215586,Sami Luoto,
NKURINGO SAFARIS LTD,Uganda,ENTEBBE,000256,https://navigate.itb.com/company/NKURINGO-SAFARIS-LTD--1029226,CATHERINE NABBAALE,SAFARI MANAGER
Noi Hotels,Chile,Santiago,7500000,https://navigate.itb.com/company/Noi-Hotels--1029271,Maria Francisca Castro de Halleux,Tour & Travel Manager
"Noku Maldives, Vignette Collection",Maldives,,20188,https://navigate.itb.com/company/Noku-Maldives-Vignette-Collection--1215934,Naufal Naeem,Director of Sales & Marketing
NOOE Maldives Kunaavashi,Maldives,,,https://navigate.itb.com/company/NOOE-Maldives-Kunaavashi--1215939,Haizoom Hameed,Assistant Director of Sales
Nora Resorts Hotels,Thailand,"Koh Samui, Suratthani",84320,https://navigate.itb.com/company/Nora-Resorts-Hotels--1216254,Vorasit Pongkumpunt,Personal Assistant
Nordic Unique Travels Oy,Finland,Rovaniemi,96200,https://navigate.itb.com/company/Nordic-Unique-Travels-Oy--1216636,Mickey WANG,Administration Manager
Northern Lights Village,Finland,Saariselkä,99830,https://navigate.itb.com/company/Northern-Lights-Village--1029394,André Henke Marques,General Manager
Nova Hotels Ltd,Tanzania,Zanzibar,P. O.Box 1361,https://navigate.itb.com/company/Nova-Hotels-Ltd--1029436,Sujit Shah,Sales & Marketing
Nova Maldives,Maldives,Male',0000,https://navigate.itb.com/company/Nova-Maldives--1215959,Ekaterina Shmykova,Senior Sales Manager
NOVASOL,Denmark,Virum,2830,https://navigate.itb.com/company/NOVASOL--1029460,John Adams,Head of Third Party Partnerships
Novotel Bali Ubud Resort,Indonesia,Gianyar,80572,https://navigate.itb.com/company/Novotel-Bali-Ubud-Resort--1216661,Ni Nyoman Sri Wahyuni,Director of Sales and Marketing
Novotel Basel City,Switzerland,Basel,4052,https://navigate.itb.com/company/Novotel-Basel-City--1216515,Lena Kienberger,
Novotel Marsa Alam,Egypt,Marsa Alam,84721,https://navigate.itb.com/company/Novotel-Marsa-Alam--1216512,Edouard Reizian,General Manager
NUMO Hotels & Resorts,Greece,Athens,10561,https://navigate.itb.com/company/NUMO-Hotels-Resorts--1029545,George Georgakopoulos,Sales Manager
Nusa Dua Beach Hotel & Spa,Indonesia,"Nusa Dua, Bali",80363,https://navigate.itb.com/company/Nusa-Dua-Beach-Hotel-Spa--1206155,Ludri Ratnawati,Director of Sales & Marketing
Nxai Travel,Botswana,Gaborone,00267,https://navigate.itb.com/company/Nxai-Travel--1216361,Keletso Guga,Managing Director
O'Donoghue Ring Collection,Ireland,Kerry,V93 X3VW,https://navigate.itb.com/company/O'Donoghue-Ring-Collection--1205423,Niamh O'Neill,International Business Development Manager
Oak Ray Tea Bush (Pvt) Ltd,Sri Lanka,Kandy,20000,https://navigate.itb.com/company/Oak-Ray-Tea-Bush-Pvt-Ltd--1214253,Sajith Kahapalaarachchi,Assistant Reservation Manager
OBS OnlineBuchungService GmbH,Germany,Regensburg,93059,https://navigate.itb.com/company/OBS-OnlineBuchungService-GmbH--1030044,Dennis Blut,Teamleitung Neukundenberatung
Occidental Sharjah Grand,United Arab Emirates,Sharjah,6059,https://navigate.itb.com/company/Occidental-Sharjah-Grand--1029713,Bassem Philobos,
Ocean Paradise Resort and Spa,Tanzania,Zanzibar,0,https://navigate.itb.com/company/Ocean-Paradise-Resort-and-Spa--1029723,Antonie Du Preez,Manager
Ohorongo Game and Safari Lodge (Pty) Ltd,Namibia,Outjo,9000,https://navigate.itb.com/company/Ohorongo-Game-and-Safari-Lodge-Pty-Ltd--1206354,Sylvia Henke,Sales and Marketing Manager
Ol Tukai Lodge,Kenya,Nairobi,00100,https://navigate.itb.com/company/Ol-Tukai-Lodge--1207811,James Chege,
Ombak Group Gili Trawangan,Indonesia,North lombok,83355,https://navigate.itb.com/company/Ombak-Group-Gili-Trawangan--1205148,Marina Tayeb,Managing Director
Ondili Lodge Management PTY LTD,Namibia,Windhoek,10012,https://navigate.itb.com/company/Ondili-Lodge-Management-PTY-LTD--1206219,Klaus Ebner,Manager Sales & Marketing
ONOMO Hotels,South Africa,Cape Town,7530,https://navigate.itb.com/company/ONOMO-Hotels--1215332,Lurene Krone,Cluster Sales Manager
ONYX Hospitality Group,Thailand,BANGKOK,10310,https://navigate.itb.com/company/ONYX-Hospitality-Group--1030058,Siriyupa Prakobthong,"Director, Sales - Leisure"
Orion Construction Ltd,Albania,Tirana,1001 AL,https://navigate.itb.com/company/Orion-Construction-Ltd--1217180,Erjona Beqiraj,Marketing Director
Otium Otelcilik Tur. Tic. A.ş,Türkiye,Muratpaşa,07200,https://navigate.itb.com/company/Otium-Otelcilik-Tur--Tic--A-ş--1030383,Osman Aydin,Sales & Marketing Senior Manager
Otjiwa Collection,Namibia,Otjiwarongo,12005,https://navigate.itb.com/company/Otjiwa-Collection--1217143,Schalk Muller,Ceo
OTS Globe,Switzerland,Glattburg,CH-8152,https://navigate.itb.com/company/OTS-Globe--1206577,Dani Barros,Product Director
Outrigger,Mauritius,Bel Ombre,0,https://navigate.itb.com/company/Outrigger--1030437,Yannick Perrault,
Outrigger Maldives Maafushivaru Maldives,Maldives,Male',0000,https://navigate.itb.com/company/Outrigger-Maldives-Maafushivaru-Maldives--1207584,Kenan Al Shalabi,Sales Manager
"OUTRIGGER Resorts & Hotels, Thailand",Thailand,Phuket,83110,https://navigate.itb.com/company/OUTRIGGER-Resorts-Hotels-Thailand--1204704,Sergey Kutuzov,"Area Director of Sales and Marketing, Sales and Marketing"
P. H Resort (Pvt) Ltd,Sri Lanka,Colombo 07,00700,https://navigate.itb.com/company/P--H-Resort-Pvt-Ltd--1214036,Yohan Liyanage,Cluster Assistant Director of Sales
Pairi Daiza,Belgium,Brugelette,7940,https://navigate.itb.com/company/Pairi-Daiza--1214434,Sophie Vandendriessche,Commercial director
PALASIET THALASSO CLINIC & HOTEL,Spain,Benicàssim,12560,https://navigate.itb.com/company/PALASIET-THALASSO-CLINIC-HOTEL--1216223,Diana Covaliu,Marketing manager
Palazzo Versace Dubai,United Arab Emirates,Dubai,128431,https://navigate.itb.com/company/Palazzo-Versace-Dubai--1030598,MOHAMED TAHER SHOUKRI,Director of Sales & Events
Palm Hotel & Spa,Réunion,Petite Ile,97429,https://navigate.itb.com/company/Palm-Hotel-Spa--1030624,Stéphanie Dompy,Directrice commerciale
Palm Plaza Hotel Marrakech - RASSUICH,Morocco,Marrakech,40000,https://navigate.itb.com/company/Palm-Plaza-Hotel-Marrakech---RASSUICH--1217138,Hajib AIT ALI OUADDI,Director of Sales & Revenue
Palm Royale Resort Soma Bay,Egypt,Hurghada,11231,https://navigate.itb.com/company/Palm-Royale-Resort-Soma-Bay--1030626,Mariam Mourad,Director of Marketing & E-Commerce
"Palms, Zanzibar",Tanzania,Zanzibar,0000,https://navigate.itb.com/company/Palms-Zanzibar--1206065,Sujit Shah,Sales & Marketing
PalmWings Hotels & Resorts,Türkiye,IZMIR,35920,https://navigate.itb.com/company/PalmWings-Hotels-Resorts--1030640,Bulent MENEKSE,General Manager
PALOMA HOTELS,Türkiye,ANTALYA,07230,https://navigate.itb.com/company/PALOMA-HOTELS--1030644,Pinar Akin,Sales & Marketing Asst. Manager
Panan Krabi Resort,Thailand,Krabi,81180,https://navigate.itb.com/company/Panan-Krabi-Resort--1030673,Phensiri Charoensuk,Cluster Director of Sales & Marketing
PANARI HOTELS & RESORTS,Kenya,NAIROBI,00506,https://navigate.itb.com/company/PANARI-HOTELS-RESORTS--1207396,DEVENDRA ASHER,GROUP GENERAL MANAGER
Pandanus Resort Mui Ne,Vietnam,"Phan Thiet, Binh Thuan",77118,https://navigate.itb.com/company/Pandanus-Resort-Mui-Ne--1207088,Peter Gerhäuser,General Manager
Panhou Retreat/ Whale Island Resort,Vietnam,Hanoi,100000,https://navigate.itb.com/company/Panhou-Retreat/-Whale-Island-Resort--1216155,David Le,General Director
Panorama Destination,Indonesia,Jakarta Barat,11440,https://navigate.itb.com/company/Panorama-Destination--1196623,Andriani Tirtawisata,Director of Marketing
PANTELIS SAPOUNAKIS SA (S RESORTS),Greece,HERSONISSOS HERAKLION,70014,https://navigate.itb.com/company/PANTELIS-SAPOUNAKIS-SA-S-RESORTS--1215722,NIKOS KOURNETAS,GENERAL MANAGER
Panviman Resort Koh Phangan/ Panviman Chiang Mai Spa Resort,Thailand,Surat Thani,84280,https://navigate.itb.com/company/Panviman-Resort-Koh-Phangan/-Panviman-Chiang-Mai-Spa-Resort--1206560,Surasak Tharapatn,Group General Manager
Papagayo Curaçao,Curaçao,Willemstad,0,https://navigate.itb.com/company/Papagayo-Curaçao--1030727,Stephen Comenencia,
Papillon Hotels Resort SPA,Türkiye,Serik,7500,https://navigate.itb.com/company/Papillon-Hotels-Resort-SPA--1145078,BARIS BECERIK,
Papillon Lagoon Reef Hotel,Kenya,Diani,P.O. Box 5292 -,https://navigate.itb.com/company/Papillon-Lagoon-Reef-Hotel--1030744,Ian Taplin,Sales Manager
PARADEE,Thailand,Rayong,21160,https://navigate.itb.com/company/PARADEE--1030754,Nattawadee Wuthisawas,Group Director of Sales & Marketing
Paradise and Wilderness Limited,Tanzania,Dar Es Salaam,0,https://navigate.itb.com/company/Paradise-and-Wilderness-Limited--1212920,Caren Bradley,Head of Sales
Paradise KohYao/Samui,Thailand,Phang Nga,82160,https://navigate.itb.com/company/Paradise-KohYao/Samui--1030763,Josef H. Raess,MD
Paradise Sun Hotel,Seychelles,Praslin,0000,https://navigate.itb.com/company/Paradise-Sun-Hotel--1216840,Ferruccio Tirone,
PARADORES de Turismo de España,Spain,Madrid,28003,https://navigate.itb.com/company/PARADORES-de-Turismo-de-España--1030768,Gloria Díaz Fernández,International Area Sales Manager
Paradox Singapore Merchant Court,Singapore,Singapore,058281,https://navigate.itb.com/company/Paradox-Singapore-Merchant-Court--1206532,Marlene Fang,
PARALOS HOSPITALITY SA,Greece,"HERAKLION, CRETE",71409,https://navigate.itb.com/company/PARALOS-HOSPITALITY-SA--1182412,MARILI MILOLIDAKI,EXECUTIVE ASSISTANT
PARC HOTELS ITALIA,Italy,Limone sul Garda (BS),25010,https://navigate.itb.com/company/PARC-HOTELS-ITALIA--1004726,Graziella Carraro,
Park Hyatt Maldives,Maldives,Male',00,https://navigate.itb.com/company/Park-Hyatt-Maldives--1030810,Simone Berti,Director of Sales & Marketing
Park Inn by Radisson Berlin Alexanderplatz,Germany,Berlin,10178,https://navigate.itb.com/company/Park-Inn-by-Radisson-Berlin-Alexanderplatz--1168818,Nicole Martinez-Allo,
Patong Resort Hotel,Thailand,Phuket,83150,https://navigate.itb.com/company/Patong-Resort-Hotel--1030909,Kulisara Kaenleksuk,Director of Sales
Pavilion Samui Villas & Resort,Thailand,Suratthani,84310,https://navigate.itb.com/company/Pavilion-Samui-Villas-Resort--1030957,Nattanan Pongchababnapa,P.A. to Managing Director
Pearle Beach,Mauritius,Flic en Flac,0,https://navigate.itb.com/company/Pearle-Beach--1031009,Dave Bundhoo,
Pearl Star Travel & Tours (M) Sdn Bhd,Malaysia,Selangor,43300,https://navigate.itb.com/company/Pearl-Star-Travel-Tours-M-Sdn-Bhd--1031005,Nyanasunthari Ramanaidu,Managing Director
PEERMONT HOTELS CASINOS AND RESORTS,South Africa,Johannesburg,1620,https://navigate.itb.com/company/PEERMONT-HOTELS-CASINOS-AND-RESORTS--1031020,Yugashnee Naicker,Group Manager-Sales
PEFACO HOTEL MAYA-MAYA/ ALIMA PALACE,Congo - Brazzaville,Brazzaville,0000,https://navigate.itb.com/company/PEFACO-HOTEL-MAYA-MAYA/-ALIMA-PALACE--1215021,Vick Cheirick BAKALA,Sells and Marketing Manager
Pegasus Hotels of Ceylon Limited,Sri Lanka,Hendala,11300,https://navigate.itb.com/company/Pegasus-Hotels-of-Ceylon-Limited--1031026,Renuke Coswatte,General Manager
"PELANGI BEACH RESORT & SPA, LANGKAWI",Malaysia,Langkawi,07000,https://navigate.itb.com/company/PELANGI-BEACH-RESORT-SPA-LANGKAWI--1031040,Sam Poh Choo,Director of Sales & Marketing
Pelican Halong - Cat Ba Cruise Joint Stock Company,Vietnam,Hai Phong City,18000,https://navigate.itb.com/company/Pelican-Halong---Cat-Ba-Cruise-Joint-Stock-Company--1031042,Phuong Nguyen Thi Ha,Director of Sales
Peninsula Bay Beach Resort & Spa Blue Lagoon Beach Hotel Co. Ltd,Mauritius,Blue Bay,0,https://navigate.itb.com/company/Peninsula-Bay-Beach-Resort-Spa-Blue-Lagoon-Beach-Hotel-Co--Ltd--1005454,Rachna Goneea,
PENINSULA TOURS,Türkiye,KUSADASI - AYDIN,09400,https://navigate.itb.com/company/PENINSULA-TOURS--1031057,Cagin GULEC,Deputy Managing Director
PERFECTA TRAVEL,Croatia,ZAGREB,10000,https://navigate.itb.com/company/PERFECTA-TRAVEL--1031087,MATEA JERIC CURKOVIC,Managing Director
PERNERA BEACH HOTEL,Cyprus,AMMOCHOSTOS,5296,https://navigate.itb.com/company/PERNERA-BEACH-HOTEL--1206124,PANAYIOTIS CONSTANTINOU,GENERAL MANAGER
Pestana Hotel Group,Portugal,Funchal,9004-531,https://navigate.itb.com/company/Pestana-Hotel-Group--1031145,José Pedro Tojal,
Philoxenia Hotel,Greece,"Sithonia, Halkidiki",63071,https://navigate.itb.com/company/Philoxenia-Hotel--1031254,Grigoris Tasios,Managing Director
Phuket Graceland Resort and Spa,Thailand,Phuket,83150,https://navigate.itb.com/company/Phuket-Graceland-Resort-and-Spa--1215639,Sylvia Tsai,Senior Sales & Marketing Manager
"Phuket Marriott Resort & Spa, Merlin Beach",Thailand,Phuket,83150,https://navigate.itb.com/company/Phuket-Marriott-Resort-Spa-Merlin-Beach--1031287,Trevor Denman May,Cluster General Manager
"PILGRIMAGE VILLAGE & VEDANA LAGOON RESORTS, VIETNAM",Vietnam,Hue,530000,https://navigate.itb.com/company/PILGRIMAGE-VILLAGE-VEDANA-LAGOON-RESORTS-VIETNAM--1117033,Thi Da Lam Le,General Manager
Pilot Beach Resort,Greece,Chania,73007,https://navigate.itb.com/company/Pilot-Beach-Resort--1031348,Georgios Papadopoulos,General Manager
"Pine Cliffs, a Luxury Collection",Portugal,Albufeira,8200,https://navigate.itb.com/company/Pine-Cliffs-a-Luxury-Collection--1205357,Karen Tomás,
"Pioneers, Victoria Falls and Batonka Guest Lodge",Zimbabwe,Victoria Falls,N/A,https://navigate.itb.com/company/Pioneers-Victoria-Falls-and-Batonka-Guest-Lodge--1209170,Christine Ess,Shareholder
Place of Charme - Soges Group SpA,Italy,Firenze,50127,https://navigate.itb.com/company/Place-of-Charme---Soges-Group-SpA--1187242,Francesca Manetti,
Planhotel Hospitality Group,Switzerland,Lugano,6900,https://navigate.itb.com/company/Planhotel-Hospitality-Group--1031474,Stefano Soro,Assistant to the Commercial Director
Plataran Indonesia,Indonesia,Jakarta Selatan,12160,https://navigate.itb.com/company/Plataran-Indonesia--1031529,Christian Eka Cahya,Director of Sales & Marketing
Poiano Resort,Italy,"Garda, Verona",37016,https://navigate.itb.com/company/Poiano-Resort--1031631,Emanuela Girardi,Booking Manager
POLEN TURIZM YAT. A.S.,Türkiye,Antalya,07600,https://navigate.itb.com/company/POLEN-TURIZM-YAT--A-S--1036358,Erol Sanat,Sales & Marketing Director
PONGWE BEACH HOTEL,Tanzania,Zanzibar,298,https://navigate.itb.com/company/PONGWE-BEACH-HOTEL--1031747,Altaaf Ismail,General Manager
Poovar Island Resort,India,Trivandrum,695513,https://navigate.itb.com/company/Poovar-Island-Resort--1031753,Jayakumar S,CEO
Portonovi Resort,Montenegro,Herceg Novi,85340,https://navigate.itb.com/company/Portonovi-Resort--1215868,Relja Krstonijevic,Rental Coordinator
POSEIDONIA BEACH HOTEL,Cyprus,LIMASSOL,3502,https://navigate.itb.com/company/POSEIDONIA-BEACH-HOTEL--1031845,MARIOS KONSTANTINOU,
Postillion Hotels Netherlands,Netherlands,Bunnik,3981 HZ,https://navigate.itb.com/company/Postillion-Hotels-Netherlands--1214323,Danny Cappon,Business Development Manager
Pousadas de Juventude dos Açores,Portugal,Ponta Delgada,9500-243,https://navigate.itb.com/company/Pousadas-de-Juventude-dos-Açores--1031866,Isabel Guincho,
Premiere Abano - VHGroup Hotel Collection -,Italy,"Abano Terme, Padova",35031,https://navigate.itb.com/company/Premiere-Abano---VHGroup-Hotel-Collection---1216177,Lia Ermolinskaya,Head of Sales & Marketing
Premier Inn Holding GmbH,Germany,Frankfurt am Main,60327,https://navigate.itb.com/company/Premier-Inn-Holding-GmbH--1215538,Kerstin Gibert,Regional Director of Sales
Premier Le Reve Hotel & Spa,Egypt,Hurghada,12411,https://navigate.itb.com/company/Premier-Le-Reve-Hotel-Spa--1031960,Ahmed Yahia,Director Of Marketing
"PRIDEINN HOTELS,  RESORTS & CAMPA",Kenya,NAIROBI,00200,https://navigate.itb.com/company/PRIDEINN-HOTELS--RESORTS-CAMPA--1032006,JOHN WAMBUGU,GROUP SALES MANAGER
Privada Stays,Aruba,Oranjestad,0000,https://navigate.itb.com/company/Privada-Stays--1215014,Gillian Lejuez,General Manager
Private Selection Hotels & Tours,Switzerland,Luzern,6003,https://navigate.itb.com/company/Private-Selection-Hotels-Tours--1216442,Esther Dysli,
Privathotels Hamburg,Germany,Hamburg,20459,https://navigate.itb.com/company/Privathotels-Hamburg--1214857,Thomas Kleinertz,Geschäftsführer
PT. KRUKUL,Indonesia,"Pemuteran, Bali",81155,https://navigate.itb.com/company/PT--KRUKUL--1215366,kafi tarigan,director
PT Patra Jasa,Indonesia,Jakarta,12950,https://navigate.itb.com/company/PT-Patra-Jasa--1040355,Irawati Irawati,Sales Manager Hospitality
"Pullman Cape Town, Movenpick Windhoek, Mercure Windhoek",South Africa,Cape Town,8000,https://navigate.itb.com/company/Pullman-Cape-Town-Movenpick-Windhoek-Mercure-Windhoek--1216245,Willie Williams,Area Director of Sales & Marketing
Pullman Khao Lak Resort,Thailand,Phang Nga,82190,https://navigate.itb.com/company/Pullman-Khao-Lak-Resort--1215833,Thanawat Julasuk,Director of Sales and Marketing
Pullman Kuching & Pullman Miri Waterfront,Malaysia,Kuching,93100,https://navigate.itb.com/company/Pullman-Kuching-Pullman-Miri-Waterfront--1216993,Joyce Surendra,Cluster Director of Sales & Distribution
Pullman Maldives Maamuta Resorts,Maldives,Male',000,https://navigate.itb.com/company/Pullman-Maldives-Maamuta-Resorts--1207661,Jonette Canal,Clustor DOS
Pullman Phuket Panwa Beach Resort,Thailand,Phuket,83000,https://navigate.itb.com/company/Pullman-Phuket-Panwa-Beach-Resort--1032434,Supatta Ramsut,Assistant Director of Sales
Pullman Singapore Orchard,Singapore,Singapore,238857,https://navigate.itb.com/company/Pullman-Singapore-Orchard--1032435,Rob McIntyre,
PURI BAGUS VILLA RESORT,Indonesia,Bali,80361,https://navigate.itb.com/company/PURI-BAGUS-VILLA-RESORT--1206234,Taufik Junianto,Sales & Marketing Consultant
Queen Elizabeth 2 Hotel,United Arab Emirates,"Dubai, United Arab of emirates",PO Box 6769,https://navigate.itb.com/company/Queen-Elizabeth-2-Hotel--1033403,Nidal Shbat,Director of Sales
"Quinta do Paral, The Wine Hotel",Portugal,Vidigueira - Alentejo,7960-131,https://navigate.itb.com/company/Quinta-do-Paral-The-Wine-Hotel--1216898,Filipe Simões,
Radisson Blu Golden Sands,Malta,Mellieħa,MLH 5510,https://navigate.itb.com/company/Radisson-Blu-Golden-Sands--1216370,Brian Bartolo,Director of Sales & Marketing
Radisson Blu Hotel Olümpia,Estonia,Tallinn,10118,https://navigate.itb.com/company/Radisson-Blu-Hotel-Olümpia--1206915,Silver Aste,Cluster Sales Manager
Radisson Hotel Group,Belgium,Bruxelles,B-1130,https://navigate.itb.com/company/Radisson-Hotel-Group--1033534,Daniela Dumitrescu,Global Marketing Strategy Director
Radisson Resorts Mauritius,Mauritius,Haute Rive,0,https://navigate.itb.com/company/Radisson-Resorts-Mauritius--1033527,Patrick Lan,
Radonbad Jachymov,Czechia,Jáchymov,362 51,https://navigate.itb.com/company/Radonbad-Jachymov--1033543,Šárka Košťálová,
Raffles Dubai,United Arab Emirates,Dubai,121800,https://navigate.itb.com/company/Raffles-Dubai--1033552,Ehab Reda,Director of Sales
Raga Svara,India,Rajkot,360020,https://navigate.itb.com/company/Raga-Svara--1207608,Mohit Patel,Co-founder
Rainbow Tourism Group,Zimbabwe,Harare,N/A,https://navigate.itb.com/company/Rainbow-Tourism-Group--1033645,Brain Maponde,National Sales Manager
Ramada by Wyndham Kochi,India,Ernakulam,682506,https://navigate.itb.com/company/Ramada-by-Wyndham-Kochi--1217026,Jomon K Jose,
Ramada Plaza by Wyndham Bangkok Menam Riverside,Thailand,Bangkok,10120,https://navigate.itb.com/company/Ramada-Plaza-by-Wyndham-Bangkok-Menam-Riverside--1033671,Jose de Jesus Ting,Director of Sales and Marketing
Ramada Plaza Resort & Suites International Drive Orlando,United States of America,Orlando,32819,https://navigate.itb.com/company/Ramada-Plaza-Resort-Suites-International-Drive-Orlando--1033675,Swapnil Shah,
Ramada Resort by Wyndham Khao Lak,Thailand,Phang-Nga,82200,https://navigate.itb.com/company/Ramada-Resort-by-Wyndham-Khao-Lak--1033678,Sarayudh Sanva,Director of Sales & Marketing
RAMA GARDENS HOTEL BANGKOK,Thailand,Bangkok,10210,https://navigate.itb.com/company/RAMA-GARDENS-HOTEL-BANGKOK--1033664,NUNTINEE CHUACHOOWONGSE,Assistant Managing Director
Ramon's Village Resort,Belize,San Pedro,0,https://navigate.itb.com/company/Ramon's-Village-Resort--1213463,Einer Gomez,General Manager
Rancho de los Caballeros Ranch and Golf Club,United States of America,Wickenburg,85390-2118,https://navigate.itb.com/company/Rancho-de-los-Caballeros-Ranch-and-Golf-Club--1216471,George McGann,
Real Hotels Group,Portugal,Carnaxide,2790-236,https://navigate.itb.com/company/Real-Hotels-Group--1205394,Bruno Antunes,
REDE WINDSOR,Brazil,Rio de Janeiro,20040-010,https://navigate.itb.com/company/REDE-WINDSOR--1216159,Bianca Rodrigues,
Red Sea Hotels,Egypt,Hurghada,Red Sea - Egypt,https://navigate.itb.com/company/Red-Sea-Hotels--1179037,Rubini Tobien,Marketing Manager
REEF OASIS HOTELS AND RESORTS,Egypt,Cairo,46619,https://navigate.itb.com/company/REEF-OASIS-HOTELS-AND-RESORTS--1216497,Amir Awad,Director of Sales and Marketing
Reethi Faru Resort,Maldives,Male',0000,https://navigate.itb.com/company/Reethi-Faru-Resort--1033880,Parag Kathuria,Director of Sales and Marketing
Regency Salgados Hotel & Spa,Portugal,"Galé, Albufeira",8200-428,https://navigate.itb.com/company/Regency-Salgados-Hotel-Spa--1033898,Mónica Ribeiro,
"Regione Siciliana - Dipartimento del Turismo, dello Sport e dello Spettacolo",Italy,Palermo,90141,https://navigate.itb.com/company/Regione-Siciliana---Dipartimento-del-Turismo-dello-Sport-e-dello-Spettacolo--1037131,Marcello Giacone,Dirigente Responsabile Servizio 11- Aiuti alle Imprese Turistiche
Region of Central Greece,Greece,Lamia,35100,https://navigate.itb.com/company/Region-of-Central-Greece--1007179,Marianna Liaskou,Tourism Officer
Regnum Hotels,Türkiye,Antalya,07500,https://navigate.itb.com/company/Regnum-Hotels--1208760,Çiğdem Kutlu,Marketing Specialist
Reichshof Hamburg,Germany,Hamburg,20099,https://navigate.itb.com/company/Reichshof-Hamburg--1214618,Susanna Struck,Director of Sales & Marketing
Renaissance Bali Uluwatu Resort and Spa,Indonesia,Bali,80364,https://navigate.itb.com/company/Renaissance-Bali-Uluwatu-Resort-and-Spa--1034086,Augustinawati Tandun,Director of Sales and Marketing
Renaissance Wind Creek Aruba Resort,Aruba,Oranjestad,0000,https://navigate.itb.com/company/Renaissance-Wind-Creek-Aruba-Resort--1034092,Janien Huistra,Director of Sales and Marketing
Renaissance Wind Creek Curaçao Resort,Curaçao,Willemstad,0,https://navigate.itb.com/company/Renaissance-Wind-Creek-Curaçao-Resort--1034093,Sander Langeveld,
Reollo Travel,Maldives,Male',000,https://navigate.itb.com/company/Reollo-Travel--1207589,Abdulla Shujau,General Manager
Repräsentanzbüro E Sulzenbacher,Germany,Ottobrunn,85521,https://navigate.itb.com/company/Repräsentanzbüro-E-Sulzenbacher--1004548,Martina Sadilkova,Senior Manager Marketing & PR
REPS Unlimited,Germany,Munich,81371,https://navigate.itb.com/company/REPS-Unlimited--1216615,Carla Cantara-Wiegand,Director – Business Development
Residence Inn by Marriott Sheikh Zayed Road,United Arab Emirates,Dubai,417451,https://navigate.itb.com/company/Residence-Inn-by-Marriott-Sheikh-Zayed-Road--1034141,Nada Khalil,
Agri Resort San Giuliano,Italy,Alghero,07041,https://navigate.itb.com/company/Agri-Resort-San-Giuliano--1216597,Elena Chieregato,Manager
Resort Svata Katerina,Czechia,Praha 2 - Vinohrady,120 00,https://navigate.itb.com/company/Resort-Svata-Katerina--1034157,Jan Benda,
RESTEL S.A,Spain,Madrid,28027,https://navigate.itb.com/company/RESTEL-S-A--1214487,Karima El Hamdioui Bousaid,Events Coordinator
Results Driven Hospitality Services,South Africa,Paarl,7646,https://navigate.itb.com/company/Results-Driven-Hospitality-Services--1204771,Lina Nel,Managing Director
RHODES,Greece,RHODES,85100,https://navigate.itb.com/company/RHODES--1030239,Dionissis TSILIGIRIS,Director of the Tourism Board of Rhodes
R Hotels,United Arab Emirates,Dubai,P.O. Box 118237,https://navigate.itb.com/company/R-Hotels--1033452,Lahcen Elmiftahy,Cluster Director of Sales
Rhulani Safari Lodge,South Africa,North West Province,0,https://navigate.itb.com/company/Rhulani-Safari-Lodge--1215082,Marisa Silva,Owner
Rimske Therme,Slovenia,Rimske Toplice,3272,https://navigate.itb.com/company/Rimske-Therme--1034363,Marko Maze,Sales manager
River Hotels GmbH,Germany,Köln,50679,https://navigate.itb.com/company/River-Hotels-GmbH--1213414,Raphael Dombrowski,Geschäftsführer
Rixos Hotels Egypt,Egypt,Sharm El Sheikh,338,https://navigate.itb.com/company/Rixos-Hotels-Egypt--1034440,Zafer Yavuz,Director of Marketing
Rixos Hotels UAE,United Arab Emirates,Dubai,PO Box 643660,https://navigate.itb.com/company/Rixos-Hotels-UAE--1216221,Christopher Popp,Country Sales Director - UK & WEU
RIYAZ INTERNATIONAL SDN BHD,Malaysia,Petaling Jaya,47400,https://navigate.itb.com/company/RIYAZ-INTERNATIONAL-SDN-BHD--1215754,Faridah Hanim Damanhuri,
R-MAR RESORT AND SPA PATONG PHUKET,Thailand,Phuket,83150,https://navigate.itb.com/company/R-MAR-RESORT-AND-SPA-PATONG-PHUKET--1204713,Siripong Paladsri,RESORT MANAGER
Robin Pope Safaris,Zambia,Mfuwe,80,https://navigate.itb.com/company/Robin-Pope-Safaris--1204799,Genoveva Paringira,Sales and Marketing
ROBINSON Fleesensee,Germany,Göhren-Lebbin,17213,https://navigate.itb.com/company/ROBINSON-Fleesensee--1214862,Felicia Spengemann-Wacht,Marketing Managerin
Robinson Maldives,Maldives,Male',0000,https://navigate.itb.com/company/Robinson-Maldives--1215940,Debraj Chakraborty,Senior Sales Manager
ROBINSON Quinta da Ria,Portugal,Vila Nova de Cacela,8900-057,https://navigate.itb.com/company/ROBINSON-Quinta-da-Ria--1205481,Bernardo Rodrigues,
Rocamar Lido Resort,Portugal,Funchal,9125-039,https://navigate.itb.com/company/Rocamar-Lido-Resort--1216635,Andreia Sousa,
Rocket Uzbekistan,Uzbekistan,Tashkent/Samarkand,100084,https://navigate.itb.com/company/Rocket-Uzbekistan--1207391,Negina Mukhtarova,executive chairman
Rogers Hospitality Operations Ltd,Mauritius,Mapou,31803,https://navigate.itb.com/company/Rogers-Hospitality-Operations-Ltd--1216932,Magalie Brasse,
Rosen Hotels and Resorts,United States of America,Orlando,32819,https://navigate.itb.com/company/Rosen-Hotels-and-Resorts--1034993,Tania McCall,
Rotana Hotels,United Arab Emirates,Dubai,NA,https://navigate.itb.com/company/Rotana-Hotels--1206193,Samar Shamseddin,Director of Sales
Royal Avila Boutique Resort,Indonesia,Lombok Utara,83352,https://navigate.itb.com/company/Royal-Avila-Boutique-Resort--1206341,Trisna Darmadji,Managing Director
ROYAL CAPITAL GROUP JOINT STOCK COMPANY,Vietnam,QUANG NAM,51300,https://navigate.itb.com/company/ROYAL-CAPITAL-GROUP-JOINT-STOCK-COMPANY--1216225,DAI QUANG PHAN,DIRECTOR OF SALES AND MARKETING
Royal Cliff Hotels Group,Thailand,CHONBURI,20150,https://navigate.itb.com/company/Royal-Cliff-Hotels-Group--1035077,Malisa Lutzi,Director of Sales - International
Royal Commission for AlUla,Saudi Arabia,Riyadh,12512-3357,https://navigate.itb.com/company/Royal-Commission-for-AlUla--1035080,Owais Khan,Head of International Markets
ROYAL GROUP HOTELS,Türkiye,ANTALYA,07230,https://navigate.itb.com/company/ROYAL-GROUP-HOTELS--1206145,ali barut,director of sales & marketing
Royal Muang Samui Villas,Thailand,Surat Thani,84320,https://navigate.itb.com/company/Royal-Muang-Samui-Villas--1133565,Ekkachai Bumrung,Assistant Director of Sales
The Royal Sea Aquarium Resort,Curaçao,Willemstad,,https://navigate.itb.com/company/The-Royal-Sea-Aquarium-Resort--1215830,Steffany Ruiz Resendiz,
ROYAL YAO YAI ISLAND BEACH RESORT,Thailand,Phang Nga,83000,https://navigate.itb.com/company/ROYAL-YAO-YAI-ISLAND-BEACH-RESORT--1215577,Bhumibhat Mahahiranwanich,Chief Sales & Marketing Officer
Royal Zanzibar Beach Resort,Tanzania,"North Nungwi,",0,https://navigate.itb.com/company/Royal-Zanzibar-Beach-Resort--1040410,Saleem Jamal,CEO
Ruka Ski Resort,Finland,Rukatunturi,93830,https://navigate.itb.com/company/Ruka-Ski-Resort--1035208,Antti Turunen,
Rural tourism in Estonia,Estonia,Tallinn,10147,https://navigate.itb.com/company/Rural-tourism-in-Estonia--1216404,Raili Mengel,Managing Director
Rusty Blue Belize,Belize,Ladyville,0,https://navigate.itb.com/company/Rusty-Blue-Belize--1213464,Melissa Codd,Owner
SADARA RESORT,Indonesia,BADUNG,80363,https://navigate.itb.com/company/SADARA-RESORT--1035426,Sulistiya Ningsih,Director of Sales & Marketing
SAFARI PARK HOTEL,Kenya,Nairobi,45038-0010,https://navigate.itb.com/company/SAFARI-PARK-HOTEL--1208126,Samson Mwangangi,Assistant Sales & Marketing Manager
Sai Daeng Resort,Thailand,Koh Pha-Ngan,84360,https://navigate.itb.com/company/Sai-Daeng-Resort--1207779,Wilas Senajit,Sales & Marketing Manager
Saigontourist Group,Vietnam,Ho Chi Minh City,700000,https://navigate.itb.com/company/Saigontourist-Group--1035508,Van Do,Sales & Marketing Executive
SALA Samui Choengmon Beach Resort,Thailand,Bangkok,10900,https://navigate.itb.com/company/SALA-Samui-Choengmon-Beach-Resort--1215838,Benjaporn Magroodtong,Group Director of Sales and Marketing
Samui Resotel / Samui Buri,Thailand,Suratthani,84320,https://navigate.itb.com/company/Samui-Resotel-/-Samui-Buri--1035663,ARAYA AO-JAMPA,Director of Sales and Marketing
Sana Hotels,Portugal,Lisboa,1990-173,https://navigate.itb.com/company/Sana-Hotels--1205459,Paulo Monge,
Sanbona Wildlife Reserve & Jock Safari Lodge,South Africa,Montagu,6720,https://navigate.itb.com/company/Sanbona-Wildlife-Reserve-Jock-Safari-Lodge--1035703,Kirsten Van Der Hoven,Sales Executive
Sanctuary Hotels and Resorts,Laos,Luang Prabang,00000,https://navigate.itb.com/company/Sanctuary-Hotels-and-Resorts--1216337,Melissa Woolley,Marketing Director
Sanctuary Retreats,United Kingdom,Cheltenham,GL50 3LG,https://navigate.itb.com/company/Sanctuary-Retreats--1180778,Carolin McLeod,Sales Manager Germany
Sandals Royal Curaçao,Curaçao,Willemstad,0,https://navigate.itb.com/company/Sandals-Royal-Curaçao--1035712,Juliette Thronberens,
SANDOS Hotels & Resorts,Spain,Marratxi /Mallorca,07141,https://navigate.itb.com/company/SANDOS-Hotels-Resorts--1035721,Aixa Iglesias Coma,Directora Comercial
SANDY BEACH HOTEL,Cyprus,LARNACA,7081,https://navigate.itb.com/company/SANDY-BEACH-HOTEL--1208027,JOANNA FLORENTIADOU,GENERAL MANAGER
Sani/Ikos Group Germany Gmbh,Germany,München,80636,https://navigate.itb.com/company/Sani/Ikos-Group-Germany-Gmbh--1216695,Tobias Pflantz,Acting Regional Director Sales & Marketing
Santa´s Hotels,Finland,Rovaniemi,96500,https://navigate.itb.com/company/Santa´s-Hotels--1035785,no name,
Santa Claus Holiday Village,Finland,Rovaniemi,96930,https://navigate.itb.com/company/Santa-Claus-Holiday-Village--1206273,Juhani Ikonen,Hotel Manager
Santhiya Koh Yao Yai Resort & Spa,Thailand,Phang Nga,83000,https://navigate.itb.com/company/Santhiya-Koh-Yao-Yai-Resort-Spa--1206336,Konlachai Sukomol,Deputy Managing Director
Santhiya Resorts and Spas,Thailand,Suratthani,84280,https://navigate.itb.com/company/Santhiya-Resorts-and-Spas--1215978,Charlee Keardkumsap,Group Director of Sales
Santika Indonesia Hotels & Resort,Indonesia,Jakarta,12160,https://navigate.itb.com/company/Santika-Indonesia-Hotels-Resort--1035793,Sudarsana Sudarsana,"Corporate General Manager Bussdev, Sales & Marcomm"
Santikos Collection,Greece,Athens,151 24,https://navigate.itb.com/company/Santikos-Collection--1035795,Konstantinos Santikos,Managing Director
SANTRIAN RESORTS & VILLA,Indonesia,BALI,80228,https://navigate.itb.com/company/SANTRIAN-RESORTS-VILLA--1035802,NI WAYAN YUMERI,CORP. DIRECTOR OF SALES & MARKETING
SAPA JADE HILL HOSPITALITY MANAGEMENT JSC,Vietnam,Lao Cai,840000,https://navigate.itb.com/company/SAPA-JADE-HILL-HOSPITALITY-MANAGEMENT-JSC--1206042,Trung Tran Dinh,Director of Sales & Marketing
Sarana Hotel & Spa - The Victoria Collection,Réunion,Salazie,97433,https://navigate.itb.com/company/Sarana-Hotel-Spa---The-Victoria-Collection--1209211,Mathilde Parassouramin,Revenue Manager
Sarawak Tourism Board,Malaysia,Kuching,93000,https://navigate.itb.com/company/Sarawak-Tourism-Board--1035832,Gustino Basuan,Senior Manager Marketing (Europe & Oceania)
Sarova Hotels Limited,Kenya,Nairobi,00200,https://navigate.itb.com/company/Sarova-Hotels-Limited--1035877,Selina Dima,Leisure Sales Manager
Sava Hotels & Resorts,Slovenia,Ljubljana,1000,https://navigate.itb.com/company/Sava-Hotels-Resorts--1035962,Petra Grabar,Senior Sales Manager
Savoy Group Sharm El Sheikh,Egypt,Sharm Elsheikh,P.O Box 169,https://navigate.itb.com/company/Savoy-Group-Sharm-El-Sheikh--1035977,Safi Salem,Commercial Director Savoy Group Sharm El Sheikh
Savoy Signature Hotels,Portugal,Funchal,9004-542,https://navigate.itb.com/company/Savoy-Signature-Hotels--1035980,Graça Guimarães,
SAYAMA Travel,Thailand,Chonburi,20150,https://navigate.itb.com/company/SAYAMA-Travel--1035994,KATERYNA PACHKOVSKA,Marketing manager
Scandic Hotels,Sweden,Stockholm,113 46,https://navigate.itb.com/company/Scandic-Hotels--1206051,Trond Hauge,"Sales Director, International Leisure Sales"
Sea Beach Aqua Park Resort,Egypt,Sharm El Sheikh,7654,https://navigate.itb.com/company/Sea-Beach-Aqua-Park-Resort--1036340,Mohamed Anwar,Director of sales & Marketing
Sea Cliff Resort & Spa Zanzibar,Tanzania,Zanzibar,0,https://navigate.itb.com/company/Sea-Cliff-Resort-Spa-Zanzibar--1036343,JOELLE MACKARY,GM
SEALIFE GROUP HOTELS,Türkiye,ANTALYA,07230,https://navigate.itb.com/company/SEALIFE-GROUP-HOTELS--1217171,Mutlu COSKUN,
Sea Resorts Hotels,Mauritius,The Vale Grand Baie,0,https://navigate.itb.com/company/Sea-Resorts-Hotels--1206684,Haroun Rajubally,
SEA TRAVEL SOCIETA' DI GESTIONE TURISTICHE,Italy,SASSARI,07100,https://navigate.itb.com/company/SEA-TRAVEL-SOCIETA'-DI-GESTIONE-TURISTICHE--1216596,FRANCESCO BALLARIO,TITOLARE
Secluded Africa,Austria,Vienna,1120,https://navigate.itb.com/company/Secluded-Africa--1215808,Verena Kosnar,Business Development
Segara Village Hotel,Indonesia,Denpasar,80030,https://navigate.itb.com/company/Segara-Village-Hotel--1036474,Ida Bagus Kharisma Wijaya,General Manager
"Seibu Prince Hotels & Resorts, Tokyo",Japan,"Tokyo, Toshimaku, Minamiikebukuro",171-0022,https://navigate.itb.com/company/Seibu-Prince-Hotels-Resorts-Tokyo--1206372,Sae Katakura,
SENATOR HOTELS & RESORTS,Spain,ROQUETAS DE MAR,04740,https://navigate.itb.com/company/SENATOR-HOTELS-RESORTS--1036558,ANTONIO PORTILLA JIMENEZ,Sales Director
Sen Hoang Gia Limited Company,Vietnam,Quang Ninh Province,200000,https://navigate.itb.com/company/Sen-Hoang-Gia-Limited-Company--1215336,Huyen Phan Thi Thanh,DOSM
Sentido Akassia Beach,Egypt,Red Sea,84511,https://navigate.itb.com/company/Sentido-Akassia-Beach--1036600,Wissam Jindy,Vice president & Director of sales & marketing
SERCOTEL,Spain,Barcelona,08036,https://navigate.itb.com/company/SERCOTEL--1205983,Paula Fernández Merino,Regional Sales Manager North & Commercial Planning
Serena Hotels,Kenya,Nairobi,00100,https://navigate.itb.com/company/Serena-Hotels--1036648,James Manyeki,Marketing Manager
Serenity Hospitality Group,Egypt,Hurghada,84651,https://navigate.itb.com/company/Serenity-Hospitality-Group--1206869,Rehame ElHenawy,Group Commercial Director
Serry Beach Resort,Egypt,Hurghada,84511,https://navigate.itb.com/company/Serry-Beach-Resort--1217161,Haitham Hamdy,Director of Sales & Marketing
SET TRAVEL,Spain,Pineda de Mar,08397,https://navigate.itb.com/company/SET-TRAVEL--1204724,FRANK BENDER,Sales Manager
Severin Sea Lodge E.A Ltd,Kenya,Mombasa,80100,https://navigate.itb.com/company/Severin-Sea-Lodge-E-A-Ltd--1215980,Astrid Cantauw,Sales and Marketing Manager
SHAMS HOTELS & RESORTS,Egypt,Cairo,11341,https://navigate.itb.com/company/SHAMS-HOTELS-RESORTS--1036781,Alaaeldin Shalash,Area director of sales & marketing
Shamwari Private Game Reserve,South Africa,Paterson,6130,https://navigate.itb.com/company/Shamwari-Private-Game-Reserve--1036783,Shelley Van Rensburg,Marketing Manager
Shangri-La Bangkok,Thailand,Bangkok,10500,https://navigate.itb.com/company/Shangri-La-Bangkok--1036832,Varaporn Chaihanchanchai,Senior Sales Manager - Leisure
Shangri-La Le Touessrok,Mauritius,Trou d'eau Douce,0,https://navigate.itb.com/company/Shangri-La-Le-Touessrok--1036837,Bernard Ramen,
"SHANGRI-LA RASA SAYANG & SHANGRI-LA GOLDEN SANDS, PENANG",Malaysia,Penang,11100,https://navigate.itb.com/company/SHANGRI-LA-RASA-SAYANG-SHANGRI-LA-GOLDEN-SANDS-PENANG--1217000,Gan Chen Cheak,
Shanti Maurice Resort & Spa,Mauritius,St. Felix,0,https://navigate.itb.com/company/Shanti-Maurice-Resort-Spa--1036843,Brice Pean,
Sharjah National Hotels,United Arab Emirates,Sharjah,5802,https://navigate.itb.com/company/Sharjah-National-Hotels--1036866,Marwa Kamal,Group Director of Sales
"ShellSea Villa Co., Ltd.",Thailand,Krabi,81000,https://navigate.itb.com/company/ShellSea-Villa-Co-Ltd--1040425,Nontawat Manop,Complex Director of Sales & Marketing
Sheraton Jumeirah Beach Resort,United Arab Emirates,Dubai,53567,https://navigate.itb.com/company/Sheraton-Jumeirah-Beach-Resort--1206445,Mohamed Afifi,Director of Sales
Sheraton Maldives Full Moon Resort & Spa,Maldives,Male',0000,https://navigate.itb.com/company/Sheraton-Maldives-Full-Moon-Resort-Spa--1215946,Suzaine Spencer,Director of Sales
"Sheraton Mall of the Emirates Hotel, Dubai",United Arab Emirates,Dubai,"PO Box 450309,",https://navigate.itb.com/company/Sheraton-Mall-of-the-Emirates-Hotel-Dubai--1126245,Suhasini sunder,Cluster Assistant Director of Sales
Sheraton Rhodes Resort / Azora FCR Rhodes SA,Greece,Ixia,85101,https://navigate.itb.com/company/Sheraton-Rhodes-Resort-/-Azora-FCR-Rhodes-SA--1037008,Margarita Boniati,Director of Sales
Sheraton Senggigi Beach Resort,Indonesia,Lombok Barat,83355,https://navigate.itb.com/company/Sheraton-Senggigi-Beach-Resort--1037011,Monika Eviandari,Director of Sales & Marketing
Sheraton Sharjah Beach Resort & Spa,United Arab Emirates,Sharjah,PO Box 79797,https://navigate.itb.com/company/Sheraton-Sharjah-Beach-Resort-Spa--1037012,Irem Celenk,Director of Sales and Marketing
Sheraton Sopot Hotel,Poland,Sopot,81-718,https://navigate.itb.com/company/Sheraton-Sopot-Hotel--1037014,Katarzyna Damer,Corporate Sales Manager
Sherwood & Greenwood Hotels,Türkiye,Aksu/Antalya,07112,https://navigate.itb.com/company/Sherwood-Greenwood-Hotels--1037016,Başak Öngören,Sales&Marketing Representative
"Shiba Park Hotel Co., Ltd.",Japan,Tokyo,1050011,https://navigate.itb.com/company/Shiba-Park-Hotel-Co-Ltd--1037018,Emi Sotome,PR
SHIV VILAS RESORTS PVT LTD,India,JAIPUR,303101,https://navigate.itb.com/company/SHIV-VILAS-RESORTS-PVT-LTD--1037042,RAHUL KAUSHAL,Associate Director of Sales & Marketing
Siddhalepa Ayurveda and Anarva,Sri Lanka,Ratmalana,10370,https://navigate.itb.com/company/Siddhalepa-Ayurveda-and-Anarva--1037141,Ushan Edirisinghe,Senior Marketing Manager
Side Crown Hotels,Türkiye,ANTALYA,07620,https://navigate.itb.com/company/Side-Crown-Hotels--1037144,BENNUR CELEBI,
Side Royal Hotels,Türkiye,Manavgat / Antalya,07600,https://navigate.itb.com/company/Side-Royal-Hotels--1206146,aydogan cetin,general manager
SIDE STAR HOTELS,Türkiye,ANTALYA,07330,https://navigate.itb.com/company/SIDE-STAR-HOTELS--1208481,ONDER CAVDAR,
SİDE SUN HOTELS,Türkiye,ANTALYA,07600,https://navigate.itb.com/company/SİDE-SUN-HOTELS--1216670,BINAY AKSOY,
Silavadee Resort Koh Samui,Thailand,Koh Samui,84310,https://navigate.itb.com/company/Silavadee-Resort-Koh-Samui--1037219,Rommayaporn Moleekul,Director of Sales & Marketing
Silk Path Hotels & Resorts Management Service Company Limited,Vietnam,Hanoi,100000,https://navigate.itb.com/company/Silk-Path-Hotels-Resorts-Management-Service-Company-Limited--1206436,Thuy Nguyen,Chief Business Officer
SILOU LTD,Tanzania,Matemwe,0000,https://navigate.itb.com/company/SILOU-LTD--1216082,Silvana Poulsen,Co-founder
Silver Birch Resort,Finland,Rovaniemi,96200,https://navigate.itb.com/company/Silver-Birch-Resort--1215599,Theodore Turner,
Silvermine Beach Resort,Hong Kong SAR China,"Mui Wo, Lantau Island",000000,https://navigate.itb.com/company/Silvermine-Beach-Resort--1037262,Sandy Lau,Sales & Marketing Manager
Sindhorn Kempinski Hotel Bangkok,Thailand,Bangkok,10330,https://navigate.itb.com/company/Sindhorn-Kempinski-Hotel-Bangkok--1037325,Amonrat Ajsamart,Assistant Director of Sales
Sirru Fen Fushi,Maldives,Male',0000,https://navigate.itb.com/company/Sirru-Fen-Fushi--1215962,Raphaela Reutterer,Director of Sales
Siviti Timbavati Plains (Pty) Ltd.,South Africa,Cape Town,8001,https://navigate.itb.com/company/Siviti-Timbavati-Plains-Pty-Ltd--1206177,Heike Gernholtz,Marketing
SK HOSPITALITY,Greece,Thessaloniki,57001,https://navigate.itb.com/company/SK-HOSPITALITY--1207215,CELINE SPATARO,SALES DIRECTOR
SKIATHOS PALACE - ALKYON HOTEL,Greece,Skiathos,37002,https://navigate.itb.com/company/SKIATHOS-PALACE---ALKYON-HOTEL--1037437,Petros Dervenis,Managing Director
SO/ Bangkok,Thailand,Bangkok,10500,https://navigate.itb.com/company/SO/-Bangkok--1215832,Pichaya Hannarong,Director of Business Development
SO/ Maldives,Maldives,Male',0000,https://navigate.itb.com/company/SO/-Maldives--1215892,Kapil Mathur,DOSM
SO City Hotel,Malta,St. Julians,STJ 3200,https://navigate.itb.com/company/SO-City-Hotel--1216384,Alexander Falzon,General Manager
Sofitel Bahrain Zallaq Thalassa Sea & Spa,Bahrain,ZALLAQ,0,https://navigate.itb.com/company/Sofitel-Bahrain-Zallaq-Thalassa-Sea-Spa--1208534,KHALID HASSAN,DIRECTOR OF SALES
Sofitel Cairo Nile El Gezirah Hotel,Egypt,Cairo,11518,https://navigate.itb.com/company/Sofitel-Cairo-Nile-El-Gezirah-Hotel--1037807,Mohamed Fawzy,
Sofitel Dubai Downtown,United Arab Emirates,Dubai,00000,https://navigate.itb.com/company/Sofitel-Dubai-Downtown--1037809,Andjela Ivanovic,Sales Manager - Leisure
Sofitel Dubai Jumeirah Beach,United Arab Emirates,Dubai,473828,https://navigate.itb.com/company/Sofitel-Dubai-Jumeirah-Beach--1037810,Albert Meow,Director of Sales & Marketing
Sofitel Dubai The Obelisk (Br of Wafi Hotels LLC ),United Arab Emirates,Dubai,0,https://navigate.itb.com/company/Sofitel-Dubai-The-Obelisk-Br-of-Wafi-Hotels-LLC---1216219,Mohamed Ashour,Director of Sales
SOFITEL KIA ORA MOOREA BEACH RESORT,French Polynesia,MAHAREPA MOOREA,98728,https://navigate.itb.com/company/SOFITEL-KIA-ORA-MOOREA-BEACH-RESORT--1215844,Heikura Vaxelaire,DIRECTOR OF SALES MARKETING AND DISTRIBUTION
Sofitel Kia Ora Moorea Beach Resort & Hotel Kia Ora Resort & Spa Rangiroa,French Polynesia,Moorea,98728,https://navigate.itb.com/company/Sofitel-Kia-Ora-Moorea-Beach-Resort-Hotel-Kia-Ora-Resort-Spa-Rangiroa--1206764,Erwan LY,Global Sales Representative Europe
Sofitel Krabi Phokeethra Golf & Spa Resort,Thailand,Krabi,81180,https://navigate.itb.com/company/Sofitel-Krabi-Phokeethra-Golf-Spa-Resort--1037816,Walaiporn Buapakham,Director of Sales
Sofitel Mauritius Imperial Resort & Spa/So Mauritius,Mauritius,Flic en Flac,0,https://navigate.itb.com/company/Sofitel-Mauritius-Imperial-Resort-Spa/So-Mauritius--1037817,Ludmila Keetarut,
"Sokos Hotels Oulu, Rovaniemi & Levi",Finland,Oulu,90400,https://navigate.itb.com/company/Sokos-Hotels-Oulu-Rovaniemi-Levi--1215607,Henriikka Riipi,
SOL by Meliã Phu Quoc,Vietnam,Phu Quoc,922200,https://navigate.itb.com/company/SOL-by-Meliã-Phu-Quoc--1037863,Thi Ngoc Minh Tran,Director of Sales and Marketing
Sonesta St. George Hotel Luxor & Luxury Nile Cruises,Egypt,Cairo,13116,https://navigate.itb.com/company/Sonesta-St--George-Hotel-Luxor-Luxury-Nile-Cruises--1037964,Tarek Ibrahim,DIRECTOR OF SALES & MARKETING
"Sopa Lodge, Kenya / Tanzania",Kenya,Nairobi,00200,https://navigate.itb.com/company/Sopa-Lodge-Kenya-/-Tanzania--1215318,Rosemary Muthoni Kuria,Director of Sales
SOUTHERN PALMS BEACH RESORT LTD,Kenya,MOMBASA,363-80400,https://navigate.itb.com/company/SOUTHERN-PALMS-BEACH-RESORT-LTD--1208153,SALEEM JAMAL,CHAIRMAN
Southern Sun,South Africa,Johannesburg,2021,https://navigate.itb.com/company/Southern-Sun--1216927,Carmen Cipriani,Sales Manager
"Spirit Hotel Thermal Spa ****superior, Sárvár / Spirit Hotel Kft.",Hungary,Sárvár,9600,https://navigate.itb.com/company/Spirit-Hotel-Thermal-Spa-****superior-Sárvár-/-Spirit-Hotel-Kft--1038216,Judit Barton,Director of Sales
Splash Beach Resort,Thailand,Phuket,83110,https://navigate.itb.com/company/Splash-Beach-Resort--1204711,Chatuporn Srisoi,Assistant Director of Sales & Marketing
SPM HOTELS,French Polynesia,Papeete,98713,https://navigate.itb.com/company/SPM-HOTELS--1215038,Maurizio MAGGI,Senior Consultant Hospitality
ST. GEORGE BEACH & SPA HOTEL,Cyprus,PAPHOS,8063,https://navigate.itb.com/company/ST--GEORGE-BEACH-SPA-HOTEL--1216125,MICHALIS TSANGARIS,SALES & MARKETING MANAGER
St. Martins Therme & Lodge/Therme Seewinkel Betriebsgesellschaft m.b.H.,Austria,Frauenkirchen,7132,https://navigate.itb.com/company/St--Martins-Therme-Lodge/Therme-Seewinkel-Betriebsgesellschaft-m-b-H--1214719,Thomas Vlk,Sales Manager
ST. RAPHAEL HOTEL,Cyprus,LIMASSOL,3308,https://navigate.itb.com/company/ST--RAPHAEL-HOTEL--1207338,PRODROMOS CHAMBOULIDES,SALES & MARKETING MANAGER
Sales & Marketing Manager,Cyprus,Limassol,4533,https://navigate.itb.com/company/Sales-Marketing-Manager--1149459,Omiros Omirou,Business Development Manager
Stanford Hotels,Hong Kong SAR China,Kowloon,0,https://navigate.itb.com/company/Stanford-Hotels--1216662,Yvonne Hsu,Director of Sales and Marketing
StayUpon Hospitality Group,Portugal,Lisboa,1250-140,https://navigate.itb.com/company/StayUpon-Hospitality-Group--1038573,Heinrich Tontur,
Steigenberger Nile Palace Hotel and Convention Center,Egypt,Luxor,85111,https://navigate.itb.com/company/Steigenberger-Nile-Palace-Hotel-and-Convention-Center--1216490,Omar Youssef,Hotel Manager
STELLA BEACH SA,Greece,Heraklion,70014,https://navigate.itb.com/company/STELLA-BEACH-SA--1207028,Vicky Maltabe,Executive Director
Stella Di Mare Hotels & Resorts,Egypt,Cairo,1354,https://navigate.itb.com/company/Stella-Di-Mare-Hotels-Resorts--1038633,Bassem Maurice,Regional Commercial Director – Egypt & UAE
Stone Group,Türkiye,Antalya,07200,https://navigate.itb.com/company/Stone-Group--1207548,Uğur Ecel,Director of Sales & Marketing
STORY Seychelles & Fisherman's Cove,Seychelles,Beau Vallon Beach,1626,https://navigate.itb.com/company/STORY-Seychelles-Fisherman's-Cove--1038752,Nives Deininger,
Strand Palace Hotel London,United Kingdom,London,WC2R 0JJ,https://navigate.itb.com/company/Strand-Palace-Hotel-London--1215774,Pavan Soni,Cluster Commercial Director
Strawberry,Sweden,Stockholm,169 56,https://navigate.itb.com/company/Strawberry--1216189,Carl Clazon,Strategic Distribution Manager • International Leisure Sales
Strawberry Finland,Finland,Helsinki,00130,https://navigate.itb.com/company/Strawberry-Finland--1205436,Anton Martikainen,
STRAWBERRY PARK RESORT,Malaysia,Tana Rata,39000,https://navigate.itb.com/company/STRAWBERRY-PARK-RESORT--1038792,Hon Ai Wee,Director of Sales
Sts. Constantine and Helena Resort,Bulgaria,"Varna, Sts. Constantine and Helena Resort",9006,https://navigate.itb.com/company/Sts--Constantine-and-Helena-Resort--1038825,Kristina Krasteva,PR & Events manager
Sudamala Resorts,Indonesia,Denpasar,80227,https://navigate.itb.com/company/Sudamala-Resorts--1205136,I Wayan Suwastana,Commercial Director
Sunbird Hotels & Resorts,Malawi,Blantyre,0000,https://navigate.itb.com/company/Sunbird-Hotels-Resorts--1038980,Temwa Kanjadza,"Head Of Sales, Marketing & Distribution"
Sunborn Hotels & Restaurants,Finland,Turku,20100,https://navigate.itb.com/company/Sunborn-Hotels-Restaurants--1038982,Marianne Hildén,
Sunday Morning Collection (by Experience Pyhä),Finland,Pyhätunturi,98530,https://navigate.itb.com/company/Sunday-Morning-Collection-by-Experience-Pyhä--1215619,Outi Huovinen,
Sun Destinations,South Africa,Cape Town,7945,https://navigate.itb.com/company/Sun-Destinations--1038957,Mallory Kuyk-Michaels,Head of Operations
Sunis Hotels,Türkiye,Antalya,07050,https://navigate.itb.com/company/Sunis-Hotels--1039009,Ali Kaygısız,Sales & Marketing Director
Sunlife Hotel Management Ltd.,Mauritius,Ebene,0,https://navigate.itb.com/company/Sunlife-Hotel-Management-Ltd--1206675,Michaela Fuhrmann,
Sunny Days Hotels & Resorts,Egypt,Hurghada,3795,https://navigate.itb.com/company/Sunny-Days-Hotels-Resorts--1039015,Ahmed Emam,Director of Sales And Marketing
SUNRISE HOTELS,Cyprus,AMMOCHOSTOS,5296,https://navigate.itb.com/company/SUNRISE-HOTELS--1039025,Yiota Kyprianou,Administration Officer
SUNRISE Resorts & Cruises,Egypt,Giza,21335,https://navigate.itb.com/company/SUNRISE-Resorts-Cruises--1039029,Ranya Ibrahim,Personal assistant
Sunrose 7 & Bohinj Eco Hotel,Slovenia,Bohinjska  Bistrica,4264,https://navigate.itb.com/company/Sunrose-7-Bohinj-Eco-Hotel--1005630,Jana Pekovec,Sales manager
Sun Siyam Resorts,Maldives,Male',0000,https://navigate.itb.com/company/Sun-Siyam-Resorts--1038969,Athina Esteban,Business Development Office Manager
Supreme Hotel,Albania,Kavaje,2504,https://navigate.itb.com/company/Supreme-Hotel--1208648,Jurgen Arapi,Sales Manager
Susesi Luxury Resort,Türkiye,antalya,07450,https://navigate.itb.com/company/Susesi-Luxury-Resort--1039112,onur goktekin,sales manager
Suskwe Resort Centre,Zimbabwe,Mutoko,N/A,https://navigate.itb.com/company/Suskwe-Resort-Centre--1216939,Wilbert Nyamakope,General Manager
Sutera Sanctuary Lodges,Malaysia,Kota Kinabalu,88100,https://navigate.itb.com/company/Sutera-Sanctuary-Lodges--1215764,Amy Yong Li Hui,
SWANDOR HOTELS & RESORTS,Türkiye,ANTALYA,07000,https://navigate.itb.com/company/SWANDOR-HOTELS-RESORTS--1039166,TUGBA KULA,UK & Eastern Europe Market Manager
Swiss Diamond Hotel sh.p.k,Kosovo,Prishtina,10000,https://navigate.itb.com/company/Swiss-Diamond-Hotel-sh-p-k--1216529,Fitore Pacolli,Menager
SWISS GARDEN HOTEL BUKIT BINTANG,Malaysia,Kuala Lumpur,55100,https://navigate.itb.com/company/SWISS-GARDEN-HOTEL-BUKIT-BINTANG--1207134,Leong Yee Wun,
Swiss inn Dahab Resort,Egypt,Dahab,+202,https://navigate.itb.com/company/Swiss-inn-Dahab-Resort--1216498,Waleed Waly,Director Of Sales
"Swissotel The Bosphorus, Istanbul",Türkiye,Istanbul,34357,https://navigate.itb.com/company/Swissotel-The-Bosphorus-Istanbul--1039231,TUGCE UGRASAN,
SWOT HOSPITALITY,Greece,Athens,10673,https://navigate.itb.com/company/SWOT-HOSPITALITY--1216537,AIKATERINI MAMIDAKI,Director
SWOT HOSPITALITY S.A,Greece,Athens,10673,https://navigate.itb.com/company/SWOT-HOSPITALITY-S-A--1216576,AIKATERINI MAMIDAKI,Director
"Taba Heights, South Sinai",Egypt,Cairo,11221,https://navigate.itb.com/company/Taba-Heights-South-Sinai--1039351,Hania Teima,
Tahko Spa Oy,Finland,Tahkovuori,73310,https://navigate.itb.com/company/Tahko-Spa-Oy--1215622,Saga iinatti,
"Taj Exotica Resort & Spa, The Palm, Dubai",United Arab Emirates,Dubai,566737,https://navigate.itb.com/company/Taj-Exotica-Resort-Spa-The-Palm-Dubai--1216232,Saad Zahid,Director of Sales
Taleni Africa Tourism Collection,Namibia,Windhoek,10017,https://navigate.itb.com/company/Taleni-Africa-Tourism-Collection--1213855,Christelle Du Toit-Oosthuizen,Director
Tanganyika Wilderness Camps,Tanzania,Arusha,0000,https://navigate.itb.com/company/Tanganyika-Wilderness-Camps--1039481,Nuria Panizo,Sales Director
Tangerine Beach Hotels PLC,Sri Lanka,Colombo 03,00300,https://navigate.itb.com/company/Tangerine-Beach-Hotels-PLC--1039483,Nadeem Lebbe,"Head of contracts , Marketing and E- Commerce"
Tara Hotel,Montenegro,Budva,85310,https://navigate.itb.com/company/Tara-Hotel--1216519,Natasa Djukanovic,Sales Manager
Tashereef,Egypt,Cairo,11522,https://navigate.itb.com/company/Tashereef--1208717,Medhat Zaki,Marketing Director
Technik Museen Sinsheim Speyer,Germany,Sinsheim,74889,https://navigate.itb.com/company/Technik-Museen-Sinsheim-Speyer--1167482,Christina Lotz,Sales Manager
TE MOANA TAHITI RESORT,French Polynesia,PUNAAUIA - ISLAND OF TAHITI,98703,https://navigate.itb.com/company/TE-MOANA-TAHITI-RESORT--1206763,Vincent Guérin,Account Director
Temple Tiger Group of Companies,Nepal,Kathmandu,3968,https://navigate.itb.com/company/Temple-Tiger-Group-of-Companies--1127484,Rita J Pradhan,CEO
Temple Tree (Pvt) Ltd,Sri Lanka,Induruwa,80510,https://navigate.itb.com/company/Temple-Tree-Pvt-Ltd--1215733,H.L.D Roshan,Director Sales & Marketing
Terme Čatež d.d.,Slovenia,Brezice,8250,https://navigate.itb.com/company/Terme-Čatež-d-d--1039913,Roman Cvetkovic,Sales Manager - foreign markets
Terme Krka,Slovenia,Novo mesto,8000,https://navigate.itb.com/company/Terme-Krka--1039915,Natasa Mihajlovic Grubisa,Head of Sales and Marketing
Terme Vivat Moravske Toplice,Slovenia,Moravske Toplice,9226,https://navigate.itb.com/company/Terme-Vivat-Moravske-Toplice--1039918,Mateja Gibicar Aksoy,Marketing
Terme Zreče & Wander Resort Rogla,Slovenia,Zrece,3214,https://navigate.itb.com/company/Terme-Zreče-Wander-Resort-Rogla--1039920,Polonca Zorko,Verkaufsberaterin
THANOS HOTELS & RESORTS,Cyprus,PAPHOS,CY 66006,https://navigate.itb.com/company/THANOS-HOTELS-RESORTS--1206377,Stephanie Christodoulidou,Sales Manager Leisure
THB Hotels,Spain,Ca'n Picafort,07458,https://navigate.itb.com/company/THB-Hotels--1040090,Juan Carlos Miralles,
The Albatroz Hotel,Portugal,Cascais,2750-353,https://navigate.itb.com/company/The-Albatroz-Hotel--1040098,Carolina Harterink,
The Apurva Kempinski Bali,Indonesia,Kuta Selatan,80361,https://navigate.itb.com/company/The-Apurva-Kempinski-Bali--1040104,Wayan Widhiarsa,Director of Sales
The Bayete Collection,Zimbabwe,Victoria falls,0000,https://navigate.itb.com/company/The-Bayete-Collection--1040116,Lauren Johnson,Marketing
The Beautique Hotels,Portugal,Lisboa,1100-241,https://navigate.itb.com/company/The-Beautique-Hotels--1040117,João Tavares,
The Begin Hotels,Italy,Rome,00165,https://navigate.itb.com/company/The-Begin-Hotels--1217134,Corinne Savarese,Corporate Sales Executive
The Bellevue Hotels and Resorts,Philippines,Bohol,6340,https://navigate.itb.com/company/The-Bellevue-Hotels-and-Resorts--1216354,June Kelly Chan,Group Director of Busineas Development
the b hotels (Ishin Hotels Group),Japan,"Chuo-ku, Tokyo",104-0061,https://navigate.itb.com/company/the-b-hotels-Ishin-Hotels-Group--1022083,Satoru Mochida,Director of sales and reservations
THE BOHOCLUB SL,Spain,Marbella,29602,https://navigate.itb.com/company/THE-BOHOCLUB-SL--1216903,Eva Lozano Cervan,Senior Sales Manager
The Capitol Kempinski Hotel Singapore,Singapore,Singapore,178906,https://navigate.itb.com/company/The-Capitol-Kempinski-Hotel-Singapore--1040136,Adeline Loh,
The Cocoon Collection,Maldives,Male,20026,https://navigate.itb.com/company/The-Cocoon-Collection--1040153,Thoha Ali,Director of Sales & Marketing
The Coral Executive Lounge Thailand,Thailand,Phuket,83110,https://navigate.itb.com/company/The-Coral-Executive-Lounge-Thailand--1215626,NAPASSANAN SUPSOONTHORNKUL,Assistant to Managing Director
The First Group Hospitality,United Arab Emirates,Dubai,215373,https://navigate.itb.com/company/The-First-Group-Hospitality--1040191,Desy Darmawan,Sales Manager
The Fortress Resort and Spa,Sri Lanka,Galle,80630,https://navigate.itb.com/company/The-Fortress-Resort-and-Spa--1214464,R.M. Chinthana K. Bandara,General Manager
The Funny Lion,Philippines,Taguig,1635,https://navigate.itb.com/company/The-Funny-Lion--1040202,Katalene Ross Agmata,Chief of Strategy
The Haadtien Beach Resort,Thailand,Bangkok,10110,https://navigate.itb.com/company/The-Haadtien-Beach-Resort--1206572,Pornrawin Runkerd,Director of Sales
THE INDIAN HOTELS COMPANY LIMITED (TAJ),India,Mumbai,400 001,https://navigate.itb.com/company/THE-INDIAN-HOTELS-COMPANY-LIMITED-TAJ--1040258,Azmin Siganporia,Area Director of Travel Industry Sales- International
The Julius Prague,Czechia,Praha 1 - Nové Město,110 00,https://navigate.itb.com/company/The-Julius-Prague--1216383,Katerina Oman,
THE KAYON HOTELS & RESORTS,Indonesia,Gianyar,80571,https://navigate.itb.com/company/THE-KAYON-HOTELS-RESORTS--1207830,I WAYAN SUCITRA,CEO
THE KINGDOM OF ESWATINI,Eswatini,MBABANE,H101,https://navigate.itb.com/company/THE-KINGDOM-OF-ESWATINI--1040276,HENRIETTA MDLULI,CUSTOMER LIAISON OFFICER
"The Laguna, a Luxury Collection Resort & Spa, Nusa Dua, Bali",Indonesia,Bali,80363,https://navigate.itb.com/company/The-Laguna-a-Luxury-Collection-Resort-Spa-Nusa-Dua-Bali--1214873,Yomi Octania,Senior Sales Manager
The Land of Legends,Türkiye,Antalya,07525,https://navigate.itb.com/company/The-Land-of-Legends--1100073,Meriç Gönülal,Marketing Director
The Lind Boracay,Philippines,Quezon,1110,https://navigate.itb.com/company/The-Lind-Boracay--1208113,Verniza Geronga,Director of Sales
The Long Beach Resort (Pvt) Ltd,Sri Lanka,Kohuwala,10250,https://navigate.itb.com/company/The-Long-Beach-Resort-Pvt-Ltd--1040294,Jeewa Kumara Pathirana,Head of Sales & Marketing
The Lovina Bali Resort,Indonesia,Buleleng,81119,https://navigate.itb.com/company/The-Lovina-Bali-Resort--1040295,Robert Stahl,Owner
The Lux Collective,France,PARIS,75009,https://navigate.itb.com/company/The-Lux-Collective--1040296,Marie Bichelot,"Sales, Marketing & Event Manager"
The Mora Zanzibar,Tanzania,Zanzibar,0,https://navigate.itb.com/company/The-Mora-Zanzibar--1217065,Ahmed Riad,CEO
The Nai Harn Phuket,Thailand,Phuket,83130,https://navigate.itb.com/company/The-Nai-Harn-Phuket--1206342,Frank Grassmann,General Manager
The Nanee,Nepal,Kathmandu Valley,44800,https://navigate.itb.com/company/The-Nanee--1215821,Shailaja Pradhanang,Executive Director
The Nuwaraeliya Hotels Company PLC,Sri Lanka,Colombo 03,00300,https://navigate.itb.com/company/The-Nuwaraeliya-Hotels-Company-PLC--1214532,Nadeem Lebbe,"Head of contracts , Marketing and E- Commerce"
Theofilos Chalkiadakis SA - Cactus Hotels,Greece,Stalis,GR 70007,https://navigate.itb.com/company/Theofilos-Chalkiadakis-SA---Cactus-Hotels--1208837,Nikos Chalkiadakis,CEO
"The Osaka Station Hotel, Autograph Collection",Japan,Osaka,530-0001,https://navigate.itb.com/company/The-Osaka-Station-Hotel-Autograph-Collection--1215564,Fumiya Igarashi,Director of Sales
The Paul JohnResorts & Hotels,India,Bangalore,560071,https://navigate.itb.com/company/The-Paul-JohnResorts-Hotels--1152223,Shelley Thayil,Chief Operating Officer
The Payogan Villa Resort and Spa Ubud,Indonesia,Gianyar,80571,https://navigate.itb.com/company/The-Payogan-Villa-Resort-and-Spa-Ubud--1216191,Agus P Permana Widura,Managing Director
The Polish Hotel Holding Group,Poland,Warsaw,02-148,https://navigate.itb.com/company/The-Polish-Hotel-Holding-Group--1217156,Tomasz Zubek,Sales Director
The Postcard Hotel,India,Gurgaon,122002,https://navigate.itb.com/company/The-Postcard-Hotel--1207435,Anshul Minocha,Deputy Vice President Sales
The ResDest Portfolio,Namibia,Windhoek,10005,https://navigate.itb.com/company/The-ResDest-Portfolio--1213484,Margo Bishop,Owner and Representative
The Residence Maldives,Maldives,Male',0000,https://navigate.itb.com/company/The-Residence-Maldives--1207669,Wendy Wok,Cluster Director of Marketing
The Residence Mauritius,Mauritius,Belle Mare,0,https://navigate.itb.com/company/The-Residence-Mauritius--1207862,Amanda Darmalingum,
"The Rif at Mangrove Beach Corendon Curaçao All-Inclusive, Curio by Hilton",Curaçao,Willemstad,0,https://navigate.itb.com/company/The-Rif-at-Mangrove-Beach-Corendon-Curaçao-All-Inclusive-Curio-by-Hilton--1026220,Ashari Mendes Neves,
"The Ritz-Carlton, Aruba and The St. Regis Aruba Resort",Aruba,Noord,0000,https://navigate.itb.com/company/The-Ritz-Carlton-Aruba-and-The-St--Regis-Aruba-Resort--1215013,Mirem Ubarri,Multi-Property Director of Sales & Marketing
"THE RITZ-CARLTON, BAHRAIN",Bahrain,MANAMA,0,https://navigate.itb.com/company/THE-RITZ-CARLTON-BAHRAIN--1207187,MICHAEL MOUNIR,
The Royal Pita Maha,Indonesia,Gianyar,80571,https://navigate.itb.com/company/The-Royal-Pita-Maha--1040404,I Wayan Pande Sutawan,Corporate General Manager
The Royal Senchi Hotel & Resort,Ghana,Senchi,00233,https://navigate.itb.com/company/The-Royal-Senchi-Hotel-Resort--1214696,Emmanuel kojo Mensah,Deputy General Manager
The Salil Hotel Riverside Bangkok,Thailand,Bangkok,10120,https://navigate.itb.com/company/The-Salil-Hotel-Riverside-Bangkok--1206345,Kullapranee Sawareephol,Vice President Commercial
THE SEMINYAK BEACH RESORT & SPA,Indonesia,BADUNG,80361,https://navigate.itb.com/company/THE-SEMINYAK-BEACH-RESORT-SPA--1040418,GEDE NGURAH GIRISUTA,SENIOR SALES MANAGER
The Soaltee Hotels & Resorts,Nepal,Kathmandu,44600,https://navigate.itb.com/company/The-Soaltee-Hotels-Resorts--1037735,Harish Kumar Bhatt,Director of Sales & Marketing
"The Standard, Hua Hin",Thailand,Prachuap Khiri Khan,77110,https://navigate.itb.com/company/The-Standard-Hua-Hin--1215836,Sukanya Viriyathanaporn,Director of Sales and Marketing
The Standard/ Huruvalhi Maldives,Maldives,Huruvalhi Island,00,https://navigate.itb.com/company/The-Standard/-Huruvalhi-Maldives--1216862,Lijo John,Commercial Director
The Twin Towers Hotel Bangkok,Thailand,Bangkok,10330,https://navigate.itb.com/company/The-Twin-Towers-Hotel-Bangkok--1206554,Athitaya Sangrattanatongkum,Cluster Director Of Sales and Marketing
THE UBUD VILLAGE,Indonesia,"Gianyar, Bali",80571,https://navigate.itb.com/company/THE-UBUD-VILLAGE--1040457,Adit Pande,Managing Director
The Victoria Falls Hotel,Zimbabwe,Victoria Falls,P.O. Box 10,https://navigate.itb.com/company/The-Victoria-Falls-Hotel--1040462,Faith Mwale,Sales Manager
The Vijitt Resort Phuket,Thailand,Phuket,83130,https://navigate.itb.com/company/The-Vijitt-Resort-Phuket--1040465,Kanokkorn Pruksakit,Director of Sales and Marketing
The Westin Maldives Miriandhoo Resort,Maldives,Male',0000,https://navigate.itb.com/company/The-Westin-Maldives-Miriandhoo-Resort--1215888,Kiymet Alimci,Director of Sales & Marketing
The Westin Resort & SPA Ubud Bali,Indonesia,"Ubud, Bali",80571,https://navigate.itb.com/company/The-Westin-Resort-SPA-Ubud-Bali--1040480,Johanes Lie,Director Of Sales & Marketing
The Westin Resort Nusa Dua Bali,Indonesia,Badung,80363,https://navigate.itb.com/company/The-Westin-Resort-Nusa-Dua-Bali--1040483,Ng Choi Choi,Director of Sales & Marketing
Thien Minh Travel Joint Stock Company,Vietnam,Hà Nội,10000,https://navigate.itb.com/company/Thien-Minh-Travel-Joint-Stock-Company--1040544,Anh Le,Brand Marketing Manager
Thokozani Wines & Hospitality,South Africa,Cape Town,7654,https://navigate.itb.com/company/Thokozani-Wines-Hospitality--1217031,Denise Belinda Stubbs,Director
Three Corners Hotels and Resorts,Egypt,Nasr City,4450113,https://navigate.itb.com/company/Three-Corners-Hotels-and-Resorts--1103207,Nader Adly,Regional Director of Sales and Marketing
Three Corners Hotels and resorts,Egypt,Cairo,4450113,https://navigate.itb.com/company/Three-Corners-Hotels-and-resorts--1216489,Nader Adly,Regional Director of Sales and Marketing
TITANIC HOTELS,Türkiye,Antalya,07100,https://navigate.itb.com/company/TITANIC-HOTELS--1040725,Tarik Egemen,
TOA HOTEL AND SPA ZANZIBAR,Tanzania,Zanzibar,2516,https://navigate.itb.com/company/TOA-HOTEL-AND-SPA-ZANZIBAR--1040783,Sega Igenge,Marketing
TOAN HUNG NHA TRANG COMPANY (ALIBU RESORT NHA TRANG),Vietnam,KHANH HOA,650000,https://navigate.itb.com/company/TOAN-HUNG-NHA-TRANG-COMPANY-ALIBU-RESORT-NHA-TRANG--1216226,MAI THI NGOC KIEU,DIRECTOR OF SALES
Ducale Hotels – Ducale Lara,Türkiye,Antalya,07110,https://navigate.itb.com/company/Ducale-Hotels-Ducale-Lara--1211996,Asuman Karaagac,Sales & Marketing Manager
"Tongxiang Puyuan Tourism Co., Ltd.",China,Puyuan,314502,https://navigate.itb.com/company/Tongxiang-Puyuan-Tourism-Co-Ltd--1214271,Yang Li,
Topas Ecolodge,Vietnam,Sa Pa,33000,https://navigate.itb.com/company/Topas-Ecolodge--1216145,THI THANH LOAN NGUYEN,Director of Sales
Topas Travel,Vietnam,Hanoi,10000,https://navigate.itb.com/company/Topas-Travel--1216146,Kim Ngan Nguyen,Sales Manager
Tourism Infratructure and Enterprise Zone Authority,Philippines,Pasay,1302,https://navigate.itb.com/company/Tourism-Infratructure-and-Enterprise-Zone-Authority--1216355,Maria Isabel Martinez,Supervising Marketing Specialist
Tourmind Corp Limited,China,HK,999077,https://navigate.itb.com/company/Tourmind-Corp-Limited--1214239,Bella He,Business Development Manager
TransMékong,Vietnam,Cần Thơ,94110,https://navigate.itb.com/company/TransMékong--1041471,Benoit Perdu,DGM
Travco Corporation Ltd,United Kingdom,London,EC2A 4UX,https://navigate.itb.com/company/Travco-Corporation-Ltd--1041511,Claudia Speetzen,Hotel Department Regional Manager - Germany
Travco Group International,Egypt,Egypt,12588,https://navigate.itb.com/company/Travco-Group-International--1206850,sylvia joseph george,
Travel Exclusive Asia,Thailand,Bangkok,10500,https://navigate.itb.com/company/Travel-Exclusive-Asia--1206555,Andre van der Marck,CEO
Travel Promoters,United Kingdom,Pulborough,RH20 3HD,https://navigate.itb.com/company/Travel-Promoters--1207673,Ailsa Tavares,Managing Director
TREND TOURISTIC SERVICES,Greece,HERAKLION,71303,https://navigate.itb.com/company/TREND-TOURISTIC-SERVICES--1157573,Nantia Kalogeraki,Contract Manager
TRENDY HOTEL,Türkiye,ANTALYA,07112,https://navigate.itb.com/company/TRENDY-HOTEL--1041710,SERKAN KARGINER,SALES AND MARKETING DIRECTOR
Tristar Hotelgruppe / Tristar Austria GmbH,Austria,Wien,1010,https://navigate.itb.com/company/Tristar-Hotelgruppe-/-Tristar-Austria-GmbH--1205468,Stella Lakits,Leisure & MICE Sales Manager
Tropical Island Management GmbH,Germany,Krausnick-Groß Wasserburg,15910,https://navigate.itb.com/company/Tropical-Island-Management-GmbH--1041860,Chris Probst,Key Account Manager Schools & Groups
Tropitel Hotels & Resorts,Egypt,Cairo,11341,https://navigate.itb.com/company/Tropitel-Hotels-Resorts--1041875,Nevien Naguib,Executive Secretary
TRUSTED DMC,Vietnam,Hanoi,100000,https://navigate.itb.com/company/TRUSTED-DMC--1041907,Linh Tuan Nguyen,CEO - Managing Director
Tschuggen Collection AG,Switzerland,Zürich,8032,https://navigate.itb.com/company/Tschuggen-Collection-AG--1216525,Ryan Imboden,
Part Owner / Marketing,South Africa,Storms River,6308,https://navigate.itb.com/company/Part-Owner-/-Marketing--1216831,Anita Lennox,CEO
TURACO COLLECTION,Tanzania,DAR ES SALAAM,0,https://navigate.itb.com/company/TURACO-COLLECTION--1042029,FLORENZO KIRAMBATA,DIRECTOR
Turim Hotels,Portugal,Lisboa,1150-129,https://navigate.itb.com/company/Turim-Hotels--1205396,Luis Santos,
Tüyap Palas Hotel,Türkiye,ISTANBUL,34500,https://navigate.itb.com/company/Tüyap-Palas-Hotel--1216711,MERVE DEMIR,
Twin Lotus Resort & Spa,Thailand,Krabi,81150,https://navigate.itb.com/company/Twin-Lotus-Resort-Spa--1042153,Mali Boonpektrakul,Director of Sales & Marketing
Two Seasons Hotel & Apartments,United Arab Emirates,Dubai,502222,https://navigate.itb.com/company/Two-Seasons-Hotel-Apartments--1206659,Ayman Arikat,Director of Sales and Revenue
UDS GROUP OF HOTELS,India,Trivandrum,695527,https://navigate.itb.com/company/UDS-GROUP-OF-HOTELS--1216839,Guru Prasad,Head Corporate Communication
UESO PANTANAL TOURS,Brazil,Mato Grosso,78175-000,https://navigate.itb.com/company/UESO-PANTANAL-TOURS--1216004,Sonia Schlatter,
Uganda Hotel Owners Association,Uganda,Kampala,33772,https://navigate.itb.com/company/Uganda-Hotel-Owners-Association--1217175,Susan Muhwezi,Chairlady
UGANDA HOTEL OWNERS ASSOCIATION.,Uganda,Kampala,33772,https://navigate.itb.com/company/UGANDA-HOTEL-OWNERS-ASSOCIATION--1207201,JEANNE BYAMUGISHA,EXECUTIVE DIRECTOR
Ukino Hotels,Portugal,Lisboa,1000-117,https://navigate.itb.com/company/Ukino-Hotels--1216645,Yolanda Mata,
Umodzi Park Resorts,Malawi,Lilongwe,000,https://navigate.itb.com/company/Umodzi-Park-Resorts--1214034,Grey Jumali,Sales & Marketing Manager
Umweltbundesamt,Germany,Dessau-Roßlau,06844,https://navigate.itb.com/company/Umweltbundesamt--1214949,Melanie Melanie Mausolf,Junior Manager Kommunikation & Marketing
UNA HOTELS T HOTEL CAGLIARI,Italy,CAGLIARI,09131,https://navigate.itb.com/company/UNA-HOTELS-T-HOTEL-CAGLIARI--1216598,CARMINE AIEZZA,Direttore Generale
Unembeza Boutique Lodge & Khiwane Boutique Hotel,South Africa,Hoedspruit,1380,https://navigate.itb.com/company/Unembeza-Boutique-Lodge-Khiwane-Boutique-Hotel--1215815,Arnold Streefkerk,Owner
Union Resorts (Pvt) Ltd,Sri Lanka,Colombo 03,00300,https://navigate.itb.com/company/Union-Resorts-Pvt-Ltd--1214630,Nuwan Rangana Fernando,Senior Manager Sales & Marketing
Universal Resorts,Maldives,Male',0000,https://navigate.itb.com/company/Universal-Resorts--1215896,Ibrahim Shifan,Assistant Director of Sales
Up Hotel Budapest,Hungary,Budapest,1067,https://navigate.itb.com/company/Up-Hotel-Budapest--1216863,Kitti Keszei-Sárközi,Leisure Sales Manager
Vakkaru Maldives,Maldives,Male',000,https://navigate.itb.com/company/Vakkaru-Maldives--1042696,Nuaas Mohamed,Director of Sales & Marketing
Valamar,Croatia,Porec,52440,https://navigate.itb.com/company/Valamar--1042707,Filip Mandić,Promotion and Brand partnership Manager
VAMED Vitality World,Austria,Wien,1230,https://navigate.itb.com/company/VAMED-Vitality-World--1214615,Sieglinde Dotter-Zlatnik,Sales
Vanajanlinna Group,Finland,Hämeenlinna,13330,https://navigate.itb.com/company/Vanajanlinna-Group--1215383,Riikka Arvola,Sales Manager
Van der Valk Hotel Berlin Brandenburg GmbH,Germany,Blankenfelde-Mahlow,15827,https://navigate.itb.com/company/Van-der-Valk-Hotel-Berlin-Brandenburg-GmbH--1042778,Mirjana Bleich,Marketing Manager
Van der Valk Kontiki Beach Resort Curaçao,Curaçao,Willemstad,0,https://navigate.itb.com/company/Van-der-Valk-Kontiki-Beach-Resort-Curaçao--1215829,Meike Longhitano,
VANTARAKIS HOTEL COLLECTION,Greece,GEORGIOUPOLIS,73007,https://navigate.itb.com/company/VANTARAKIS-HOTEL-COLLECTION--1216022,SOTIRIS MANOLITSAS,DIRECTOR OF SALES & CONTRACTS
Vasia Hotels,Greece,Heraklion,71307,https://navigate.itb.com/company/Vasia-Hotels--1207831,Christos Sifakis,Sales Manager
VIDA BEACH RESORT MARASSI AL BAHRAIN,Bahrain,MUHARRAQ,0,https://navigate.itb.com/company/VIDA-BEACH-RESORT-MARASSI-AL-BAHRAIN--1215817,MOHAMMAD BARAKAT,CLUSTER COMMERCIAL DIRECTOR
Vection Technologies LTD,Australia,Osbornepark,6017,https://navigate.itb.com/company/Vection-Technologies-LTD--1216626,Maria Petkova,Head of Procurement and Project Manager
Venosa Beach Resort & SPA,Türkiye,DIDIM - AYDIN,09270,https://navigate.itb.com/company/Venosa-Beach-Resort-SPA--1043043,Ugur HARPUT,General Manager
VENUS BEACH HOTEL,Cyprus,PAPHOS,8015,https://navigate.itb.com/company/VENUS-BEACH-HOTEL--1043056,APOSTOLOS MITROLIOS,SALES & MARKETING
Veranda Resort - MGallery,Thailand,Bangkok,10900,https://navigate.itb.com/company/Veranda-Resort---MGallery--1027333,Jidapa Niladhanadhon,Director of Business Development
Verkehrsbuero,Austria,Wien,1020,https://navigate.itb.com/company/Verkehrsbuero--1043152,Kurt Diesenreither,Marketing
Victoria Falls Safari Collection,Zimbabwe,Victoria Falls,N/A,https://navigate.itb.com/company/Victoria-Falls-Safari-Collection--1216752,Bryony Acutt,International Sales and Brand Manager
Radisson Blu LATVIJA Conference & Spa hotel,Latvia,Riga,LV-1010,https://navigate.itb.com/company/Radisson-Blu-LATVIJA-Conference-Spa-hotel--1215335,Darta Bekere,Sales Manager
Vila Baleira Hotels & Resorts,Portugal,Porto Santo,9400-085,https://navigate.itb.com/company/Vila-Baleira-Hotels-Resorts--1216634,Sandro Lopes,
Vila Bled und Hotel Elegans Brdo,Slovenia,Kranj,4000,https://navigate.itb.com/company/Vila-Bled-und-Hotel-Elegans-Brdo--1215093,Mateja Golja,Sales manager
Vila Galé Hotels,Portugal,Oeiras,2780-125,https://navigate.itb.com/company/Vila-Galé-Hotels--1043427,Sarah Gonçalves,
Villa Delisle Hotel & Spa,Réunion,Saint Pierre,97410,https://navigate.itb.com/company/Villa-Delisle-Hotel-Spa--1043438,Angélique Covelo,Représentante commerciale
VILLA DEVA RESORT & HOTEL BANGKOK,Thailand,Bangkok,10120,https://navigate.itb.com/company/VILLA-DEVA-RESORT-HOTEL-BANGKOK--1217166,Thanittha Kim,Sales Manager
Villa Haven Maldives,Maldives,South Ari Atoll,00140,https://navigate.itb.com/company/Villa-Haven-Maldives--1217129,Sadhaad Hakeem,Senior Sales Manager
VILLA QUARANTA TOMMASI WINE HOTEL & SPA,Italy,"Pescantina, Verona",37026,https://navigate.itb.com/company/VILLA-QUARANTA-TOMMASI-WINE-HOTEL-SPA--1043447,Stefania Matteoni,Sales Manager
Villa Resorts,Maldives,Male,20187,https://navigate.itb.com/company/Villa-Resorts--1043448,Shumaes Rasheed,"Associate Director, PR & Marketing"
Vincci EverEden 4* - Vincci Hoteles,Greece,Anavyssos,19013,https://navigate.itb.com/company/Vincci-EverEden-4*---Vincci-Hoteles--1207104,Natassa Sergkenlidi Pagoni,Regional Sales Director
Vinpearl Joint Stock Company,Vietnam,Nha Trang,57100,https://navigate.itb.com/company/Vinpearl-Joint-Stock-Company--1043496,Anh Huong Trang Le,Business Development Executive
Visit Qatar,Qatar,Doha,24624,https://navigate.itb.com/company/Visit-Qatar--1212942,Shagufta Parkar,
"Vistas Beyond Scenic Spot Management (Zhejiang) Co., Ltd.",China,"Tongxiang, Jiaxing, Zhejiang, P.R.C.",314599,https://navigate.itb.com/company/Vistas-Beyond-Scenic-Spot-Management-Zhejiang-Co-Ltd--1214553,Chunli Xu,
Viva Dash Hotel Seminyak,Indonesia,Denpasar,80361,https://navigate.itb.com/company/Viva-Dash-Hotel-Seminyak--1206182,Tresia Elena,General Manager
Viventium Hospitality Sales Network,Réunion,Piton Staint Leu,97424,https://navigate.itb.com/company/Viventium-Hospitality-Sales-Network--1215373,Christophe Carlier,CEO
voco Dubai,United Arab Emirates,Dubai,9940,https://navigate.itb.com/company/voco-Dubai--1043843,Fady Atwan,Area Commercial Director
voco Dubai The Palm,United Arab Emirates,Dubai,566771,https://navigate.itb.com/company/voco-Dubai-The-Palm--1215490,Rouxshin Vajifdar,Director of Sales and Marketing
Voulgaris Hopsitality Group,Greece,Corfu,49100,https://navigate.itb.com/company/Voulgaris-Hopsitality-Group--1216028,Christos Katsigiannis,Sales & Marketing Director
Voyage Hotels,Türkiye,ANTALYA,07230,https://navigate.itb.com/company/Voyage-Hotels--1043977,BIROL TURAN,
Waka Hotels & Resorts,Indonesia,Denpasar,80036,https://navigate.itb.com/company/Waka-Hotels-Resorts--1206406,Ni Wayan Kasiani,Assistant Director Sales & Marketing
Walibi Holland,Netherlands,Biddinghuizen,8256RJ,https://navigate.itb.com/company/Walibi-Holland--1205253,Bart Daams,Sales Representative / Marketing
Walt Disney World Swan and Dolphin and Swan Reserve,United States of America,Lake Buena Vista,32830,https://navigate.itb.com/company/Walt-Disney-World-Swan-and-Dolphin-and-Swan-Reserve--1207084,Livia Cohen,
Wangchuk Tours & Treks,Bhutan,Thimphu,11001,https://navigate.itb.com/company/Wangchuk-Tours-Treks--1044169,Pema Choki,Manager
Waterberry Zambezi Lodge,Zambia,Livingstone,0,https://navigate.itb.com/company/Waterberry-Zambezi-Lodge--1167052,Bertha Mayungo,Reservations & Marketing
Wayo Africa,Tanzania,Arusha,0000,https://navigate.itb.com/company/Wayo-Africa--1207050,Catherine Millington,Sales & Marketing Director
W Bali Seminyak,Indonesia,Denpasar,80361,https://navigate.itb.com/company/W-Bali-Seminyak--1044049,Fanny Purna Irianti,Director of Sales
WELLWORTH COLLECTION,Tanzania,DAR ES SALAAM,0,https://navigate.itb.com/company/WELLWORTH-COLLECTION--1044402,FREDRICK WAMBUA,Marketing Officer
White Pearl Resorts,South Africa,Johannesburg,2198,https://navigate.itb.com/company/White-Pearl-Resorts--1205326,Lusinda Landman,Sales Account Manager
Wilderness,Namibia,Windhoek,0,https://navigate.itb.com/company/Wilderness--1044634,Tracy Bekker,
Wild Horizons,Zimbabwe,victoria falls,0000,https://navigate.itb.com/company/Wild-Horizons--1044620,RONALD WHITE,Sales Director
WINGS BY CROSKE RESORT LANGKAWI,Malaysia,Langkawi,07100,https://navigate.itb.com/company/WINGS-BY-CROSKE-RESORT-LANGKAWI--1216199,Prathep Nayar Sinnasamy,
WORLD OF SUNRISE HOTELS,Türkiye,Antalya,07600,https://navigate.itb.com/company/WORLD-OF-SUNRISE-HOTELS--1208476,YILKAN TOPLAR,
Worldwide Hotels Pte Ltd,Singapore,Singapore,449269,https://navigate.itb.com/company/Worldwide-Hotels-Pte-Ltd--1215277,Alvin Yeoh,
"Wuzhen Tourism Co., Ltd.",China,Wuzhen Town,314501,https://navigate.itb.com/company/Wuzhen-Tourism-Co-Ltd--1214257,Ruanting Lu,
Wyndham Hotels & Resorts,United Kingdom,London,W68DA,https://navigate.itb.com/company/Wyndham-Hotels-Resorts--1044993,Osvaldo Badia,Account Director Leisure Sales
"Wyndham Ion Majestic Hotel, Genting Highland",Malaysia,Pahang,69000,https://navigate.itb.com/company/Wyndham-Ion-Majestic-Hotel-Genting-Highland--1217004,Rajeshkanth Rajaraman,Director of Business Development
Xenia S.p.A. SB | Phi Hotels,Italy,Guardiagrele,66016,https://navigate.itb.com/company/Xenia-S-p-A--SB-|-Phi-Hotels--1125749,Valeria Ursino,
Xia Resorts,Greece,"Kalithea, Kassandra, Halkidiki",63077,https://navigate.itb.com/company/Xia-Resorts--1205606,Fernando Garcia,CEO
XO Cape Arnna,Türkiye,Mugla,48300,https://navigate.itb.com/company/XO-Cape-Arnna--1213896,Onat Veziroglu,Digital Marketing Specialist
Xperience Member of Kiroseiz Group,Egypt,Sharm Elsheikh,12411,https://navigate.itb.com/company/Xperience-Member-of-Kiroseiz-Group--1216496,Heba Fouad,Director of sales & Marketing
Yasawa Island Resort & Spa,Fiji,Nadi,Nadi Airport,https://navigate.itb.com/company/Yasawa-Island-Resort-Spa--1045154,James McCann,Owner
YHA Australia,Australia,Sydney,2000,https://navigate.itb.com/company/YHA-Australia--1214463,Kymberly Ryder,National Sales Manager
York Hotel Singapore,Singapore,Singapore,228516,https://navigate.itb.com/company/York-Hotel-Singapore--1045205,Josephine Lai,
YTL HOTELS,Malaysia,Kuala Lumpur,55100,https://navigate.itb.com/company/YTL-HOTELS--1206987,Mohannad Shaweesh,
ZAFIRO HOTELS,Spain,Port de Alcúdia,07400,https://navigate.itb.com/company/ZAFIRO-HOTELS--1216579,Cecilia Svane,Global Marketing Director
Zawadi Hotel,Tanzania,Zanzibar,0000,https://navigate.itb.com/company/Zawadi-Hotel--1205647,Sujit Shah,Sales & Marketing
Zelia Halkidiki,Greece,Potidaia,63200,https://navigate.itb.com/company/Zelia-Halkidiki--1215637,Spyros Avramopoulos,
Zenitude Consulting,Mauritius,Phoenix,0,https://navigate.itb.com/company/Zenitude-Consulting--1216965,Michaela Hossenny,
ZEUS HOTELS,Greece,Heraklion-Crete,71202,https://navigate.itb.com/company/ZEUS-HOTELS--1045426,Pantelis VERNADOS,COO
ZIMBABWE TOURISM AUTHORITY,Zimbabwe,HARARE,0,https://navigate.itb.com/company/ZIMBABWE-TOURISM-AUTHORITY--1045521,Sophia Zirebwa,Tourism Attachee
ZK VENTURE COMPANY LIMITED,Tanzania,Zanzibar,0,https://navigate.itb.com/company/ZK-VENTURE-COMPANY-LIMITED--1217075,Rose Juma,Sales & Marketing manager
Zvernec Resort,Albania,Vlore,9414 AL,https://navigate.itb.com/company/Zvernec-Resort--1216989,Florida Kasa,Business Development Consultant
