NAME,COUNTRY,CITY,POSTALCODE,WEBSITE,CONTACT_NAME,POSITION
365 Travel,Vietnam,Hanoi,100000,https://navigate.itb.com/company/365-Travel--1000080,Chi Nguyen,Marketing Executive
A.T.S. PACIFIC | Helloworld Travel Group,Australia,South Melbourne,3205,https://navigate.itb.com/company/A-T-S--PACIFIC-|-Helloworld-Travel-Group--1205333,Neale Herridge,Group Gm - Ats Pacific
AA VIAJES MASTER,Spain,Málaga,29011,https://navigate.itb.com/company/AA-VIAJES-MASTER--1043272,Jose Luis Quintero,
"ABIES TRAVEL S.L. dmc , mice & events",Spain,Torremolinos ( Málaga ),29620,https://navigate.itb.com/company/ABIES-TRAVEL-S-L--dmc--mice-events--1209140,ROSA MARIA DIAZ OLIVERA,General Manager
ACACIA SAFARIS LIMITED,Uganda,Kampala,256,https://navigate.itb.com/company/ACACIA-SAFARIS-LIMITED--1000415,Stephen Atwine,Tour Consultant
ACE Rent A Car,United States of America,Indianapolis,46202,https://navigate.itb.com/company/ACE-Rent-A-Car--1000470,Melissa Buche,Director of Distribution
A-CLASS TRAVEL,Vietnam,Hanoi city,10000,https://navigate.itb.com/company/A-CLASS-TRAVEL--1000496,GIANG HUYNH THI HUONG,CEO
Activ'Travel DMC Morocco,Morocco,CASABLANCA,20020,https://navigate.itb.com/company/Activ'Travel-DMC-Morocco--1208148,Abdellatif Benmoussa,Co-founder Director
ADAC Reisevertrieb GmbH,Germany,Frankfurt,60528,https://navigate.itb.com/company/ADAC-Reisevertrieb-GmbH--1000570,Ann-Katrin Hegner,Projektmanagerin
ADEX - Asia Dive Expo,Singapore,Singapore,469277,https://navigate.itb.com/company/ADEX---Asia-Dive-Expo--1215281,Kimberly Niu,
AGL - Alliance Group Ltd.,Malta,Birkirkara,BKR 2911,https://navigate.itb.com/company/AGL---Alliance-Group-Ltd--1216369,Jolanta Szubert,Project Manager
AIDA Cruises – German Branch of Costa Crociere S.p.A. – MICE Department,Germany,Rostock,18055,https://navigate.itb.com/company/AIDA-Cruises-German-Branch-of-Costa-Crociere-S-p-A-MICE-Department--1216140,Andrea Giese,Specialist Charter & Incentives
AIR PARTNER,Germany,Köln,50670,https://navigate.itb.com/company/AIR-PARTNER--1001330,Kamila Kennepohl,European Marketing Manager
A la Carte Travel Greece,Greece,"Nea Moudania, Halkidiki",63200,https://navigate.itb.com/company/A-la-Carte-Travel-Greece--1000171,Christina Reppa,Managing Partner
Albania Holidays DMC,Albania,Tirana,1020,https://navigate.itb.com/company/Albania-Holidays-DMC--1001601,Kliton Gërxhani,Director
Alfaiz Thai Travel,Thailand,Bangkok,10110,https://navigate.itb.com/company/Alfaiz-Thai-Travel--1204435,Marisa Dechdecho,Managing Director
ALILAGUNA VENEZIA,Italy,Venezia,30135,https://navigate.itb.com/company/ALILAGUNA-VENEZIA--1001762,Rachele Sacco,Exhibition Manager
All Pacific Travel Concept,Australia,Sydney,2000,https://navigate.itb.com/company/All-Pacific-Travel-Concept--1001792,Roland zur Oven-krockhaus,CEO
ALPINE STERLING DMC - MALTA & GOZO,Malta,San Gwann,SGN 9032,https://navigate.itb.com/company/ALPINE-STERLING-DMC---MALTA-GOZO--1149279,Darren Ellul,Contracting & Client Relationship Manager
American Express Global Business Travel,Germany,Frankfurt,604486,https://navigate.itb.com/company/American-Express-Global-Business-Travel--1215026,Nicole Valdes,Events Manager
Anbessa Travel አንበሳ አስጎብኝ,Ethiopia,Addis Ababa,0000,https://navigate.itb.com/company/Anbessa-Travel-አንበሳ-አስጎብኝ--1002326,Molla ሞላ Miheretu,General Manager
Angela Shanley Associates & Cambria@ASA,United Kingdom,London,NW1 2HA,https://navigate.itb.com/company/Angela-Shanley-Associates-Cambria@ASA--1002411,Kristin Muller,Senior Group Sales Manager - Core Partners
AOT Inbound | Helloworld Travel Group,Australia,South Melbourne,3205,https://navigate.itb.com/company/AOT-Inbound-|-Helloworld-Travel-Group--1205334,Gary Paterson,Group General Manager
Apple Travel,Vietnam,Hanoi,100000,https://navigate.itb.com/company/Apple-Travel--1206263,Chi Nguyen,Marketing Executive
ARTOTEL GROUP,Indonesia,Jakarta,12410,https://navigate.itb.com/company/ARTOTEL-GROUP--1003057,Prisca Marcela,Director of Sales
Asahi Travel Service,Japan,"Minato-Ku, Tokyo",105-0012,https://navigate.itb.com/company/Asahi-Travel-Service--1216279,Markus Selyucus,Director
ASIA DMC,Vietnam,Hanoi,100000,https://navigate.itb.com/company/ASIA-DMC--1003171,Aurel Vion,Business Development Manager - MICE
ASIA PACIFIC TRAVEL COMPANY LIMITED,Vietnam,"Hà Nội (HAN), Việt Nam",10000,https://navigate.itb.com/company/ASIA-PACIFIC-TRAVEL-COMPANY-LIMITED--1216854,Nam Giang,CEO
"ASIA TRAVEL AND ESTATE CO.,LTD.",Thailand,Bangkok,10900,"https://navigate.itb.com/company/ASIA-TRAVEL-AND-ESTATE-CO-,LTD--1216478",DOMENICO LIANTONIO,CEO & MANAGING DIRECTOR
Asia Travel and Leisure Co.Ltd,Vietnam,Ha Noi,100000,https://navigate.itb.com/company/Asia-Travel-and-Leisure-Co-Ltd--1216153,Bui Cao Son,Product Manager
AT Airporttransfer Limited,United Kingdom,London,SL6 1SF,https://navigate.itb.com/company/AT-Airporttransfer-Limited--1003413,Ecem Seker,B2B Sales Manager
ATG Travel Worldwide B.V.,Germany,FRANKFURT AM MAIN,60598,https://navigate.itb.com/company/ATG-Travel-Worldwide-B-V--1003451,Robert Loeschke,Vice President Sales
ATI Travel,Hong Kong SAR China,Kowloon,0,https://navigate.itb.com/company/ATI-Travel--1003460,Richard Woss,Managing Director
Autentik Hotels and Travel,Spain,Malaga,29631,https://navigate.itb.com/company/Autentik-Hotels-and-Travel--1209157,Corinna Fink,Director
AZZ Hoteles,Spain,Sevilla,41020,https://navigate.itb.com/company/AZZ-Hoteles--1216719,Jose Chacon,Director of Sales & Marketing
BAHRAIN INTERNATIONAL TRAVEL,Bahrain,MANAMA,0,https://navigate.itb.com/company/BAHRAIN-INTERNATIONAL-TRAVEL--1004129,ALFRED LOBO,BUSINESS DEVELOPMENT MANAGER
Balkan Destination,Kosovo,Prishtinë,10000,https://navigate.itb.com/company/Balkan-Destination--1216523,Arsim Rexhepi,CEO
"Beijing Nimbus International Travel Service Co.,Ltd",China,Beijing,100000,"https://navigate.itb.com/company/Beijing-Nimbus-International-Travel-Service-Co-,Ltd--1004654",Elaine HU,Marketing Director
Belmare&Aquaresort Miedzyzdroje Poland,Poland,Miedzyzdroje,72-500,https://navigate.itb.com/company/Belmare-Aquaresort-Miedzyzdroje-Poland--1215438,Anna Konkowska,Sales Manager
Best of Scotland Holidays,United Kingdom,Kirkcaldy,KY1 3NH,https://navigate.itb.com/company/Best-of-Scotland-Holidays--1215755,Kirsten Laing,Sales And Marketing Director
BLISS HOI AN BEACH RESORT & WELLNESS,Vietnam,Quang Nam,51250,https://navigate.itb.com/company/BLISS-HOI-AN-BEACH-RESORT-WELLNESS--1217085,Huyen Duong,Co-Founder
"Bochum Marketing GmbH, Astrid Jordan",Germany,Bochum,44787,https://navigate.itb.com/company/Bochum-Marketing-GmbH-Astrid-Jordan--1216385,Astrid Jordan,Leitung Tourismus
Boiana-MG Travel Company,Bulgaria,Sofia,1618,https://navigate.itb.com/company/Boiana-MG-Travel-Company--1005636,Maria Iankova,Director
Bonheur voyages,Tunisia,Hammamet​ Nabeul,0,https://navigate.itb.com/company/Bonheur-voyages--1206448,Foued Ben Ammar,CEO
Bontour Incoming,Jersey,St Peter,JE1 1BW,https://navigate.itb.com/company/Bontour-Incoming--1005687,Eva Köhler,Reservations & Operations Manager
BTH Business Travel Hamburg GmbH,Germany,Hamburg,22763,https://navigate.itb.com/company/BTH-Business-Travel-Hamburg-GmbH--1215142,Cenk Seker,Geschäftsführer
BUSINESS FRANCE,France,PARIS,75014,https://navigate.itb.com/company/BUSINESS-FRANCE--1006345,AISSATA CAMARA,PROJECT MANAGER
BusTravel Iceland,Iceland,Reykjavík,105,https://navigate.itb.com/company/BusTravel-Iceland--1006359,Kristján Karl Björnsson,CCO
Buzz DMC,Portugal,Lisboa,1050-099,https://navigate.itb.com/company/Buzz-DMC--1006371,Cláudia Loução,Head of Leisure
C4Communities,Albania,Tirana,1001,https://navigate.itb.com/company/C4Communities--1217179,Arlind Haxhijaj,Managing Director
Caribbean Tours,Cuba,La Habana,10400,https://navigate.itb.com/company/Caribbean-Tours--1206089,Andreas Blass,CEO
Caribbean Tours Dominicana,Dominican Republic,Santo Domingo,10210,https://navigate.itb.com/company/Caribbean-Tours-Dominicana--1215880,Angelo Rodriguez,Destination Manager
Ceara Destination,Brazil,Fortaleza,60811-341,https://navigate.itb.com/company/Ceara-Destination--1007094,Victoria Homci,Internacional Producer
China Oriental,China,Guangzhou,510016,https://navigate.itb.com/company/China-Oriental--1215264,Ronald Kong,Operation Manager
"China Peace International Tourism Co.,Ltd.",China,Beijing,100013,"https://navigate.itb.com/company/China-Peace-International-Tourism-Co-,Ltd--1214483",Zhang Pei Pei,
Complete Tours,Morocco,Agadir,80000,https://navigate.itb.com/company/Complete-Tours--1217116,DOUNIA BOUADDI,Chief Operating Officer
Condor Travel,Peru,Lima,15073,https://navigate.itb.com/company/Condor-Travel--1010065,Ximena Delgado,Marketing Manager
Congress-Tourismus-Würzburg,Germany,Würzburg,97070,https://navigate.itb.com/company/Congress-Tourismus-Würzburg--1215104,Jürgen Ludwig,Leitung Marketing
Continental Travel DMC,Hungary,Budapest,1065,https://navigate.itb.com/company/Continental-Travel-DMC--1217114,Judit Kanel,Managing Director
Creta Maris Resort - TUI Magic Life Candia Maris,Greece,Heraklion,71306,https://navigate.itb.com/company/Creta-Maris-Resort---TUI-Magic-Life-Candia-Maris--1207985,Marina Maniadi,Senior Sales Manager
CRYSTAL LODGES / CRYSTAL SAFARIS,Uganda,KAMPALA,256,https://navigate.itb.com/company/CRYSTAL-LODGES-/-CRYSTAL-SAFARIS--1208527,CHRISTINE MWINIKE,CEO
Cyprus Touristic,Cyprus,Kyrenia,99390,https://navigate.itb.com/company/Cyprus-Touristic--1205131,Ekrem Barlas,Direktör
Designer Outlet Roermond,Netherlands,Roermond,6041 TD,https://navigate.itb.com/company/Designer-Outlet-Roermond--1011601,Helen Hao,Tourism
Destination VERONA & GARDA,Italy,Verona,37122,https://navigate.itb.com/company/Destination-VERONA-GARDA--1207314,Francesca Campagnari,Product Manager & Marketing
DMC Luxembourg,Luxembourg,LUXEMBOURG,L-1940,https://navigate.itb.com/company/DMC-Luxembourg--1216565,Svenja SIEMSEN,Group & DMC Experience Manager
DMC Nordic Lithuania,Lithuania,Vilnius,09200,https://navigate.itb.com/company/DMC-Nordic-Lithuania--1216995,Arvydas Silva,Country Manager
DMC White Tiger Bali,Indonesia,Denpasar,80228,https://navigate.itb.com/company/DMC-White-Tiger-Bali--1209694,Arifqie Mustika Dwiputramardhika,Public Relation & Communication Executive
DM Travel Ltd.,Bulgaria,Sofia,1000,https://navigate.itb.com/company/DM-Travel-Ltd--1012243,Valentina Kiosseva,Executive Manager
Easia Travel,Vietnam,Hanoi City,0,https://navigate.itb.com/company/Easia-Travel--1012827,Philippe Richard,Sales Director
Egoli African Destinations,South Africa,Cape Town,8001,https://navigate.itb.com/company/Egoli-African-Destinations--1207323,Heidi Brown Koelble,Managing Owner
Egypt promotion travel,Egypt,Cairo,11241,https://navigate.itb.com/company/Egypt-promotion-travel--1013506,Hussein El aref,
ehotel AG,Germany,Berlin,10405,https://navigate.itb.com/company/ehotel-AG--1215031,Christoph Metz,Director of Marketing
"Eliseu Correia Travel, Unipessoal Lda",Portugal,Olhao,8200-408,https://navigate.itb.com/company/Eliseu-Correia-Travel-Unipessoal-Lda--1013790,Claudio Claudio Tome,General Manager
Elite Travel D.M.C,Albania,Elbasan,3001,https://navigate.itb.com/company/Elite-Travel-D-M-C--1212917,Andi Proda,Head of Marketing & Communication
Embajadores de Málaga,Spain,Málaga,29001,https://navigate.itb.com/company/Embajadores-de-Málaga--1216716,Lourdes Millán,CEO
EMG - Essen Marketing GmbH,Germany,Essen,45127,https://navigate.itb.com/company/EMG---Essen-Marketing-GmbH--1013917,Marcia Stapleton,Leitung Touristik
Etihad Airways PJSC,Germany,Frankfurt,60322,https://navigate.itb.com/company/Etihad-Airways-PJSC--1215327,Ralf Selzer,Senior Account Manager Corporates & TMC
Event Solutions Malta by Vacations Malta Ltd,Malta,Attard,ATD2775,https://navigate.itb.com/company/Event-Solutions-Malta-by-Vacations-Malta-Ltd--1014726,Kenneth Baldacchino,Managing Director
EXHIBITION WORLD BAHRAIN,Bahrain,SAKHEER,0,https://navigate.itb.com/company/EXHIBITION-WORLD-BAHRAIN--1207283,ALI LARI,
Expo City Dubai,United Arab Emirates,Dubai,2020,https://navigate.itb.com/company/Expo-City-Dubai--1014909,Charo Taduran,Manager - Trade Marketing
FBTT Travel,Curaçao,Willemstad,0,https://navigate.itb.com/company/FBTT-Travel--1015281,Selina Maduro Gumbs,
"Find Folk Co., Ltd.",Thailand,Bangkok,10400,https://navigate.itb.com/company/Find-Folk-Co-Ltd--1215977,Sappawat Kantamara,Strategic Marketing and Sustainability Manager
Fine Travel Albania DMC,Albania,Tirana,1020,https://navigate.itb.com/company/Fine-Travel-Albania-DMC--1015556,Armand Ferra,Director
FITUR 2026 / IFEMA Madrid,Spain,Madrid,28042,https://navigate.itb.com/company/FITUR-2026-/-IFEMA-Madrid--1205976,Ainhoa de la Cruz Aguillo,Manager Comercial
flash tour,Egypt,cairo,11511,https://navigate.itb.com/company/flash-tour--1171224,Mourad Guindi,Owner rep
Floreal Holidays asbl,Belgium,Bruxelles,1000,https://navigate.itb.com/company/Floreal-Holidays-asbl--1216667,Wim Daniels,Sales & Marketing Director
FLY BEYOND AFRICA TOURS & TRAVEL LTD,Kenya,NAIROBI,00100,https://navigate.itb.com/company/FLY-BEYOND-AFRICA-TOURS-TRAVEL-LTD--1216924,PHYLLIS GITAU,CHIEF EXECUTIVE OFFICER
FLY HIGH TRAVEL,Hong Kong SAR China,KOWLOON,0852,https://navigate.itb.com/company/FLY-HIGH-TRAVEL--1216734,JASAN SINGH,BUSINESS DEVELOPMENT MANAGER
Focus Travel Cambodia,Cambodia,Phnom Penh,12000,https://navigate.itb.com/company/Focus-Travel-Cambodia--1216921,Phoan Moeurt,Managing Director
FTT Travel Limited,Hong Kong SAR China,"Room 501A, 5/F, Sunbeam Plaza,",0000,https://navigate.itb.com/company/FTT-Travel-Limited--1216604,Bernard Pak,Director / Owner
GaPa Tourismus GmbH,Germany,Garmisch-Partenkirchen,82467,https://navigate.itb.com/company/GaPa-Tourismus-GmbH--1154530,Katharina Duchmann,
GARIBALDI OVERSEAS LTD,Cyprus,AMMOCHOSTOS,5330,https://navigate.itb.com/company/GARIBALDI-OVERSEAS-LTD--1016989,Chrysanthos Georgiou,Director
GASSAN Diamonds,Netherlands,Amsterdam,1011  LN,https://navigate.itb.com/company/GASSAN-Diamonds--1017021,Diletta De Luca,PR & Travel Trade Manager
GCB German Convention Bureau e.V.,Germany,Frankfurt am Main,60329,https://navigate.itb.com/company/GCB-German-Convention-Bureau-e-V--1017084,Martina Neunecker,Director Communications & Strategy
GEA Holidays,Greece,Heraklion,71601,https://navigate.itb.com/company/GEA-Holidays--1215741,Panagiotis Charonitis,Managing Director
GEM Travel,Greece,Rhodes,85100,https://navigate.itb.com/company/GEM-Travel--1017154,Christos MICHALAKIS,General Manager
Geneva Tourism,Switzerland,Geneva,1201,https://navigate.itb.com/company/Geneva-Tourism--1216443,Kathrin Spiller,
Geothermal Exhibition,Iceland,Reykjavík,110,https://navigate.itb.com/company/Geothermal-Exhibition--1216625,Laufey Guðmundsdóttir,Geothermal Exhibition Manager
Giant Gorilla Safaris LTD,Uganda,Kampala,700119,https://navigate.itb.com/company/Giant-Gorilla-Safaris-LTD--1215620,Hellen Nekesa,Director
GLOBAL AIR DMC KAZAKHSTAN & CENTRAL ASIA,Kazakhstan,Almaty,050000,https://navigate.itb.com/company/GLOBAL-AIR-DMC-KAZAKHSTAN-CENTRAL-ASIA--1017584,Gulden Ospanova,General Director
GNETWORK360,Argentina,Ciudad Autonoma de Buenos Aires,1100,https://navigate.itb.com/company/GNETWORK36--1017684,Pablo De Luca,
GoingBaltic,Malta,Birkirkara,BKR 4013,https://navigate.itb.com/company/GoingBaltic--1017762,Fernando Tomé,CEO
Goway Travel & Across Australia,Australia,Sydney,2000,https://navigate.itb.com/company/Goway-Travel-Across-Australia--1214452,Chris Craddock,Business Development Manager
Goyo Garrido Adventures,Spain,Esfiliana,18511,https://navigate.itb.com/company/Goyo-Garrido-Adventures--1216728,Andrea Tarelli,Director
GREAT TRADE EXHIBITIONS & EXPORTS,Greece,ATHENS,15233,https://navigate.itb.com/company/GREAT-TRADE-EXHIBITIONS-EXPORTS--1018130,PARASKEVAS DIMITRIOU,
GRUPO ARMITOUR TRAVEL SERVICIOS TURISTICOS S.L.,Spain,Granada,18008,https://navigate.itb.com/company/GRUPO-ARMITOUR-TRAVEL-SERVICIOS-TURISTICOS-S-L--1216700,INANC YAMAC,CEO
"GUADALAJARA, MEXICO",Mexico,JALISCO,44160,https://navigate.itb.com/company/GUADALAJARA-MEXICO--1215968,LIGIA GONZALEZ,MICE MANAGER
"Guizhou Guiyao Tourism Development Investment Co., Ltd",China,Shangji Town,56313,https://navigate.itb.com/company/Guizhou-Guiyao-Tourism-Development-Investment-Co-Ltd--1214270,Kun Xu,
H.I.S. APAC DMC,Thailand,Bangkok,10110,https://navigate.itb.com/company/H-I-S--APAC-DMC--1206561,Sirada Dejcharnchaiyuth,Secretary and Sales - Asia Region
"H.I.S. Tours Co., Ltd.",Thailand,Bangkok,10110,https://navigate.itb.com/company/H-I-S--Tours-Co-Ltd--1216676,Kanokwan Sangsupakorn,"Online Hotels Distribution, Travel Division"
Hamburg Messe und Congress GmbH,Germany,Hamburg,20357,https://navigate.itb.com/company/Hamburg-Messe-und-Congress-GmbH--1123908,Sandra Wiese,Director Sales & Marketing Venues
Harbour Grand Hong Kong,Hong Kong SAR China,Hong Kong,0,https://navigate.itb.com/company/Harbour-Grand-Hong-Kong--1207024,Becky Chan,Director of Sales & Marketing
Hellenic Zeus SA,Greece,Heraklion-Crete,71202,https://navigate.itb.com/company/Hellenic-Zeus-SA--1019276,Lefteris PAPAKALIATIS,CEO
HI DMC,India,Gurgaon,122002,https://navigate.itb.com/company/HI-DMC--1215144,Prem Syal,CEO
Hilton Garden Inn Nairobi Airport,Kenya,Nairobi,00406,https://navigate.itb.com/company/Hilton-Garden-Inn-Nairobi-Airport--1207547,Liz Tapawa,Director of Sales & Marketing
HIS-Miki Travel UK Limited,United Kingdom,London,EC4V 3BJ,https://navigate.itb.com/company/HIS-Miki-Travel-UK-Limited--1027427,Iveta Roos,Coordination Manager
HOTELBRAIN SA,Greece,"Argiroupoli, Athens",16452,https://navigate.itb.com/company/HOTELBRAIN-SA--1208122,Alexandra Petraki,Chief Commercial Officer
Hotel Pinija,Croatia,Zadar-Petrcane,23231,https://navigate.itb.com/company/Hotel-Pinija--1020330,Danijela Stanić Halapija,Sales and marketing Manager
Hotel Plaza & Lovivo Tour Experience,Italy,Abano Terme,35031,https://navigate.itb.com/company/Hotel-Plaza-Lovivo-Tour-Experience--1216183,Beatrice Canevarolo,Reservation Manager
"Hunza Guides Pakistan, Trekking & Tours PVT LTD",Pakistan,Islamabad,44000,https://navigate.itb.com/company/Hunza-Guides-Pakistan-Trekking-Tours-PVT-LTD--1216985,Zeeshan Ahmed,Partner & Director
ICS TRAVEL GROUP,Indonesia,Bali,80221,https://navigate.itb.com/company/ICS-TRAVEL-GROUP--1032362,Lukman Tassakka,Executive Manager - Indonesia
IHG Hotels at Dubai Festival City,United Arab Emirates,Dubai,45777,https://navigate.itb.com/company/IHG-Hotels-at-Dubai-Festival-City--1021153,Pranav Vohra,Cluster Commercial Director
Insight Events Bulgaria,Bulgaria,Sofia,1463,https://navigate.itb.com/company/Insight-Events-Bulgaria--1216307,Alexandra Yankulova,Head of MICE & Leisure
INTOUR POLSKA DMC,Poland,Warsaw,02-786,https://navigate.itb.com/company/INTOUR-POLSKA-DMC--1207447,Justyna Wojtal,President
Isram Israel (Touring) Ltd,Israel,Tel Aviv,67450,https://navigate.itb.com/company/Isram-Israel-Touring-Ltd--1022146,Hava Segal,Deputy GM – Operations
IZMIR FUARCILIK HIZMETLERI KULTUR ve SANAT ISLERI TIC. A.S.,Türkiye,IZMIR,35410,https://navigate.itb.com/company/IZMIR-FUARCILIK-HIZMETLERI-KULTUR-ve-SANAT-ISLERI-TIC--A-S--1007749,BATUHAN ALPAYDIN,INTERNATIONAL RELATIONS COORDINATOR
Jans Tours,Indonesia,Denpasar,80226,https://navigate.itb.com/company/Jans-Tours--1215385,Renato Domini,Director
"Japan Dream Tour co.,ltd",Japan,Tokyo,1110034,"https://navigate.itb.com/company/Japan-Dream-Tour-co-,ltd--1206438",Cindy Kurniawan,Deputy General Manager
Japan Travel KK,Japan,"Chiyoda-ku, Tokyo",1020083,https://navigate.itb.com/company/Japan-Travel-KK--1118534,Colas HAUSPIE,Travel Agency Manager
Jinan Zhangqiu Mingshui Ancient City Tourism Development Co.Ltd,China,Zhangqiu,250200,https://navigate.itb.com/company/Jinan-Zhangqiu-Mingshui-Ancient-City-Tourism-Development-Co-Ltd--1214268,xun yu Jiang,
Jonview,Canada,Toronto,M9B 6K5,https://navigate.itb.com/company/Jonview--1022673,Vicki Reid,
Katarina Line cruises and tours,Croatia,Opatija,51410,https://navigate.itb.com/company/Katarina-Line-cruises-and-tours--1023196,Goran Biljakovic,Head of sales
Kaunas IN,Lithuania,Kaunas,LT-44240,https://navigate.itb.com/company/Kaunas-IN--1216594,Oksana Railienė,Tourism and Marketing Department Project Manager
Khiri Travel,Thailand,Nonthaburi,11000,https://navigate.itb.com/company/Khiri-Travel--1023442,Pannita Sripramai,Senior Marketing Executive
KILIFAIR Promotion Co. Ltd,Tanzania,KILIMANJARO,0,https://navigate.itb.com/company/KILIFAIR-Promotion-Co--Ltd--1023481,Dominic Shoo,CEO
Kompas DMC,Slovenia,Ljubljana,1000,https://navigate.itb.com/company/Kompas-DMC--1023803,Vilijam Kvalic,Director
La Almazara-La Organic SL,Spain,RONDA,29400,https://navigate.itb.com/company/La-Almazara-La-Organic-SL--1217112,Nelly Samper,Sales Director
Lanai Viaggi - Verona intour,Italy,Villafranca di Verona,37069,https://navigate.itb.com/company/Lanai-Viaggi---Verona-intour--1216367,Viviana Stagni,sales manager
Lanes & Planes GmbH,Germany,München,80639,https://navigate.itb.com/company/Lanes-Planes-GmbH--1216922,Monica Arizaga,TL Marketing & Brand Growth
Latinconnect,Costa Rica,San José,10108,https://navigate.itb.com/company/Latinconnect--1215356,Sandra Haun,General Manager ARA Tours
Latventure Argentina / Chile,Argentina,Buenos Aires,0,https://navigate.itb.com/company/Latventure-Argentina-/-Chile--1024721,Daniela Bartel,CEO Latventure Argentina Chile
Lesotho Tourism Development Corporation,Lesotho,Maseru,P.O.Box 1378,https://navigate.itb.com/company/Lesotho-Tourism-Development-Corporation--1025023,Johannes Siziwa,Director
Liechtenstein Marketing,Liechtenstein,Vaduz,9490,https://navigate.itb.com/company/Liechtenstein-Marketing--1025114,Kerstin Künzle,Bereichsleiterin Events
LIMASSOL TOURISM DEVELOPMENT AND PROMOTION CO LTD,Cyprus,LIMASSOL,3048,https://navigate.itb.com/company/LIMASSOL-TOURISM-DEVELOPMENT-AND-PROMOTION-CO-LTD--1025165,MARIA STYLIANOU MICHAELIDOU,GENERAL MANAGER
Lobster Experience GmbH,Germany,Offenbach,63069,https://navigate.itb.com/company/Lobster-Experience-GmbH--1208213,Astrid Oberhummer,CEO & Founder
LOTUSZ VOYAGER KFT,Hungary,Budapest,1051,https://navigate.itb.com/company/LOTUSZ-VOYAGER-KFT--1217113,SEDA CETINOGLU,CEO
Luminalis Events DMC,Montenegro,Budva,85300,https://navigate.itb.com/company/Luminalis-Events-DMC--1025709,Natasa Spiric,Managing Director & Founder
MacSun-Travel doo Skopje,North Macedonia,Skopje,1000,https://navigate.itb.com/company/MacSun-Travel-doo-Skopje--1025887,Christin Freyer-Maher,
made in 2010 Ltd t/a made Tourism Marketing,United Kingdom,London,SE8 3DX,https://navigate.itb.com/company/made-in-2010-Ltd-t/a-made-Tourism-Marketing--1025907,Vince Mutty,CEO
MALAWI TOURISM,Malawi,LILONGWE,0,https://navigate.itb.com/company/MALAWI-TOURISM--1203276,CHRISTINE CHIMANGENI,FIRST SECRETARY TOURISM
Malta Sun Island Services GmbH,Germany,Hainburg,63512,https://navigate.itb.com/company/Malta-Sun-Island-Services-GmbH--1026165,David Mifsud,CEO
Marintur Indonesia,Indonesia,Jakarta Selatan,12860,https://navigate.itb.com/company/Marintur-Indonesia--1026380,Andri Daulay,Corporate Sales & Marketing
Melali Bali DMC,Indonesia,Bali,80361,https://navigate.itb.com/company/Melali-Bali-DMC--1209097,Diah Permana,Director of Sales & Marketing
MGM,Macao SAR China,Macao,999078,https://navigate.itb.com/company/MGM--1213419,Pik Yan Cindy Lui,Assistant Vice President of Resort Sales
MICE & CO Pte Ltd,Singapore,Singapore,555856,https://navigate.itb.com/company/MICE-CO-Pte-Ltd--1215280,Becky Qi Ba,
Millennium & Copthorne Middle East Holdings Limited (Dubai Branch),United Arab Emirates,Dubai,119666,https://navigate.itb.com/company/Millennium-Copthorne-Middle-East-Holdings-Limited-Dubai-Branch--1206760,Amal Oumasse,REGIONAL ASSOCIATE VP MARKETING & COMMUNICATIONS – MIDDLE EAST & AFRICA
Monte Mare Travel,Montenegro,Podgorica,81000,https://navigate.itb.com/company/Monte-Mare-Travel--1207899,Milica Dulović,Ceo
Montenegro Destinations,Montenegro,Tivat,85320,https://navigate.itb.com/company/Montenegro-Destinations--1215866,Goran Bajo,CEO
Montenegro in Style,Montenegro,Tivat,85320,https://navigate.itb.com/company/Montenegro-in-Style--1216017,Korkut Oyal,Managing Partner
MTS Globe 4 Services S.L.U,Spain,Palma de Mallorca,07009,https://navigate.itb.com/company/MTS-Globe-4-Services-S-L-U--1028170,Swantje Hansen,
MTS Globe 4 Services S.L.U,Spain,Palma de Mallorca,07009,https://navigate.itb.com/company/MTS-Globe-4-Services-S-L-U--1028164,Swantje Hansen,
MTS Globe Bulgaria,Bulgaria,Varna / Golden Sands,9007,https://navigate.itb.com/company/MTS-Globe-Bulgaria--1206297,Ivan Ivan,Managing Director
Museo Scuola Grande San Giovanni Evangelista,Italy,Venezia,30125,https://navigate.itb.com/company/Museo-Scuola-Grande-San-Giovanni-Evangelista--1028334,Cristina Scarpa,Director
eOrbit GmbH,Germany,Leipzig,04103,https://navigate.itb.com/company/eOrbit-GmbH--1205197,Tobias Feickert,CFO/COO
My Top Tour,Spain,Armilla,18100,https://navigate.itb.com/company/My-Top-Tour--1209388,Constanza Amargós López,Expansion Manager
Navan,Germany,Berlin,10117,https://navigate.itb.com/company/Navan--1215744,Maximilian Nenning,Marketing Lead DACH
OLTA Travel Cyprus,Cyprus,LIMASSOL,4000,https://navigate.itb.com/company/OLTA-Travel-Cyprus--1029943,Tatiana Mirovshchikova,General Director
Orient Mice,Uzbekistan,Tashkent,100087,https://navigate.itb.com/company/Orient-Mice--1216029,Shukur Pardaev,General Manager
Orvas Travel Group,Croatia,Dugopolje,21204,https://navigate.itb.com/company/Orvas-Travel-Group--1215099,Hrvoje Brigljević,Product Manager
OTP TRAVEL DMC,Hungary,Budapest,1052,https://navigate.itb.com/company/OTP-TRAVEL-DMC--1216071,Tünde Varga,Inbound Product Manager
OTS Globe,Switzerland,Glattburg,CH-8152,https://navigate.itb.com/company/OTS-Globe--1206577,Dani Barros,Product Director
Pacto DMC,Indonesia,Denpasar,80228,https://navigate.itb.com/company/Pacto-DMC--1032386,Umberto Cadamuro,COO
Palm Plaza Hotel Marrakech - RASSUICH,Morocco,Marrakech,40000,https://navigate.itb.com/company/Palm-Plaza-Hotel-Marrakech---RASSUICH--1217138,Hajib AIT ALI OUADDI,Director of Sales & Revenue
PASSION BRAZIL,Brazil,Rio de Janeiro,22060-002,https://navigate.itb.com/company/PASSION-BRAZIL--1030877,Dalila Florião,
Pathfinders,United Kingdom,Cheltenham,GL52 2NT,https://navigate.itb.com/company/Pathfinders--1030902,Justin Taylor,Director/owner
PERFECTA TRAVEL,Croatia,ZAGREB,10000,https://navigate.itb.com/company/PERFECTA-TRAVEL--1031087,MATEA JERIC CURKOVIC,Managing Director
Phoenix Voyages Group,Vietnam,Hochiminh City,70000,https://navigate.itb.com/company/Phoenix-Voyages-Group--1031272,Huong VO,Marketing Assistant
Premier Grand Tours and Travel,Kenya,Nairobi,00902,https://navigate.itb.com/company/Premier-Grand-Tours-and-Travel--1216162,John Njogu,Managing Director
PRIMATE TOURS,Kenya,NAIROBI,18490,https://navigate.itb.com/company/PRIMATE-TOURS--1207173,BANCY NJERU,OPERATIONS MANAGER
PT. Indo Jaya Travel Bali,Indonesia,Denpasar,80115,https://navigate.itb.com/company/PT--Indo-Jaya-Travel-Bali--1216197,Ketut Diana,Director
PT Dwidaya Wisata Indonesia (DWI Tour),Indonesia,Badung,80361,https://navigate.itb.com/company/PT-Dwidaya-Wisata-Indonesia-DWI-Tour--1012762,Rahmat Satria Harmi,General Manager
"Pullman Cape Town, Movenpick Windhoek, Mercure Windhoek",South Africa,Cape Town,8000,https://navigate.itb.com/company/Pullman-Cape-Town-Movenpick-Windhoek-Mercure-Windhoek--1216245,Willie Williams,Area Director of Sales & Marketing
Pure! Colombia,Colombia,Bogota,,https://navigate.itb.com/company/Pure!-Colombia--1032468,Bram Evers,Managing Director
Puzzle Travel,Cyprus,Famagusta,34912,https://navigate.itb.com/company/Puzzle-Travel--1215908,Mubeccel Ozel,Business Development Manager
Qatar Airways,Germany,Frankfurt,60313,https://navigate.itb.com/company/Qatar-Airways--1032533,Andreas Suhr,Corporate Sales Manager – Central Europe
Quimbaya Latin America,France,Paris,94270,https://navigate.itb.com/company/Quimbaya-Latin-America--1214486,Laura Ortiz,Global Sales Director
Ravelino Tours & Travel,Indonesia,Medan,20228,https://navigate.itb.com/company/Ravelino-Tours-Travel--1033749,Raka Wildan Sima,Product Manager
Residence Inn by Marriott Sheikh Zayed Road,United Arab Emirates,Dubai,417451,https://navigate.itb.com/company/Residence-Inn-by-Marriott-Sheikh-Zayed-Road--1034141,Nada Khalil,
Resort Svata Katerina,Czechia,Praha 2 - Vinohrady,120 00,https://navigate.itb.com/company/Resort-Svata-Katerina--1034157,Jan Benda,
Respiro Tours,Greece,Kallithea,17673,https://navigate.itb.com/company/Respiro-Tours--1215726,Spyridon Patiris,Owner
Rijksmuseum,Netherlands,Amsterdam,1070XX,https://navigate.itb.com/company/Rijksmuseum--1205657,Nick Post,Sales Manager
RIVE&MORE - Authentic Experience,Italy,"Valdobbiadene, Treviso",31049,https://navigate.itb.com/company/RIVE-MORE---Authentic-Experience--1216303,Valentina Favore,Sales Manager
ROBERT ARRIGO & SONS LTD.,Malta,St. Julians,STJ 1217,https://navigate.itb.com/company/ROBERT-ARRIGO-SONS-LTD--1034492,Nils Hilsenitz,Commercial Director
Rocket Uzbekistan,Uzbekistan,Tashkent/Samarkand,100084,https://navigate.itb.com/company/Rocket-Uzbekistan--1207391,Negina Mukhtarova,executive chairman
Royal Mountain Travel,Nepal,Kathmandu,44600,https://navigate.itb.com/company/Royal-Mountain-Travel--1035103,Shiva Dhakal,Mananging Director
"Royal Silk Holidays Co.,Ltd",Thailand,Bangkok,10400,"https://navigate.itb.com/company/Royal-Silk-Holidays-Co-,Ltd--1035111",Pattarisa Prachumpai,Sales & Marketing Executive
S'TOURS,Morocco,Casablanca,20100,https://navigate.itb.com/company/S'TOURS--1038755,Hicham Belhadfa,Managing Director
San Marino Welcome,San Marino,Serravalle,47899,https://navigate.itb.com/company/San-Marino-Welcome--1035687,david bologna,Director
Santika Indonesia Hotels & Resort,Indonesia,Jakarta,12160,https://navigate.itb.com/company/Santika-Indonesia-Hotels-Resort--1035793,Sudarsana Sudarsana,"Corporate General Manager Bussdev, Sales & Marcomm"
Satellite-ES Ltd.,Bulgaria,Plovdiv,4000,https://navigate.itb.com/company/Satellite-ES-Ltd--1216542,Daniela Gozmanova,CEO
SatguruDMC,United Arab Emirates,Dubai,,https://navigate.itb.com/company/SatguruDMC--1213533,Sushil Pandey,Head Sales
Sealand tours d.o.o.,Croatia,Zagreb,10000,https://navigate.itb.com/company/Sealand-tours-d-o-o--1213815,Sara Selimovic,Sales manager
SEE PAKISTAN TOURS,Pakistan,Rawalpindi,46000,https://navigate.itb.com/company/SEE-PAKISTAN-TOURS--1036437,Ejaz hussain,CEO
Sevilla FC,Spain,Sevilla,41005,https://navigate.itb.com/company/Sevilla-FC--1216696,María Rojas Díaz,Events Project Manager
Shades of Green Safaris,Tanzania,Arusha,P.O. Box 12554,https://navigate.itb.com/company/Shades-of-Green-Safaris--1214485,Gadi Mbuya,CEO & Managing Director
Silk Path Hotels & Resorts Management Service Company Limited,Vietnam,Hanoi,100000,https://navigate.itb.com/company/Silk-Path-Hotels-Resorts-Management-Service-Company-Limited--1206436,Thuy Nguyen,Chief Business Officer
Sofitel Dubai Jumeirah Beach,United Arab Emirates,Dubai,473828,https://navigate.itb.com/company/Sofitel-Dubai-Jumeirah-Beach--1037810,Albert Meow,Director of Sales & Marketing
Springbok Atlas Tours and Safaris,South Africa,Cape Town,8001,https://navigate.itb.com/company/Springbok-Atlas-Tours-and-Safaris--1207235,Shaun Gadiah,General Manager- Sales
St. Martins Therme & Lodge/Therme Seewinkel Betriebsgesellschaft m.b.H.,Austria,Frauenkirchen,7132,https://navigate.itb.com/company/St--Martins-Therme-Lodge/Therme-Seewinkel-Betriebsgesellschaft-m-b-H--1214719,Thomas Vlk,Sales Manager
STAT INDONESIA TOURS,Indonesia,Yogyakarta,55511,https://navigate.itb.com/company/STAT-INDONESIA-TOURS--1215324,AUXILIADORA PATRICIA HENRIQE,DIRECTOR
Steigenberger Nile Palace Hotel and Convention Center,Egypt,Luxor,85111,https://navigate.itb.com/company/Steigenberger-Nile-Palace-Hotel-and-Convention-Center--1216490,Omar Youssef,Hotel Manager
STR Destination Handling GmbH & Co. KG,Germany,Heusenstamm,63150,https://navigate.itb.com/company/STR-Destination-Handling-GmbH-Co--KG--1038760,Isabelle Jehring,Sales Manager
SUMMERTIMES TRAVEL LTD,Cyprus,LIMASSOL,4102,https://navigate.itb.com/company/SUMMERTIMES-TRAVEL-LTD--1028174,Christos Asprou,Managing Director
SUN GATE TOURS / Sun Gate Tour Operador S.A.C.,Peru,Cusco,08004,https://navigate.itb.com/company/SUN-GATE-TOURS-/-Sun-Gate-Tour-Operador-S-A-C--1038962,David Quispe,Commercial Manager
Sunspot Tours (Malta) Ltd.,Malta,Sliema,SLM2080,https://navigate.itb.com/company/Sunspot-Tours-Malta-Ltd--1112202,Claudine Farrugia,General Manager
SUN SPREE TRAVEL PARTNER,Bulgaria,Sofia,1729,https://navigate.itb.com/company/SUN-SPREE-TRAVEL-PARTNER--1206277,Mila Ivanova,"Business development, Marketing & Sales Manager"
Supertour  DMC  Poland,Poland,Warszawa,02-306,https://navigate.itb.com/company/Supertour--DMC--Poland--1039075,Roman Głażewski,Product Manager
Suprateam Travel,Morocco,Tinghir,45800,https://navigate.itb.com/company/Suprateam-Travel--1217069,Aimrane Diani,CEO
Tahiti Nui Travel,French Polynesia,Papeete,98713,https://navigate.itb.com/company/Tahiti-Nui-Travel--1039384,Camille Moine,Market manager
Tallink Silja GmbH,Germany,Hamburg,20457,https://navigate.itb.com/company/Tallink-Silja-GmbH--1039451,Marina Selikowitsch,
Tandem Travel DMC Bulgaria,Bulgaria,Sofia,1504,https://navigate.itb.com/company/Tandem-Travel-DMC-Bulgaria--1039478,Daniela Stoeva,Director
TEMPORA TRAVEL Ltd.,Bulgaria,Sofia,1309,https://navigate.itb.com/company/TEMPORA-TRAVEL-Ltd--1039862,Daniela Nakova,Managing Director  (MD)
Terraverde Travel,Vietnam,Ho Chi Minh City,700000,https://navigate.itb.com/company/Terraverde-Travel--1039963,Tri-Dat (Johnny) Truong,Managing Partner
The Traveller DMC,Singapore,Singapore,409015,https://navigate.itb.com/company/The-Traveller-DMC--1040455,Ryan Low,
Tivoli Gardens,Denmark,Copenhagen,1630,https://navigate.itb.com/company/Tivoli-Gardens--1040732,Flemming Grüner,Key Account Manager
"Tongxiang Puyuan Tourism Co., Ltd.",China,Puyuan,314502,https://navigate.itb.com/company/Tongxiang-Puyuan-Tourism-Co-Ltd--1214271,Yang Li,
Topena D.O.O.,Croatia,Zadar,23000,https://navigate.itb.com/company/Topena-D-O-O--1014680,Drazen Petkovic,CEO
TOUR EAST TOUR DMC Incoming & Incentive,Hungary,Budapest,1023,https://navigate.itb.com/company/TOUR-EAST-TOUR-DMC-Incoming-Incentive--1041059,Patricia Bobek-Szente,Director of Operations
TourisMarketing Service GmbH/ Corporate Rates Club,Germany,Stralsund,18435,https://navigate.itb.com/company/TourisMarketing-Service-GmbH/-Corporate-Rates-Club--1215326,Yasmin Ick,Junior Marketing Manager
Tourismusverband Thermen- & Vulkanland,Austria,Fürstenfeld,8280,https://navigate.itb.com/company/Tourismusverband-Thermen-Vulkanland--1040512,Harald Wohnhas,Leitung Kommunikation/Presse
Tour Partner Group - DMC,United Kingdom,Harrow,HA1 1BE,https://navigate.itb.com/company/Tour-Partner-Group---DMC--1041066,Franziska Heffernan,Head of Marketing
Tour Partner Group Ireland – DMC,Ireland,Dublin,D18 W6N4,https://navigate.itb.com/company/Tour-Partner-Group-Ireland-DMC--1205134,Dorothee Horgan,Head of FIT
Tour Plus,Cyprus,Kyrenia,99990,https://navigate.itb.com/company/Tour-Plus--1213843,Bora Özgen,Direktör
"TransViet Travel Co., Ltd (Vietnam)",Vietnam,Ho Chi Minh,00700,https://navigate.itb.com/company/TransViet-Travel-Co-Ltd-Vietnam--1216721,Duong Hoai Vu (Rain),Inbound Director
Travel Deli,Lithuania,Vilnius,01127,https://navigate.itb.com/company/Travel-Deli--1216263,Vilija Malinauskaite,CEO
Travel Hangar Bali,Indonesia,Bali,80361,https://navigate.itb.com/company/Travel-Hangar-Bali--1206422,Santhosh Bhhandarii,Founder
Travel Twitch DMC,Montenegro,Bar,85000,https://navigate.itb.com/company/Travel-Twitch-DMC--1215867,Ivan Percobic,Director & COO
TRUSTED DMC,Vietnam,Hanoi,100000,https://navigate.itb.com/company/TRUSTED-DMC--1041907,Linh Tuan Nguyen,CEO - Managing Director
TTG Encore,United Kingdom,London,WC2H 9NA,https://navigate.itb.com/company/TTG-Encore--1041960,Rae Taylor,Senior Director of B2B
TTX - Trafalgar Tickets,United Kingdom,London,WC2R 0LQ,https://navigate.itb.com/company/TTX---Trafalgar-Tickets--1206479,Michelle Breen,Partnerships & Sales Manager
Uber Germany GmbH,Germany,Berlin,10179,https://navigate.itb.com/company/Uber-Germany-GmbH--1215678,Setareh Olgiati,
Umodzi Park Resorts,Malawi,Lilongwe,000,https://navigate.itb.com/company/Umodzi-Park-Resorts--1214034,Grey Jumali,Sales & Marketing Manager
United Airlines,Germany,Frankfurt,60549,https://navigate.itb.com/company/United-Airlines--1042451,Daniela Tanner,Marketing Manager
URTravel LImited,Hong Kong SAR China,Hong Kong,0,https://navigate.itb.com/company/URTravel-LImited--1216618,Asad Arif,Managing Director
V.O.S Destination Management,Denmark,Copenhagen,1 DK-2100,https://navigate.itb.com/company/V-O-S-Destination-Management--1042666,Marit Nielsen,
Van der Valk Hotel Schiphol,Netherlands,Hoofddorp,2132 MA,https://navigate.itb.com/company/Van-der-Valk-Hotel-Schiphol--1214436,Arjen van der Linden,Director of Sales
VAS GROUP,Albania,Tirana,1016,https://navigate.itb.com/company/VAS-GROUP--1042857,Zamira Musaraj,Coo
VDR - Verband Deutsches Reisemanagement e.V.,Germany,Frankfurt am Main,60598,https://navigate.itb.com/company/VDR---Verband-Deutsches-Reisemanagement-e-V--1043080,Christina Konkol,
Vengo DMC Poland,Poland,Warszawa,03-450,https://navigate.itb.com/company/Vengo-DMC-Poland--1217150,Przemysław Syller,CEO
Venn Tour DMC,Montenegro,Podgorica,81000,https://navigate.itb.com/company/Venn-Tour-DMC--1215865,Andri Stanovic,Sales Development Manager
Ventula Travel DMC,Croatia,Split,21000,https://navigate.itb.com/company/Ventula-Travel-DMC--1216477,Robert Bralić,Owner and Managing Director
Verband Deutsches Reisemanagement e.V. (VDR),Germany,Frankfurt am Main,60598,https://navigate.itb.com/company/Verband-Deutsches-Reisemanagement-e-V--VDR--1042947,Christina Konkol,
Viatur Travel,Costa Rica,San Jose,394,https://navigate.itb.com/company/Viatur-Travel--1215840,Mario Gutierrez,Director
Radisson Blu LATVIJA Conference & Spa hotel,Latvia,Riga,LV-1010,https://navigate.itb.com/company/Radisson-Blu-LATVIJA-Conference-Spa-hotel--1215335,Darta Bekere,Sales Manager
VIET EXPERIENCES TRAVEL AND TRADING COMPANY LIMITED,Vietnam,Hanoi,100000,https://navigate.itb.com/company/VIET-EXPERIENCES-TRAVEL-AND-TRADING-COMPANY-LIMITED--1214389,Dao Vu,Director
VIET STAR CRUISE INVESTMENT JOINT STOCK COMPANY,Vietnam,Hai Phong,180000,https://navigate.itb.com/company/VIET-STAR-CRUISE-INVESTMENT-JOINT-STOCK-COMPANY--1216151,Ngoc Thuy Quynh Nguyen,Board Of Director
VisitRimini DMC,Italy,Rimini,47921,https://navigate.itb.com/company/VisitRimini-DMC--1208304,Simona Raimondi,Incoming Specialist
Visit Stellenbosch,South Africa,Stellenbosch,7600,https://navigate.itb.com/company/Visit-Stellenbosch--1207843,Elmarie Rabe,Destination Manager
VIVA RIVERSIDE GmbH,Germany,Düsseldorf,40549,https://navigate.itb.com/company/VIVA-RIVERSIDE-GmbH--1206639,Sebastian Oremek,
VM MOROCCO,Morocco,Tétouan,93000,https://navigate.itb.com/company/VM-MOROCCO--1217077,Jamal E. Ajan,CEO
W2M SLU,Spain,Madrid,28033,https://navigate.itb.com/company/W2M-SLU--1216715,Antonio Garcia,"Head of DMC MICE, Sports & Cities"
VISITWallonia,Belgium,Namur,B-5000,https://navigate.itb.com/company/VISITWallonia--1167424,Nathalie Devos,Travel Trade & B2B / B2C Events Manager International Markets Supervisor
Wine a'More Travel,Hungary,Telki,2089,https://navigate.itb.com/company/Wine-a'More-Travel--1209127,Csilla Jánosi,"co-founder, owner"
Within Earth Holidays SDN. BHD,Malaysia,Kuala Lumpur,50450,https://navigate.itb.com/company/Within-Earth-Holidays-SDN--BHD--1044787,Saini Vermeulen,Executive Director
World of Volvo,Sweden,Gotheburg,412 63,https://navigate.itb.com/company/World-of-Volvo--1216187,Frode Andresen,Sales Manager Meeting & Events
World Tourist International S.A.,Switzerland,Lugano - Cassarate,6900,https://navigate.itb.com/company/World-Tourist-International-S-A--1044910,Anja Keune,Commercial Director
"Wuzhen Tourism Co., Ltd.",China,Wuzhen Town,314501,https://navigate.itb.com/company/Wuzhen-Tourism-Co-Ltd--1214257,Ruanting Lu,
Zaanse Schans,Netherlands,Zaandam,1509 AW,https://navigate.itb.com/company/Zaanse-Schans--1205221,Judith Schoof-van Dijl,Manager Marketing Communicatie
Zagreb Tourist Board,Croatia,Zagreb,10000,https://navigate.itb.com/company/Zagreb-Tourist-Board--1139487,Nikolina Bobesic,
